Address,Municipality,Locality,LAT,LONG,Updated,Zip,Distance Breaks,Distance Rank,Distance
6528 BLENHEIM RD,Powhatan County,POWHATAN,37.53299548,-78.11106628,2019-06-04,23139,1.0 - 2.0 Mile,316,1.62
6386 OLD BUCKINGHAM RD,Powhatan County,POWHATAN,37.48448166,-78.10091419,2019-06-04,23139,3.0 - 5.0 Mile,1639,4.95
6402 OLD BUCKINGHAM RD,Powhatan County,POWHATAN,37.48464777,-78.101742,2019-06-04,23139,3.0 - 5.0 Mile,1619,4.93
6400 OLD BUCKINGHAM RD,Powhatan County,POWHATAN,37.48567804,-78.10194149,2019-06-04,23139,3.0 - 5.0 Mile,1579,4.85
6390 OLD BUCKINGHAM RD,Powhatan County,POWHATAN,37.48624998,-78.10098501,2019-06-04,23139,3.0 - 5.0 Mile,1566,4.83
6394 OLD BUCKINGHAM RD,Powhatan County,POWHATAN,37.48711698,-78.10119427,2019-06-04,23139,3.0 - 5.0 Mile,1532,4.77
1187 FLIPPEN RD,Powhatan County,POWHATAN,37.48216309,-78.11699179,2019-06-04,23139,3.0 - 5.0 Mile,1626,4.94
1160 FLIPPEN RD,Powhatan County,POWHATAN,37.48588214,-78.11926511,2019-06-04,23139,3.0 - 5.0 Mile,1485,4.67
1156 FLIPPEN RD,Powhatan County,POWHATAN,37.48663702,-78.11713832,2019-06-04,23139,3.0 - 5.0 Mile,1462,4.63
1209 FLIPPEN RD,Powhatan County,POWHATAN,37.48472105,-78.12194198,2019-06-04,23139,3.0 - 5.0 Mile,1518,4.74
1211 FLIPPEN RD,Powhatan County,POWHATAN,37.4873138,-78.12003093,2019-06-04,23139,3.0 - 5.0 Mile,1424,4.57
6390 BLENHEIM RD,Powhatan County,POWHATAN,37.52124776,-78.10023656,2019-06-04,23139,2.0 - 3.0 Mile,590,2.62
6425 BLENHEIM RD,Powhatan County,POWHATAN,37.52197604,-78.10605078,2019-06-04,23139,2.0 - 3.0 Mile,544,2.42
6418 BLENHEIM RD,Powhatan County,POWHATAN,37.52330587,-78.09980584,2019-06-04,23139,2.0 - 3.0 Mile,565,2.51
6430 BLENHEIM RD,Powhatan County,POWHATAN,37.52466187,-78.10335844,2019-06-04,23139,2.0 - 3.0 Mile,511,2.33
6454 BLENHEIM RD,Powhatan County,POWHATAN,37.52793276,-78.104247,2019-06-04,23139,2.0 - 3.0 Mile,452,2.11
6455 BLENHEIM RD,Powhatan County,POWHATAN,37.52539102,-78.1094836,2019-06-04,23139,2.0 - 3.0 Mile,458,2.13
6500 BLENHEIM RD,Powhatan County,POWHATAN,37.53375593,-78.10475864,2019-06-04,23139,1.0 - 2.0 Mile,358,1.77
215 FRENCHS STORE RD,Powhatan County,POWHATAN,37.52107107,-78.11154477,2019-06-04,23040,2.0 - 3.0 Mile,528,2.37
1203 FLIPPEN RD,Powhatan County,POWHATAN,37.48298216,-78.11805702,2019-06-04,23139,3.0 - 5.0 Mile,1586,4.88
1189 FLIPPEN RD,Powhatan County,POWHATAN,37.48176683,-78.11754566,2019-06-04,23139,3.0 - 5.0 Mile,1666,4.96
6444 BLENHEIM RD,Powhatan County,POWHATAN,37.52642355,-78.10426432,2019-06-04,23139,2.0 - 3.0 Mile,475,2.20
1205 FLIPPEN RD,Powhatan County,POWHATAN,37.48401124,-78.11917312,2019-06-04,23139,3.0 - 5.0 Mile,1547,4.80
1181 FLIPPEN RD,Powhatan County,POWHATAN,37.4817474,-78.11644205,2019-06-04,23139,3.0 - 5.0 Mile,1671,4.97
6464 BLENHEIM RD,Powhatan County,POWHATAN,37.52701375,-78.10620906,2019-06-04,23139,2.0 - 3.0 Mile,451,2.11
6530 BLENHEIM RD,Powhatan County,POWHATAN,37.53314001,-78.11055479,2019-06-04,23139,1.0 - 2.0 Mile,319,1.63
6360 HALEFORD DR,Powhatan County,POWHATAN,37.5366236,-78.09725611,2019-06-04,23139,1.0 - 2.0 Mile,397,1.92
6486 BLENHEIM RD,Powhatan County,POWHATAN,37.53132319,-78.10793052,2019-06-04,23139,1.0 - 2.0 Mile,369,1.81
1189A FLIPPEN RD A,Powhatan County,POWHATAN,37.48178064,-78.11763694,2019-06-04,23139,3.0 - 5.0 Mile,1663,4.96
6484 BLENHEIM RD,Powhatan County,POWHATAN,37.52941237,-78.1072513,2019-06-04,23139,1.0 - 2.0 Mile,403,1.94
1201 FLIPPEN RD,Powhatan County,POWHATAN,37.48262547,-78.11744572,2019-06-04,23139,3.0 - 5.0 Mile,1607,4.91
6424 BLENHEIM RD,Powhatan County,POWHATAN,37.52455523,-78.10171499,2019-06-04,23139,2.0 - 3.0 Mile,532,2.38
6474 BLENHEIM RD,Powhatan County,POWHATAN,37.52827203,-78.10624078,2019-06-04,23139,2.0 - 3.0 Mile,431,2.04
1191 FLIPPEN RD,Powhatan County,POWHATAN,37.48174286,-78.11860496,2019-06-04,23139,3.0 - 5.0 Mile,1659,4.96
1193 FLIPPEN RD,Powhatan County,POWHATAN,37.48187543,-78.11940681,2019-06-04,23139,3.0 - 5.0 Mile,1637,4.95
1195 FLIPPEN RD,Powhatan County,POWHATAN,37.48277155,-78.11980723,2019-06-04,23139,3.0 - 5.0 Mile,1589,4.89
6494 BLENHEIM RD,Powhatan County,POWHATAN,37.53578757,-78.10414746,2019-06-04,23139,1.0 - 2.0 Mile,330,1.68
6496 BLENHEIM RD,Powhatan County,POWHATAN,37.53389424,-78.10148843,2019-06-04,23139,1.0 - 2.0 Mile,382,1.88
6544 BLENHEIM RD,Powhatan County,POWHATAN,37.53417558,-78.1121503,2019-06-04,23139,1.0 - 2.0 Mile,285,1.52
654 FRENCHS STORE ROAD,Cumberland County,CUMBERLAND,37.50144971,-78.14554648,2019-09-11,23040,3.0 - 5.0 Mile,970,3.73
79 BERGERS LANE,Cumberland County,CUMBERLAND,37.49714688,-78.14955522,2019-09-11,23040,3.0 - 5.0 Mile,1152,4.08
63 BERGERS LANE,Cumberland County,CUMBERLAND,37.49751043,-78.1498822,2019-09-11,23040,3.0 - 5.0 Mile,1140,4.06
150 BRANSFORD ROAD,Cumberland County,CUMBERLAND,37.48628673,-78.14752293,2019-09-11,23040,3.0 - 5.0 Mile,1531,4.77
11 RUSSELLS WAY,Cumberland County,CUMBERLAND,37.49329578,-78.15275307,2019-09-11,23040,3.0 - 5.0 Mile,1299,4.39
7 BOOKER LANE,Cumberland County,CUMBERLAND,37.49329674,-78.16081201,2019-09-11,23040,3.0 - 5.0 Mile,1399,4.53
844 FRENCHS STORE ROAD,Cumberland County,CUMBERLAND,37.49297259,-78.15994139,2019-09-11,23040,3.0 - 5.0 Mile,1409,4.53
292 GOSHEN ROAD,Cumberland County,CUMBERLAND,37.50177998,-78.16825194,2019-09-11,23040,3.0 - 5.0 Mile,1200,4.17
196 GOSHEN ROAD,Cumberland County,CUMBERLAND,37.50297974,-78.17508924,2019-09-11,23040,3.0 - 5.0 Mile,1261,4.29
6543 BLENHEIM ROAD,Cumberland County,POWHATAN,37.53346042,-78.11684829,2019-09-11,23139,1.0 - 2.0 Mile,269,1.46
6528 BLENHEIM ROAD,Cumberland County,POWHATAN,37.53299801,-78.11110255,2019-09-11,23139,1.0 - 2.0 Mile,315,1.62
274 FRENCHS STORE ROAD,Cumberland County,CUMBERLAND,37.52135358,-78.11960702,2019-09-11,23040,2.0 - 3.0 Mile,487,2.24
296 FRENCHS STORE ROAD,Cumberland County,CUMBERLAND,37.52096662,-78.12111358,2019-09-11,23040,2.0 - 3.0 Mile,492,2.26
123 FRENCHS STORE ROAD,Cumberland County,CUMBERLAND,37.5329082,-78.12025806,2019-09-11,23040,1.0 - 2.0 Mile,266,1.45
656 ANDERSON HIG*,Cumberland County,CUMBERLAND,37.52988285,-78.17038698,2019-09-11,23040,2.0 - 3.0 Mile,617,2.72
92 OAK FOREST ROAD,Cumberland County,CUMBERLAND,37.53164924,-78.18696022,2019-09-11,23040,3.0 - 5.0 Mile,825,3.40
57 CARTERSVILLE ROAD,Cumberland County,CUMBERLAND,37.52041943,-78.20848713,2019-09-11,23040,3.0 - 5.0 Mile,1552,4.81
94 ALMOND LANE,Cumberland County,CUMBERLAND,37.50914807,-78.14844237,2019-09-11,23040,3.0 - 5.0 Mile,779,3.27
169 JENKINS CHURCH ROAD,Cumberland County,CUMBERLAND,37.53488713,-78.21687075,2019-09-11,23040,3.0 - 5.0 Mile,1560,4.82
214 CARTERSVILLE ROAD,Cumberland County,CUMBERLAND,37.53090942,-78.1980058,2019-09-11,23040,3.0 - 5.0 Mile,1074,3.96
206 CARTERSVILLE ROAD,Cumberland County,CUMBERLAND,37.53029976,-78.19867002,2019-09-11,23040,3.0 - 5.0 Mile,1103,4.01
181 CARTERSVILLE ROAD,Cumberland County,CUMBERLAND,37.52953331,-78.20124954,2019-09-11,23040,3.0 - 5.0 Mile,1198,4.16
20 PURKEY LANE,Cumberland County,CUMBERLAND,37.52979081,-78.20304852,2019-09-11,23040,3.0 - 5.0 Mile,1240,4.24
19 PURKEY LANE,Cumberland County,CUMBERLAND,37.52913056,-78.20316583,2019-09-11,23040,3.0 - 5.0 Mile,1246,4.27
9 PURKEY LANE,Cumberland County,CUMBERLAND,37.52893998,-78.2018654,2019-09-11,23040,3.0 - 5.0 Mile,1221,4.21
170 CARTERSVILLE ROAD,Cumberland County,CUMBERLAND,37.52810511,-78.20170328,2019-09-11,23040,3.0 - 5.0 Mile,1228,4.23
157 CARTERSVILLE ROAD,Cumberland County,CUMBERLAND,37.52829613,-78.20343962,2019-09-11,23040,3.0 - 5.0 Mile,1263,4.31
42 JENKINS CHURCH ROAD,Cumberland County,CUMBERLAND,37.52802474,-78.20709579,2019-09-11,23040,3.0 - 5.0 Mile,1380,4.50
902 ANDERSON HIG*,Cumberland County,CUMBERLAND,37.52428346,-78.19808533,2019-09-11,23040,3.0 - 5.0 Mile,1205,4.18
10 JENKINS CHURCH ROAD,Cumberland County,CUMBERLAND,37.52525419,-78.20675251,2019-09-11,23040,3.0 - 5.0 Mile,1420,4.57
94 CARTERSVILLE ROAD,Cumberland County,CUMBERLAND,37.5234972,-78.20575137,2019-09-11,23040,3.0 - 5.0 Mile,1427,4.58
93 CARTERSVILLE ROAD,Cumberland County,CUMBERLAND,37.52361298,-78.20745283,2019-09-11,23040,3.0 - 5.0 Mile,1471,4.65
101 CARTERSVILLE ROAD,Cumberland County,CUMBERLAND,37.52446871,-78.20730723,2019-09-11,23040,3.0 - 5.0 Mile,1452,4.62
80 FOREST ACRES LANE,Cumberland County,CUMBERLAND,37.52454464,-78.2138016,2019-09-11,23040,3.0 - 5.0 Mile,1623,4.93
73 FOREST ACRES LANE,Cumberland County,CUMBERLAND,37.52369699,-78.21445103,2019-09-11,23040,3.0 - 5.0 Mile,1685,4.99
69 FOREST ACRES LANE,Cumberland County,CUMBERLAND,37.52325838,-78.21397882,2019-09-11,23040,3.0 - 5.0 Mile,1679,4.98
68 FOREST ACRES LANE,Cumberland County,CUMBERLAND,37.52394326,-78.21341617,2019-09-11,23040,3.0 - 5.0 Mile,1622,4.93
66 FOREST ACRES LANE,Cumberland County,CUMBERLAND,37.52371937,-78.21306161,2019-09-11,23040,3.0 - 5.0 Mile,1616,4.92
48 FOREST ACRES LANE,Cumberland County,CUMBERLAND,37.52292802,-78.21215996,2019-09-11,23040,3.0 - 5.0 Mile,1601,4.90
69 CARTERSVILLE ROAD,Cumberland County,CUMBERLAND,37.52170826,-78.20797251,2019-09-11,23040,3.0 - 5.0 Mile,1516,4.74
65 CARTERSVILLE ROAD,Cumberland County,CUMBERLAND,37.52146374,-78.20808323,2019-09-11,23040,3.0 - 5.0 Mile,1524,4.76
357 ANDERSON HIG*,Cumberland County,CUMBERLAND,37.53715084,-78.14299464,2019-09-11,23040,1.0 - 2.0 Mile,240,1.36
365 ANDERSON HIG*,Cumberland County,CUMBERLAND,37.53694392,-78.14364571,2019-09-11,23040,1.0 - 2.0 Mile,248,1.39
28 THE WOO*,Cumberland County,CUMBERLAND,37.53575436,-78.14370837,2019-09-11,23040,1.0 - 2.0 Mile,270,1.47
32 THE WOO*,Cumberland County,CUMBERLAND,37.53520102,-78.14392768,2019-09-11,23040,1.0 - 2.0 Mile,281,1.51
42 THE WOO*,Cumberland County,CUMBERLAND,37.53463699,-78.14361102,2019-09-11,23040,1.0 - 2.0 Mile,293,1.53
53 THE WOO*,Cumberland County,CUMBERLAND,37.53418975,-78.14287185,2019-09-11,23040,1.0 - 2.0 Mile,294,1.54
57 THE WOO*,Cumberland County,CUMBERLAND,37.53336268,-78.1426705,2019-09-11,23040,1.0 - 2.0 Mile,311,1.59
71 THE WOO*,Cumberland County,CUMBERLAND,37.53276259,-78.14244527,2019-09-11,23040,1.0 - 2.0 Mile,318,1.63
75 THE WOO*,Cumberland County,CUMBERLAND,37.53202919,-78.14319003,2019-09-11,23040,1.0 - 2.0 Mile,333,1.69
52 THE WOO*,Cumberland County,CUMBERLAND,37.53402052,-78.14397889,2019-09-11,23040,1.0 - 2.0 Mile,308,1.58
58 THE WOO*,Cumberland County,CUMBERLAND,37.53343088,-78.14420977,2019-09-11,23040,1.0 - 2.0 Mile,317,1.62
68 THE WOO*,Cumberland County,CUMBERLAND,37.53283285,-78.14466877,2019-09-11,23040,1.0 - 2.0 Mile,328,1.67
74 THE WOO*,Cumberland County,CUMBERLAND,37.53231511,-78.14464841,2019-09-11,23040,1.0 - 2.0 Mile,336,1.70
450 ANDERSON HIG*,Cumberland County,CUMBERLAND,37.53554173,-78.15161284,2019-09-11,23040,1.0 - 2.0 Mile,341,1.72
452 ANDERSON HIG*,Cumberland County,CUMBERLAND,37.53528136,-78.15264047,2019-09-11,23040,1.0 - 2.0 Mile,355,1.76
466 ANDERSON HIG*,Cumberland County,CUMBERLAND,37.53496693,-78.1538166,2019-09-11,23040,1.0 - 2.0 Mile,371,1.82
472 ANDERSON HIG*,Cumberland County,CUMBERLAND,37.53478753,-78.15458153,2019-09-11,23040,1.0 - 2.0 Mile,377,1.86
296 CARTERSVILLE ROAD,Cumberland County,CUMBERLAND,37.53688247,-78.19351238,2019-09-11,23040,3.0 - 5.0 Mile,887,3.57
90 OAK FOREST ROAD,Cumberland County,CUMBERLAND,37.53113828,-78.18854693,2019-09-11,23040,3.0 - 5.0 Mile,864,3.49
289 CARTERSVILLE ROAD,Cumberland County,CUMBERLAND,37.53659916,-78.19442674,2019-09-11,23040,3.0 - 5.0 Mile,920,3.62
283 CARTERSVILLE ROAD,Cumberland County,CUMBERLAND,37.53619954,-78.19478134,2019-09-11,23040,3.0 - 5.0 Mile,946,3.65
277 CARTERSVILLE ROAD,Cumberland County,CUMBERLAND,37.53586977,-78.19497681,2019-09-11,23040,3.0 - 5.0 Mile,952,3.67
246 CARTERSVILLE ROAD,Cumberland County,CUMBERLAND,37.53221437,-78.19445339,2019-09-11,23040,3.0 - 5.0 Mile,978,3.75
73 OAK FOREST ROAD,Cumberland County,CUMBERLAND,37.52965666,-78.18944705,2019-09-11,23040,3.0 - 5.0 Mile,895,3.59
27 OAK FOREST ROAD,Cumberland County,CUMBERLAND,37.52699377,-78.18802557,2019-09-11,23040,3.0 - 5.0 Mile,919,3.62
700 ANDERSON HIG*,Cumberland County,CUMBERLAND,37.53018185,-78.17672623,2019-09-11,23040,2.0 - 3.0 Mile,692,2.99
21 OAK FOREST ROAD,Cumberland County,CUMBERLAND,37.52566208,-78.18722333,2019-09-11,23040,3.0 - 5.0 Mile,936,3.63
759 ANDERSON HIG*,Cumberland County,CUMBERLAND,37.52491882,-78.18175481,2019-09-11,23040,3.0 - 5.0 Mile,835,3.42
687 ANDERSON HIG*,Cumberland County,CUMBERLAND,37.52717135,-78.17513129,2019-09-11,23040,3.0 - 5.0 Mile,702,3.04
665 ANDERSON HIG*,Cumberland County,CUMBERLAND,37.52749256,-78.17304307,2019-09-11,23040,2.0 - 3.0 Mile,680,2.94
663 ANDERSON HIG*,Cumberland County,CUMBERLAND,37.52683504,-78.17173454,2019-09-11,23040,2.0 - 3.0 Mile,672,2.91
641 ANDERSON HIG*,Cumberland County,CUMBERLAND,37.52815732,-78.17040595,2019-09-11,23040,2.0 - 3.0 Mile,640,2.80
613 ANDERSON HIG*,Cumberland County,CUMBERLAND,37.52785746,-78.16710024,2019-09-11,23040,2.0 - 3.0 Mile,605,2.68
611 ANDERSON HIG*,Cumberland County,CUMBERLAND,37.52897795,-78.16831547,2019-09-11,23040,2.0 - 3.0 Mile,602,2.68
591 ANDERSON HIG*,Cumberland County,CUMBERLAND,37.52978947,-78.16270368,2019-09-11,23040,2.0 - 3.0 Mile,540,2.42
559 ANDERSON HIG*,Cumberland County,CUMBERLAND,37.53137426,-78.16141685,2019-09-11,23040,2.0 - 3.0 Mile,503,2.29
518 ANDERSON HIG*,Cumberland County,CUMBERLAND,37.53336389,-78.15848837,2019-09-11,23040,2.0 - 3.0 Mile,438,2.08
500 ANDERSON HIG*,Cumberland County,CUMBERLAND,37.53408755,-78.15748148,2019-09-11,23040,2.0 - 3.0 Mile,420,2.00
143 MAXEYS MILL ROAD,Cumberland County,CUMBERLAND,37.5150032,-78.17822558,2019-09-11,23040,3.0 - 5.0 Mile,977,3.74
132 MAXEYS MILL ROAD,Cumberland County,CUMBERLAND,37.51602879,-78.1798753,2019-09-11,23040,3.0 - 5.0 Mile,985,3.75
198 JENKINS CHURCH ROAD,Cumberland County,CUMBERLAND,37.53703622,-78.21426988,2019-09-11,23040,3.0 - 5.0 Mile,1464,4.64
76 TRENT LANE,Cumberland County,CUMBERLAND,37.49919923,-78.1782615,2019-09-11,23040,3.0 - 5.0 Mile,1447,4.61
30 TRENT LANE,Cumberland County,CUMBERLAND,37.49549844,-78.17753663,2019-09-11,23040,3.0 - 5.0 Mile,1544,4.80
651 OLD BUCKINGHAM ROAD,Cumberland County,CUMBERLAND,37.49344363,-78.17851753,2019-09-11,23040,3.0 - 5.0 Mile,1640,4.95
649 OLD BUCKINGHAM ROAD,Cumberland County,CUMBERLAND,37.49355578,-78.1787539,2019-09-11,23040,3.0 - 5.0 Mile,1642,4.95
23 TRENT LANE,Cumberland County,CUMBERLAND,37.49549412,-78.17847545,2019-09-11,23040,3.0 - 5.0 Mile,1565,4.83
25 TRENT LANE,Cumberland County,CUMBERLAND,37.49557147,-78.17947958,2019-09-11,23040,3.0 - 5.0 Mile,1578,4.85
645 OLD BUCKINGHAM ROAD,Cumberland County,CUMBERLAND,37.49415005,-78.17963415,2019-09-11,23040,3.0 - 5.0 Mile,1627,4.94
399 OLD BUCKINGHAM ROAD,Cumberland County,CUMBERLAND,37.50422763,-78.19583825,2019-09-11,23040,3.0 - 5.0 Mile,1638,4.95
355 OLD BUCKINGHAM ROAD,Cumberland County,CUMBERLAND,37.50842349,-78.19556762,2019-09-11,23040,3.0 - 5.0 Mile,1513,4.74
377 OLD BUCKINGHAM ROAD,Cumberland County,CUMBERLAND,37.50691391,-78.19536095,2019-09-11,23040,3.0 - 5.0 Mile,1543,4.80
353 OLD BUCKINGHAM ROAD,Cumberland County,CUMBERLAND,37.50698968,-78.19835323,2019-09-11,23040,3.0 - 5.0 Mile,1613,4.92
387 OLD BUCKINGHAM ROAD,Cumberland County,CUMBERLAND,37.50505436,-78.19757297,2019-09-11,23040,3.0 - 5.0 Mile,1672,4.98
55 GOSHEN ROAD,Cumberland County,CUMBERLAND,37.5025758,-78.19069652,2019-09-11,23040,3.0 - 5.0 Mile,1572,4.84
57 GOSHEN ROAD,Cumberland County,CUMBERLAND,37.50261554,-78.19014508,2019-09-11,23040,3.0 - 5.0 Mile,1556,4.82
63 GOSHEN ROAD,Cumberland County,CUMBERLAND,37.50215983,-78.18907888,2019-09-11,23040,3.0 - 5.0 Mile,1546,4.80
77 GOSHEN ROAD,Cumberland County,CUMBERLAND,37.50423946,-78.18790139,2019-09-11,23040,3.0 - 5.0 Mile,1470,4.65
93 GOSHEN ROAD,Cumberland County,CUMBERLAND,37.50393256,-78.18632744,2019-09-11,23040,3.0 - 5.0 Mile,1449,4.61
74 GOSHEN ROAD,Cumberland County,CUMBERLAND,37.50162253,-78.18830589,2019-09-11,23040,3.0 - 5.0 Mile,1548,4.80
66 GOSHEN ROAD,Cumberland County,CUMBERLAND,37.50110163,-78.18854922,2019-09-11,23040,3.0 - 5.0 Mile,1573,4.84
76 GOSHEN ROAD,Cumberland County,CUMBERLAND,37.50123797,-78.18820412,2019-09-11,23040,3.0 - 5.0 Mile,1559,4.82
92 GOSHEN ROAD,Cumberland County,CUMBERLAND,37.50111471,-78.18570673,2019-09-11,23040,3.0 - 5.0 Mile,1515,4.74
120 GOSHEN ROAD,Cumberland County,CUMBERLAND,37.5023693,-78.18299145,2019-09-11,23040,3.0 - 5.0 Mile,1431,4.58
105 GOSHEN ROAD,Cumberland County,CUMBERLAND,37.50321567,-78.1851413,2019-09-11,23040,3.0 - 5.0 Mile,1446,4.61
119 GOSHEN ROAD,Cumberland County,CUMBERLAND,37.50359023,-78.18406302,2019-09-11,23040,3.0 - 5.0 Mile,1418,4.55
118 GOSHEN ROAD,Cumberland County,CUMBERLAND,37.50219817,-78.18315367,2019-09-11,23040,3.0 - 5.0 Mile,1441,4.59
132 GOSHEN ROAD,Cumberland County,CUMBERLAND,37.50283017,-78.18211737,2019-09-11,23040,3.0 - 5.0 Mile,1396,4.53
266 MAXEYS MILL ROAD,Cumberland County,CUMBERLAND,37.50594449,-78.18215097,2019-09-11,23040,3.0 - 5.0 Mile,1281,4.36
274 MAXEYS MILL ROAD,Cumberland County,CUMBERLAND,37.50510878,-78.18168591,2019-09-11,23040,3.0 - 5.0 Mile,1301,4.39
280 MAXEYS MILL ROAD,Cumberland County,CUMBERLAND,37.50450434,-78.18148174,2019-09-11,23040,3.0 - 5.0 Mile,1323,4.41
137 GOSHEN ROAD,Cumberland County,CUMBERLAND,37.50385041,-78.18191925,2019-09-11,23040,3.0 - 5.0 Mile,1353,4.46
133 GOSHEN ROAD,Cumberland County,CUMBERLAND,37.50378303,-78.18238253,2019-09-11,23040,3.0 - 5.0 Mile,1370,4.48
283 MAXEYS MILL ROAD,Cumberland County,CUMBERLAND,37.50463432,-78.18081964,2019-09-11,23040,3.0 - 5.0 Mile,1296,4.38
151 GOSHEN ROAD,Cumberland County,CUMBERLAND,37.50422941,-78.18045124,2019-09-11,23040,3.0 - 5.0 Mile,1305,4.39
167 GOSHEN ROAD,Cumberland County,CUMBERLAND,37.50444168,-78.1793643,2019-09-11,23040,3.0 - 5.0 Mile,1276,4.35
164 GOSHEN ROAD,Cumberland County,CUMBERLAND,37.50230916,-78.1784638,2019-09-11,23040,3.0 - 5.0 Mile,1337,4.44
154 GOSHEN ROAD,Cumberland County,CUMBERLAND,37.50380236,-78.18006715,2019-09-11,23040,3.0 - 5.0 Mile,1316,4.40
156 GOSHEN ROAD,Cumberland County,CUMBERLAND,37.50386737,-78.17974713,2019-09-11,23040,3.0 - 5.0 Mile,1302,4.39
162 GOSHEN ROAD,Cumberland County,CUMBERLAND,37.50394111,-78.17940503,2019-09-11,23040,3.0 - 5.0 Mile,1292,4.37
168 GOSHEN ROAD,Cumberland County,CUMBERLAND,37.5039706,-78.17894183,2019-09-11,23040,3.0 - 5.0 Mile,1283,4.36
166 GOSHEN ROAD,Cumberland County,CUMBERLAND,37.503003,-78.17843327,2019-09-11,23040,3.0 - 5.0 Mile,1307,4.40
199 GOSHEN ROAD,Cumberland County,CUMBERLAND,37.50493146,-78.17404659,2019-09-11,23040,3.0 - 5.0 Mile,1188,4.15
261 GOSHEN ROAD,Cumberland County,CUMBERLAND,37.50382168,-78.17083878,2019-09-11,23040,3.0 - 5.0 Mile,1178,4.12
228 GOSHEN ROAD,Cumberland County,CUMBERLAND,37.50235895,-78.17363483,2019-09-11,23040,3.0 - 5.0 Mile,1257,4.29
482 FRENCHS STORE ROAD,Cumberland County,CUMBERLAND,37.51343613,-78.13480854,2019-09-11,23040,2.0 - 3.0 Mile,637,2.79
215 FRENCHS STORE ROAD,Cumberland County,POWHATAN,37.52111288,-78.11161711,2019-09-11,23040,2.0 - 3.0 Mile,525,2.36
277 FRENCHS STORE ROAD,Cumberland County,CUMBERLAND,37.52065431,-78.11954305,2019-09-11,23040,2.0 - 3.0 Mile,504,2.29
290 FRENCHS STORE ROAD,Cumberland County,CUMBERLAND,37.52101021,-78.12033212,2019-09-11,23040,2.0 - 3.0 Mile,493,2.26
249 FRENCHS STORE ROAD,Cumberland County,CUMBERLAND,37.52213208,-78.11604865,2019-09-11,23040,2.0 - 3.0 Mile,483,2.23
265 FRENCHS STORE ROAD,Cumberland County,CUMBERLAND,37.52143783,-78.11855741,2019-09-11,23040,2.0 - 3.0 Mile,489,2.24
266 FRENCHS STORE ROAD,Cumberland County,CUMBERLAND,37.5215959,-78.11918956,2019-09-11,23040,2.0 - 3.0 Mile,484,2.23
248 FRENCHS STORE ROAD,Cumberland County,CUMBERLAND,37.52315732,-78.11861797,2019-09-11,23040,2.0 - 3.0 Mile,454,2.13
127 FRENCHS STORE ROAD,Cumberland County,CUMBERLAND,37.53194881,-78.12223466,2019-09-11,23040,1.0 - 2.0 Mile,278,1.50
6533 BLENHEIM ROAD,Cumberland County,POWHATAN,37.53255417,-78.11332421,2019-09-11,23139,1.0 - 2.0 Mile,312,1.59
6535 BLENHEIM ROAD,Cumberland County,POWHATAN,37.53246943,-78.11683477,2019-09-11,23139,1.0 - 2.0 Mile,289,1.53
6540 BLENHEIM ROAD,Cumberland County,POWHATAN,37.53402926,-78.1121187,2019-09-11,23139,1.0 - 2.0 Mile,291,1.53
6542 BLENHEIM ROAD,Cumberland County,POWHATAN,37.53419201,-78.11213643,2019-09-11,23139,1.0 - 2.0 Mile,284,1.52
7 HOSTEN LANE,Cumberland County,POWHATAN,37.53474808,-78.11484517,2019-09-11,23139,1.0 - 2.0 Mile,258,1.42
6546 BLENHEIM ROAD,Cumberland County,POWHATAN,37.53510211,-78.1122896,2019-09-11,23139,1.0 - 2.0 Mile,268,1.46
6554 BLENHEIM ROAD,Cumberland County,POWHATAN,37.53538383,-78.11371216,2019-09-11,23139,1.0 - 2.0 Mile,255,1.41
119 FRENCHS STORE ROAD,Cumberland County,CUMBERLAND,37.53298309,-78.12157878,2019-09-11,23040,1.0 - 2.0 Mile,261,1.43
113 FRENCHS STORE ROAD,Cumberland County,CUMBERLAND,37.53356772,-78.12271947,2019-09-11,23040,1.0 - 2.0 Mile,244,1.38
101 FRENCHS STORE ROAD,Cumberland County,CUMBERLAND,37.5350497,-78.12212049,2019-09-11,23040,1.0 - 2.0 Mile,222,1.29
102 FRENCHS STORE ROAD,Cumberland County,CUMBERLAND,37.53442049,-78.12424335,2019-09-11,23040,1.0 - 2.0 Mile,230,1.31
96 FRENCHS STORE ROAD,Cumberland County,CUMBERLAND,37.53376056,-78.12659309,2019-09-11,23040,1.0 - 2.0 Mile,238,1.36
90 FRENCHS STORE ROAD,Cumberland County,CUMBERLAND,37.53464525,-78.12579997,2019-09-11,23040,1.0 - 2.0 Mile,225,1.30
88 FRENCHS STORE ROAD,Cumberland County,CUMBERLAND,37.53490132,-78.12484236,2019-09-11,23040,1.0 - 2.0 Mile,219,1.28
84 FRENCHS STORE ROAD,Cumberland County,CUMBERLAND,37.53535675,-78.1248598,2019-09-11,23040,1.0 - 2.0 Mile,210,1.25
80 FRENCHS STORE ROAD,Cumberland County,CUMBERLAND,37.53592203,-78.12485698,2019-09-11,23040,1.0 - 2.0 Mile,198,1.21
78 FRENCHS STORE ROAD,Cumberland County,CUMBERLAND,37.53656694,-78.1252087,2019-09-11,23040,1.0 - 2.0 Mile,186,1.16
68 FRENCHS STORE ROAD,Cumberland County,CUMBERLAND,37.53706845,-78.12490056,2019-09-11,23040,1.0 - 2.0 Mile,177,1.13
81 FRENCHS STORE ROAD,Cumberland County,CUMBERLAND,37.53631894,-78.12375076,2019-09-11,23040,1.0 - 2.0 Mile,193,1.19
85 FRENCHS STORE ROAD,Cumberland County,CUMBERLAND,37.53575337,-78.12366485,2019-09-11,23040,1.0 - 2.0 Mile,203,1.23
6573 BLENHEIM ROAD,Cumberland County,POWHATAN,37.53524966,-78.1150913,2019-09-11,23139,1.0 - 2.0 Mile,245,1.38
6581 BLENHEIM ROAD,Cumberland County,POWHATAN,37.5360405,-78.11666885,2019-09-11,23139,1.0 - 2.0 Mile,227,1.30
6582 BLENHEIM ROAD,Cumberland County,POWHATAN,37.53676512,-78.11358622,2019-09-11,23139,1.0 - 2.0 Mile,234,1.33
1227 OLD BUCKINGHAM ROAD,Cumberland County,POWHATAN,37.48155011,-78.12833499,2019-09-11,23139,3.0 - 5.0 Mile,1653,4.96
1217 OLD BUCKINGHAM ROAD,Cumberland County,POWHATAN,37.48203063,-78.12971163,2019-09-11,23139,3.0 - 5.0 Mile,1621,4.93
70 CARTERSVILLE ROAD,Cumberland County,CUMBERLAND,37.52159293,-78.20729241,2019-09-11,23040,3.0 - 5.0 Mile,1500,4.71
64 CARTERSVILLE ROAD,Cumberland County,CUMBERLAND,37.52106891,-78.20751398,2019-09-11,23040,3.0 - 5.0 Mile,1517,4.74
60 CARTERSVILLE ROAD,Cumberland County,CUMBERLAND,37.52077204,-78.20766881,2019-09-11,23040,3.0 - 5.0 Mile,1527,4.76
54 CARTERSVILLE ROAD,Cumberland County,CUMBERLAND,37.5202314,-78.20792957,2019-09-11,23040,3.0 - 5.0 Mile,1541,4.79
46 CARTERSVILLE ROAD,Cumberland County,CUMBERLAND,37.51964988,-78.20809724,2019-09-11,23040,3.0 - 5.0 Mile,1562,4.82
44 CARTERSVILLE ROAD,Cumberland County,CUMBERLAND,37.51949127,-78.20833909,2019-09-11,23040,3.0 - 5.0 Mile,1570,4.84
1016 ANDERSON HIG*,Cumberland County,CUMBERLAND,37.51800946,-78.20670975,2019-09-11,23040,3.0 - 5.0 Mile,1557,4.82
968 ANDERSON HIG*,Cumberland County,CUMBERLAND,37.51943475,-78.20149048,2019-09-11,23040,3.0 - 5.0 Mile,1394,4.52
995 ANDERSON HIG*,Cumberland County,CUMBERLAND,37.51784095,-78.20298554,2019-09-11,23040,3.0 - 5.0 Mile,1472,4.65
607 FRENCHS STORE ROAD,Cumberland County,CUMBERLAND,37.50220015,-78.13979465,2019-09-11,23040,3.0 - 5.0 Mile,911,3.61
621 FRENCHS STORE ROAD,Cumberland County,CUMBERLAND,37.50182873,-78.14220114,2019-09-11,23040,3.0 - 5.0 Mile,949,3.66
66 BANKS DRI*,Cumberland County,CUMBERLAND,37.4998996,-78.13782044,2019-09-11,23040,3.0 - 5.0 Mile,975,3.74
56 BANKS DRI*,Cumberland County,CUMBERLAND,37.50008054,-78.13871432,2019-09-11,23040,3.0 - 5.0 Mile,974,3.74
36 BANKS DRI*,Cumberland County,CUMBERLAND,37.50028482,-78.13995761,2019-09-11,23040,3.0 - 5.0 Mile,973,3.74
67 MABELS LANE,Cumberland County,CUMBERLAND,37.49687849,-78.14623021,2019-09-11,23040,3.0 - 5.0 Mile,1130,4.04
43 MABELS LANE,Cumberland County,CUMBERLAND,37.49788636,-78.14736486,2019-09-11,23040,3.0 - 5.0 Mile,1093,3.99
23 MABELS LANE,Cumberland County,CUMBERLAND,37.49828942,-78.14923724,2019-09-11,23040,3.0 - 5.0 Mile,1094,4.00
19 MABELS LANE,Cumberland County,CUMBERLAND,37.49852696,-78.14964065,2019-09-11,23040,3.0 - 5.0 Mile,1090,3.99
727 FRENCHS STORE ROAD,Cumberland County,CUMBERLAND,37.49824397,-78.15044342,2019-09-11,23040,3.0 - 5.0 Mile,1115,4.02
740 FRENCHS STORE ROAD,Cumberland County,CUMBERLAND,37.49819697,-78.15272749,2019-09-11,23040,3.0 - 5.0 Mile,1144,4.06
419 GOSHEN ROAD,Cumberland County,CUMBERLAND,37.49885344,-78.15449424,2019-09-11,23040,3.0 - 5.0 Mile,1133,4.05
418 GOSHEN ROAD,Cumberland County,CUMBERLAND,37.49870207,-78.15554838,2019-09-11,23040,3.0 - 5.0 Mile,1155,4.08
757 FRENCHS STORE ROAD,Cumberland County,CUMBERLAND,37.49700059,-78.15232007,2019-09-11,23040,3.0 - 5.0 Mile,1184,4.14
21 RUSSELLS WAY,Cumberland County,CUMBERLAND,37.49380155,-78.15206792,2019-09-11,23040,3.0 - 5.0 Mile,1272,4.34
3 RUSSELLS WAY,Cumberland County,CUMBERLAND,37.49291054,-78.15331628,2019-09-11,23040,3.0 - 5.0 Mile,1326,4.42
128 BRANSFORD ROAD,Cumberland County,CUMBERLAND,37.48723405,-78.14652622,2019-09-11,23040,3.0 - 5.0 Mile,1492,4.69
88 BRANSFORD ROAD,Cumberland County,CUMBERLAND,37.4879542,-78.14939923,2019-09-11,23040,3.0 - 5.0 Mile,1489,4.68
122 BRANSFORD ROAD,Cumberland County,CUMBERLAND,37.48651959,-78.15021644,2019-09-11,23040,3.0 - 5.0 Mile,1540,4.79
72 BRANSFORD ROAD,Cumberland County,CUMBERLAND,37.48896739,-78.15272754,2019-09-11,23040,3.0 - 5.0 Mile,1480,4.67
56 BRANSFORD ROAD,Cumberland County,CUMBERLAND,37.49130002,-78.15245882,2019-09-11,23040,3.0 - 5.0 Mile,1389,4.51
38 BRANSFORD ROAD,Cumberland County,CUMBERLAND,37.49222209,-78.15355464,2019-09-11,23040,3.0 - 5.0 Mile,1360,4.47
13 BRANSFORD ROAD,Cumberland County,CUMBERLAND,37.49419157,-78.1552071,2019-09-11,23040,3.0 - 5.0 Mile,1291,4.37
791 FRENCHS STORE ROAD,Cumberland County,CUMBERLAND,37.4947129,-78.15570545,2019-09-11,23040,3.0 - 5.0 Mile,1273,4.34
860 FRENCHS STORE ROAD,Cumberland County,CUMBERLAND,37.49204938,-78.16106517,2019-09-11,23040,3.0 - 5.0 Mile,1451,4.61
9 BOOKER LANE,Cumberland County,CUMBERLAND,37.49360965,-78.16186627,2019-09-11,23040,3.0 - 5.0 Mile,1401,4.53
17 BOOKER LANE,Cumberland County,CUMBERLAND,37.49365042,-78.16064373,2019-09-11,23040,3.0 - 5.0 Mile,1383,4.50
39 BOOKER LANE,Cumberland County,CUMBERLAND,37.49412676,-78.15914141,2019-09-11,23040,3.0 - 5.0 Mile,1340,4.44
45 BOOKER LANE,Cumberland County,CUMBERLAND,37.49437096,-78.158291,2019-09-11,23040,3.0 - 5.0 Mile,1322,4.41
49 BOOKER LANE,Cumberland County,CUMBERLAND,37.49447759,-78.15798096,2019-09-11,23040,3.0 - 5.0 Mile,1309,4.40
805 FRENCHS STORE ROAD,Cumberland County,CUMBERLAND,37.49377932,-78.15708721,2019-09-11,23040,3.0 - 5.0 Mile,1332,4.43
825 FRENCHS STORE ROAD,Cumberland County,CUMBERLAND,37.49287871,-78.15839303,2019-09-11,23040,3.0 - 5.0 Mile,1388,4.51
818 FRENCHS STORE ROAD,Cumberland County,CUMBERLAND,37.49393436,-78.15799724,2019-09-11,23040,3.0 - 5.0 Mile,1336,4.43
896 FRENCHS STORE ROAD,Cumberland County,CUMBERLAND,37.49167384,-78.16686773,2019-09-11,23040,3.0 - 5.0 Mile,1525,4.76
43 BOOKER LANE,Cumberland County,CUMBERLAND,37.49423316,-78.158752,2019-09-11,23040,3.0 - 5.0 Mile,1333,4.43
913 ANDERSON HIG*,Cumberland County,CUMBERLAND,37.52014498,-78.19655113,2019-09-11,23040,3.0 - 5.0 Mile,1250,4.27
58 FOREST ACRES LANE,Cumberland County,CUMBERLAND,37.5234952,-78.21258859,2019-09-11,23040,3.0 - 5.0 Mile,1606,4.91
698 ANDERSON HIG*,Cumberland County,CUMBERLAND,37.52880187,-78.17690322,2019-09-11,23040,3.0 - 5.0 Mile,705,3.05
60 JENKINS CHURCH ROAD,Cumberland County,CUMBERLAND,37.52901496,-78.20839451,2019-09-11,23040,3.0 - 5.0 Mile,1408,4.53
67 FRENCHS STORE ROAD,Cumberland County,CUMBERLAND,37.53710392,-78.12370739,2019-09-11,23040,1.0 - 2.0 Mile,178,1.13
929A ANDERSON HIG*,Cumberland County,CUMBERLAND,37.51929305,-78.19884845,2019-09-11,23040,3.0 - 5.0 Mile,1321,4.41
929B ANDERSON HIG*,Cumberland County,CUMBERLAND,37.51929305,-78.19884845,2019-09-11,23040,3.0 - 5.0 Mile,1321,4.41
15 HOSTEN LANE,Cumberland County,POWHATAN,37.53446247,-78.11571025,2019-09-11,23139,1.0 - 2.0 Mile,257,1.42
22 HOSTEN LANE,Cumberland County,POWHATAN,37.53462156,-78.11687951,2019-09-11,23139,1.0 - 2.0 Mile,247,1.39
6591 BLENHEIM ROAD,Cumberland County,POWHATAN,37.53685862,-78.11702414,2019-09-11,23139,1.0 - 2.0 Mile,207,1.24
82 FOREST ACRES LANE,Cumberland County,CUMBERLAND,37.5250542,-78.21439512,2019-09-11,23040,3.0 - 5.0 Mile,1634,4.95
268 MAXEYS MILL ROAD,Cumberland County,CUMBERLAND,37.50554646,-78.18272785,2019-09-11,23040,3.0 - 5.0 Mile,1311,4.40
405 GOSHEN ROAD,Cumberland County,CUMBERLAND,37.4998134,-78.15547525,2019-09-11,23040,3.0 - 5.0 Mile,1098,4.01
429 GOSHEN ROAD,Cumberland County,CUMBERLAND,37.49807389,-78.15388587,2019-09-11,23040,3.0 - 5.0 Mile,1165,4.09
407 GOSHEN ROAD,Cumberland County,CUMBERLAND,37.4996848,-78.1552289,2019-09-11,23040,3.0 - 5.0 Mile,1101,4.01
197 GOSHEN ROAD,Cumberland County,CUMBERLAND,37.50543525,-78.1752547,2019-09-11,23040,3.0 - 5.0 Mile,1194,4.16
967 ANDERSON HIG*,Cumberland County,CUMBERLAND,37.51501768,-78.20138796,2019-09-11,23040,3.0 - 5.0 Mile,1493,4.70
279 GOSHEN ROAD,Cumberland County,CUMBERLAND,37.50392816,-78.16722261,2019-09-11,23040,3.0 - 5.0 Mile,1105,4.01
169 GOSHEN ROAD,Cumberland County,CUMBERLAND,37.50511775,-78.178333,2019-09-11,23040,3.0 - 5.0 Mile,1251,4.27
615 FRENCHS STORE ROAD,Cumberland County,CUMBERLAND,37.50120803,-78.13964585,2019-09-11,23040,3.0 - 5.0 Mile,954,3.67
686 FRENCHS STORE ROAD,Cumberland County,CUMBERLAND,37.50412185,-78.14814283,2019-09-11,23040,3.0 - 5.0 Mile,903,3.60
895 FRENCHS STORE ROAD,Cumberland County,CUMBERLAND,37.48912706,-78.16217747,2019-09-11,23040,3.0 - 5.0 Mile,1564,4.82
118 OAK FOREST ROAD,Cumberland County,CUMBERLAND,37.53171735,-78.18503104,2019-09-11,23040,3.0 - 5.0 Mile,792,3.31
899 ANDERSON HIG*,Cumberland County,CUMBERLAND,37.52052018,-78.19542882,2019-09-11,23040,3.0 - 5.0 Mile,1220,4.21
901 ANDERSON HIG*,Cumberland County,CUMBERLAND,37.52049718,-78.19552658,2019-09-11,23040,3.0 - 5.0 Mile,1223,4.21
613 FRENCHS STORE ROAD,Cumberland County,CUMBERLAND,37.50247527,-78.14119097,2019-09-11,23040,3.0 - 5.0 Mile,909,3.60
90 BERGERS LANE,Cumberland County,CUMBERLAND,37.49667039,-78.14980683,2019-09-11,23040,3.0 - 5.0 Mile,1172,4.11
1207 OLD BUCKINGHAM ROAD,Cumberland County,POWHATAN,37.48162914,-78.13115957,2019-09-11,23139,3.0 - 5.0 Mile,1655,4.96
615 ANDERSON HIG*,Cumberland County,CUMBERLAND,37.52677226,-78.16807622,2019-09-11,23040,2.0 - 3.0 Mile,633,2.77
9 JENKINS CHURCH RD,Cumberland County,CUMBERLAND,37.52524825,-78.20745908,2019-09-11,23040,3.0 - 5.0 Mile,1442,4.60
148 GOSHEN ROAD,Cumberland County,CUMBERLAND,37.50262701,-78.18044499,2019-09-11,23040,3.0 - 5.0 Mile,1368,4.48
6534 BLENHEIM RD,Cumberland County,POWHATAN,37.53339235,-78.11167102,2019-09-11,23139,1.0 - 2.0 Mile,309,1.58
925 FRENCHS STORE RD,Cumberland County,CUMBERLAND,37.4868985,-78.16317395,2019-09-11,23040,3.0 - 5.0 Mile,1682,4.99
594 ANDERSON HWY,Cumberland County,CUMBERLAND,37.53059834,-78.16697841,2019-09-11,23040,2.0 - 3.0 Mile,575,2.55
28 GOSHEN ROAD,Cumberland County,CUMBERLAND,37.50068887,-78.19220058,2019-09-11,23040,3.0 - 5.0 Mile,1686,4.99
68 TRENT LANE,Cumberland County,CUMBERLAND,37.49849199,-78.17740424,2019-09-11,23040,3.0 - 5.0 Mile,1459,4.62
89 CARTERSVILLE ROAD,Cumberland County,CUMBERLAND,37.52329482,-78.20760565,2019-09-11,23040,3.0 - 5.0 Mile,1481,4.67
782 FRENCHS STORE ROAD,Cumberland County,CUMBERLAND,37.4957799,-78.15547652,2019-09-11,23040,3.0 - 5.0 Mile,1247,4.27
625 ANDERSON HIG*,Cumberland County,CUMBERLAND,37.52661901,-78.16926984,2019-09-11,23040,2.0 - 3.0 Mile,647,2.83
627 ANDERSON HIG*,Cumberland County,CUMBERLAND,37.52883511,-78.16978568,2019-09-11,23040,2.0 - 3.0 Mile,624,2.74
91 OAK FOREST ROAD,Cumberland County,CUMBERLAND,37.53220709,-78.19142882,2019-09-11,23040,3.0 - 5.0 Mile,905,3.60
146 CARTERSVILLE ROAD,Cumberland County,CUMBERLAND,37.52675554,-78.20360867,2019-09-11,23040,3.0 - 5.0 Mile,1289,4.36
15 ALMOND LANE,Cumberland County,CUMBERLAND,37.50070108,-78.15218222,2019-09-11,23040,3.0 - 5.0 Mile,1040,3.89
453 LOGGERS WAY,Cumberland County,CUMBERLAND,37.50390175,-78.12940908,2019-09-11,23040,3.0 - 5.0 Mile,833,3.42
401 LOGGERS WAY,Cumberland County,CUMBERLAND,37.50492288,-78.13036857,2019-09-11,23040,3.0 - 5.0 Mile,816,3.35
158 LOGGERS WAY,Cumberland County,CUMBERLAND,37.50744792,-78.13263274,2019-09-11,23040,3.0 - 5.0 Mile,753,3.19
132 CARTERSVILLE ROAD,Cumberland County,CUMBERLAND,37.52578746,-78.20463857,2019-09-11,23040,3.0 - 5.0 Mile,1344,4.45
2300 MOSBY RD,Powhatan County,POWHATAN,37.54821877,-78.10151178,2019-06-04,23139,1.0 - 2.0 Mile,226,1.30
2308 MOSBY RD,Powhatan County,POWHATAN,37.5508718,-78.10116472,2019-06-04,23139,1.0 - 2.0 Mile,208,1.24
2318 MOSBY RD,Powhatan County,POWHATAN,37.5512555,-78.10242876,2019-06-04,23139,1.0 - 2.0 Mile,189,1.17
2330 MOSBY RD,Powhatan County,POWHATAN,37.55166584,-78.1026324,2019-06-04,23139,1.0 - 2.0 Mile,181,1.15
2350 MOSBY RD,Powhatan County,POWHATAN,37.55284585,-78.10257085,2019-06-04,23139,1.0 - 2.0 Mile,174,1.12
2340 MOSBY RD,Powhatan County,POWHATAN,37.5529998,-78.10084246,2019-06-04,23139,1.0 - 2.0 Mile,199,1.21
2342 MOSBY RD,Powhatan County,POWHATAN,37.55322751,-78.1001787,2019-06-04,23139,1.0 - 2.0 Mile,209,1.24
2346 MOSBY RD,Powhatan County,POWHATAN,37.55357378,-78.09926233,2019-06-04,23139,1.0 - 2.0 Mile,223,1.29
2360 MOSBY RD,Powhatan County,POWHATAN,37.55368324,-78.10545987,2019-06-04,23139,0.50 - 1.0 Mile,119,0.96
2370 MOSBY RD,Powhatan County,POWHATAN,37.55425602,-78.10554536,2019-06-04,23139,0.50 - 1.0 Mile,111,0.94
2376 MOSBY RD,Powhatan County,POWHATAN,37.55627818,-78.10360859,2019-06-04,23139,1.0 - 2.0 Mile,142,1.03
2355 MOSBY RD,Powhatan County,POWHATAN,37.5529183,-78.10562115,2019-06-04,23139,0.50 - 1.0 Mile,122,0.96
2345 MOSBY RD,Powhatan County,POWHATAN,37.55226235,-78.10476234,2019-06-04,23139,1.0 - 2.0 Mile,141,1.02
2335 MOSBY RD,Powhatan County,POWHATAN,37.55168446,-78.10460774,2019-06-04,23139,1.0 - 2.0 Mile,148,1.04
2325 MOSBY RD,Powhatan County,POWHATAN,37.55115562,-78.10319264,2019-06-04,23139,1.0 - 2.0 Mile,176,1.13
2315 MOSBY RD,Powhatan County,POWHATAN,37.55057693,-78.10297003,2019-06-04,23139,1.0 - 2.0 Mile,184,1.16
2365 MOSBY RD,Powhatan County,POWHATAN,37.55006608,-78.10689381,2019-06-04,23139,0.50 - 1.0 Mile,126,0.98
2307 MOSBY RD,Powhatan County,POWHATAN,37.54984972,-78.10272858,2019-06-04,23139,1.0 - 2.0 Mile,194,1.19
2309 MOSBY RD,Powhatan County,POWHATAN,37.54887151,-78.10304702,2019-06-04,23139,1.0 - 2.0 Mile,197,1.20
2305 MOSBY RD,Powhatan County,POWHATAN,37.54820567,-78.10234994,2019-06-04,23139,1.0 - 2.0 Mile,212,1.26
6338 ANDERSON HWY,Powhatan County,POWHATAN,37.5493231,-78.09582185,2019-06-04,23139,1.0 - 2.0 Mile,296,1.55
6340 ANDERSON HWY,Powhatan County,POWHATAN,37.54922248,-78.09635681,2019-06-04,23139,1.0 - 2.0 Mile,288,1.53
6350 ANDERSON HWY,Powhatan County,POWHATAN,37.54888552,-78.09690294,2019-06-04,23139,1.0 - 2.0 Mile,282,1.51
6360 ANDERSON HWY,Powhatan County,POWHATAN,37.54873657,-78.09776011,2019-06-04,23139,1.0 - 2.0 Mile,271,1.47
6374 ANDERSON HWY,Powhatan County,POWHATAN,37.55081263,-78.09889403,2019-06-04,23139,1.0 - 2.0 Mile,239,1.36
6370 ANDERSON HWY,Powhatan County,POWHATAN,37.54857771,-78.09871695,2019-06-04,23139,1.0 - 2.0 Mile,259,1.42
6380 ANDERSON HWY,Powhatan County,POWHATAN,37.54971236,-78.09972488,2019-06-04,23139,1.0 - 2.0 Mile,237,1.34
6378 ANDERSON HWY,Powhatan County,POWHATAN,37.54868105,-78.09944133,2019-06-04,23139,1.0 - 2.0 Mile,246,1.39
6386 ANDERSON HWY,Powhatan County,POWHATAN,37.54966421,-78.10045942,2019-06-04,23139,1.0 - 2.0 Mile,229,1.31
6382 ANDERSON HWY,Powhatan County,POWHATAN,37.54839761,-78.10003889,2019-06-04,23139,1.0 - 2.0 Mile,242,1.36
6396 ANDERSON HWY,Powhatan County,POWHATAN,37.54938297,-78.10126307,2019-06-04,23139,1.0 - 2.0 Mile,215,1.27
6390 ANDERSON HWY,Powhatan County,POWHATAN,37.54842733,-78.10069488,2019-06-04,23139,1.0 - 2.0 Mile,235,1.33
2235 PINE COVE TRL,Powhatan County,POWHATAN,37.54322855,-78.10921812,2019-06-04,23139,1.0 - 2.0 Mile,173,1.12
6371 ANDERSON HWY,Powhatan County,POWHATAN,37.54763247,-78.09894388,2019-06-04,23139,1.0 - 2.0 Mile,263,1.44
6439 ANDERSON HWY,Powhatan County,POWHATAN,37.5463506,-78.10349467,2019-06-04,23139,1.0 - 2.0 Mile,213,1.26
6459 ANDERSON HWY,Powhatan County,POWHATAN,37.54650446,-78.10464647,2019-06-04,23139,1.0 - 2.0 Mile,196,1.20
6471 ANDERSON HWY,Powhatan County,POWHATAN,37.5466036,-78.10526658,2019-06-04,23139,1.0 - 2.0 Mile,190,1.17
6477 ANDERSON HWY,Powhatan County,POWHATAN,37.54629608,-78.10566718,2019-06-04,23139,1.0 - 2.0 Mile,185,1.16
2250 PINE COVE TRL,Powhatan County,POWHATAN,37.54479529,-78.10784842,2019-06-04,23139,1.0 - 2.0 Mile,171,1.11
1 ANDERSON HWY,Powhatan County,CUMBERLAND,37.54422262,-78.10911256,2019-06-04,23139,1.0 - 2.0 Mile,162,1.08
2225 PINE COVE TRL,Powhatan County,POWHATAN,37.54206517,-78.10995172,2019-06-04,23139,1.0 - 2.0 Mile,182,1.15
6454 ANDERSON HWY,Powhatan County,POWHATAN,37.54733245,-78.10472957,2019-06-04,23139,1.0 - 2.0 Mile,191,1.17
6446 ANDERSON HWY,Powhatan County,POWHATAN,37.54806266,-78.10480985,2019-06-04,23139,1.0 - 2.0 Mile,179,1.14
6438 ANDERSON HWY,Powhatan County,POWHATAN,37.54877001,-78.10388389,2019-06-04,23139,1.0 - 2.0 Mile,187,1.16
6434 ANDERSON HWY,Powhatan County,POWHATAN,37.54825474,-78.10307515,2019-06-04,23139,1.0 - 2.0 Mile,201,1.22
6365 HALEFORD DR,Powhatan County,POWHATAN,37.53780644,-78.09599653,2019-06-04,23139,1.0 - 2.0 Mile,399,1.92
2220 PINE COVE TRL,Powhatan County,POWHATAN,37.54099531,-78.10920768,2019-06-04,23139,1.0 - 2.0 Mile,205,1.23
6342 WALNUT TREE DR,Powhatan County,POWHATAN,37.54225692,-78.09656414,2019-06-04,23139,1.0 - 2.0 Mile,347,1.73
6376 HALEFORD DR,Powhatan County,POWHATAN,37.53997818,-78.09713101,2019-06-04,23139,1.0 - 2.0 Mile,361,1.79
6341 WALNUT TREE DR,Powhatan County,POWHATAN,37.54315665,-78.09601071,2019-06-04,23139,1.0 - 2.0 Mile,343,1.73
2272 WALNUT TREE BLVD,Powhatan County,POWHATAN,37.54649839,-78.0958361,2019-06-04,23139,1.0 - 2.0 Mile,320,1.63
6588 BLENHEIM RD,Powhatan County,POWHATAN,37.53896528,-78.11044619,2019-06-04,23139,1.0 - 2.0 Mile,224,1.29
6582 BLENHEIM RD,Powhatan County,POWHATAN,37.53774821,-78.10913015,2019-06-04,23139,1.0 - 2.0 Mile,252,1.41
2377 MOSBY LN,Powhatan County,POWHATAN,37.54981887,-78.10810263,2019-06-04,23139,0.50 - 1.0 Mile,106,0.92
6372 HALEFORD DR,Powhatan County,POWHATAN,37.5388664,-78.09676651,2019-06-04,23139,1.0 - 2.0 Mile,375,1.85
6483 ANDERSON HWY,Powhatan County,POWHATAN,37.54567735,-78.10709768,2019-06-04,23139,1.0 - 2.0 Mile,170,1.11
2249 WALNUT TREE BLVD,Powhatan County,POWHATAN,37.54481046,-78.09966759,2019-06-04,23139,1.0 - 2.0 Mile,277,1.50
2349 MOSBY RD,Powhatan County,POWHATAN,37.55154163,-78.10665972,2019-06-04,23139,0.50 - 1.0 Mile,112,0.94
2369 MOSBY LN,Powhatan County,POWHATAN,37.54954628,-78.10921835,2019-06-04,23139,0.50 - 1.0 Mile,86,0.88
2375 MOSBY LN,Powhatan County,POWHATAN,37.550599,-78.11008547,2019-06-04,23139,0.50 - 1.0 Mile,71,0.80
2356 MOSBY RD,Powhatan County,POWHATAN,37.5537776,-78.10350787,2019-06-04,23139,1.0 - 2.0 Mile,155,1.06
6338 WALNUT TREE DR,Powhatan County,POWHATAN,37.54147879,-78.09614501,2019-06-04,23139,1.0 - 2.0 Mile,359,1.78
6345 WALNUT TREE DR,Powhatan County,POWHATAN,37.54349093,-78.09619533,2019-06-04,23139,1.0 - 2.0 Mile,338,1.71
6349 WALNUT TREE DR,Powhatan County,POWHATAN,37.54462772,-78.09683422,2019-06-04,23139,1.0 - 2.0 Mile,322,1.64
2248 WALNUT TREE BLVD,Powhatan County,POWHATAN,37.54352143,-78.09927835,2019-06-04,23139,1.0 - 2.0 Mile,303,1.56
2252 WALNUT TREE BLVD,Powhatan County,POWHATAN,37.54426226,-78.0988373,2019-06-04,23139,1.0 - 2.0 Mile,299,1.55
2261 WALNUT TREE BLVD,Powhatan County,POWHATAN,37.54568764,-78.09891675,2019-06-04,23139,1.0 - 2.0 Mile,280,1.50
2260 WALNUT TREE BLVD,Powhatan County,POWHATAN,37.54527129,-78.09813052,2019-06-04,23139,1.0 - 2.0 Mile,301,1.56
6381 HALEFORD DR,Powhatan County,POWHATAN,37.5410166,-78.09681013,2019-06-04,23139,1.0 - 2.0 Mile,354,1.76
6379 HALEFORD DR,Powhatan County,POWHATAN,37.54049299,-78.09631209,2019-06-04,23139,1.0 - 2.0 Mile,368,1.81
2358 MOSBY RD,Powhatan County,POWHATAN,37.55568354,-78.10270621,2019-06-04,23139,1.0 - 2.0 Mile,159,1.08
2264 WALNUT TREE BLVD,Powhatan County,POWHATAN,37.54571343,-78.09788247,2019-06-04,23139,1.0 - 2.0 Mile,298,1.55
2379 MOSBY LN BLDG,Powhatan County,POWHATAN,37.55077912,-78.10942228,2019-06-04,23139,0.50 - 1.0 Mile,76,0.83
2372 MOSBY LN BLDG,Powhatan County,POWHATAN,37.54843798,-78.1094536,2019-06-04,23139,0.50 - 1.0 Mile,96,0.90
6441 ANDERSON HWY,Powhatan County,POWHATAN,37.54562727,-78.10370277,2019-06-04,23139,1.0 - 2.0 Mile,217,1.28
6380 HALEFORD DR,Powhatan County,POWHATAN,37.54045103,-78.09745317,2019-06-04,23139,1.0 - 2.0 Mile,351,1.75
2329 MOSBY RD,Powhatan County,POWHATAN,37.55072663,-78.10518864,2019-06-04,23139,1.0 - 2.0 Mile,145,1.04
6369 HALEFORD DR,Powhatan County,POWHATAN,37.53835101,-78.09578699,2019-06-04,23139,1.0 - 2.0 Mile,395,1.91
2280 WALNUT TREE BLVD,Powhatan County,POWHATAN,37.54784213,-78.09655311,2019-06-04,23139,1.0 - 2.0 Mile,297,1.55
6479 ANDERSON HWY,Powhatan County,POWHATAN,37.54571972,-78.1055767,2019-06-04,23139,1.0 - 2.0 Mile,192,1.18
6393 ANDERSON HWY,Powhatan County,POWHATAN,37.54667801,-78.10046015,2019-06-04,23139,1.0 - 2.0 Mile,249,1.40
6368 HALEFORD DR,Powhatan County,POWHATAN,37.53800169,-78.09708318,2019-06-04,23139,1.0 - 2.0 Mile,378,1.87
6610 BLENHEIM ROAD,Cumberland County,POWHATAN,37.53882399,-78.11390203,2019-09-11,23139,1.0 - 2.0 Mile,195,1.20
246 MILLER LANE,Cumberland County,CUMBERLAND,37.57002938,-78.10929222,2019-09-11,23040,0.50 - 1.0 Mile,68,0.79
83 DEEP RUN ROAD,Cumberland County,CARTERSVILLE,37.58620345,-78.16336228,2019-09-11,23027,2.0 - 3.0 Mile,474,2.20
395 PINEGROVE ROAD,Cumberland County,CUMBERLAND,37.57305657,-78.13678076,2019-09-11,23040,0.25 - 0.50 Mile,36,0.48
385 PINEGROVE ROAD,Cumberland County,CUMBERLAND,37.57198235,-78.1368451,2019-09-11,23040,0.25 - 0.50 Mile,29,0.44
379 PINEGROVE ROAD,Cumberland County,CUMBERLAND,37.57155333,-78.13672358,2019-09-11,23040,0.25 - 0.50 Mile,26,0.42
472 DEEP RUN ROAD,Cumberland County,CARTERSVILLE,37.59183336,-78.13191848,2019-09-11,23027,1.0 - 2.0 Mile,262,1.43
428 DEEP RUN ROAD,Cumberland County,CARTERSVILLE,37.59088763,-78.13616406,2019-09-11,23027,1.0 - 2.0 Mile,265,1.45
881 CARTERSVILLE ROAD,Cumberland County,CUMBERLAND,37.5820705,-78.17491415,2019-09-11,23027,2.0 - 3.0 Mile,597,2.64
882 CARTERSVILLE ROAD,Cumberland County,CUMBERLAND,37.58366223,-78.17207365,2019-09-11,23027,2.0 - 3.0 Mile,568,2.53
75 BABER ROAD,Cumberland County,CUMBERLAND,37.58555996,-78.1825156,2019-09-11,23027,3.0 - 5.0 Mile,724,3.11
153 MT AIRY LANE,Cumberland County,CUMBERLAND,37.57773462,-78.21805789,2019-09-11,23040,3.0 - 5.0 Mile,1583,4.87
151 MT AIRY LANE,Cumberland County,CUMBERLAND,37.57802644,-78.21693698,2019-09-11,23040,3.0 - 5.0 Mile,1561,4.82
16 MARIGOLD LANE,Cumberland County,CUMBERLAND,37.58053742,-78.216947,2019-09-11,23040,3.0 - 5.0 Mile,1574,4.85
176 MT AIRY LANE,Cumberland County,CUMBERLAND,37.57954353,-78.21940464,2019-09-11,23040,3.0 - 5.0 Mile,1670,4.97
243 SHERWOOD ROAD,Cumberland County,CARTERSVILLE,37.6187529,-78.09487446,2019-09-11,23027,3.0 - 5.0 Mile,931,3.63
238 SHERWOOD ROAD,Cumberland County,CARTERSVILLE,37.61911993,-78.09938782,2019-09-11,23027,3.0 - 5.0 Mile,883,3.55
256 SHERWOOD ROAD,Cumberland County,CARTERSVILLE,37.61851001,-78.09938785,2019-09-11,23027,3.0 - 5.0 Mile,869,3.51
251 SHERWOOD ROAD,Cumberland County,CARTERSVILLE,37.61879847,-78.09815279,2019-09-11,23027,3.0 - 5.0 Mile,884,3.56
267 SHERWOOD ROAD,Cumberland County,CARTERSVILLE,37.61754997,-78.09800799,2019-09-11,23027,3.0 - 5.0 Mile,858,3.48
49 OAKLAND ROAD,Cumberland County,CARTERSVILLE,37.59846375,-78.11347771,2019-09-11,23027,1.0 - 2.0 Mile,405,1.95
1284 CARTERSVILLE ROAD,Cumberland County,CARTERSVILLE,37.61226346,-78.15687733,2019-09-11,23027,3.0 - 5.0 Mile,784,3.29
45 TAYLOR ROAD,Cumberland County,CARTERSVILLE,37.61015983,-78.16497258,2019-09-11,23027,3.0 - 5.0 Mile,829,3.41
49 TAYLOR ROAD,Cumberland County,CARTERSVILLE,37.61051726,-78.16518491,2019-09-11,23027,3.0 - 5.0 Mile,839,3.43
24 BIGGER ROAD,Cumberland County,CUMBERLAND,37.6125612,-78.19183626,2019-09-11,23040,3.0 - 5.0 Mile,1415,4.55
54 RHODES LANE,Cumberland County,CARTERSVILLE,37.62650506,-78.11352402,2019-09-11,23027,3.0 - 5.0 Mile,1015,3.83
142 JENNINGS ROAD,Cumberland County,CARTERSVILLE,37.62644253,-78.12465213,2019-09-11,23027,3.0 - 5.0 Mile,995,3.78
12 CARNEAL COU*,Cumberland County,CARTERSVILLE,37.62120213,-78.14660005,2019-09-11,23027,3.0 - 5.0 Mile,913,3.61
6 CARNEAL COU*,Cumberland County,CARTERSVILLE,37.62131967,-78.14692517,2019-09-11,23027,3.0 - 5.0 Mile,922,3.62
54 FRENCHS STORE ROAD,Cumberland County,CUMBERLAND,37.53830999,-78.12522959,2019-09-11,23040,1.0 - 2.0 Mile,147,1.04
1508 CARTERSVILLE ROAD,Cumberland County,CARTERSVILLE,37.62678972,-78.14056307,2019-09-11,23027,3.0 - 5.0 Mile,1039,3.89
631 CARTERSVILLE ROAD,Cumberland County,CUMBERLAND,37.56535687,-78.18522223,2019-09-11,23040,2.0 - 3.0 Mile,670,2.91
60 MILLER LANE,Cumberland County,CUMBERLAND,37.55373308,-78.12139544,2019-09-11,23040,0.25 Mile,7,0.15
76 PINEGROVE ROAD,Cumberland County,CUMBERLAND,37.54892213,-78.11894297,2019-09-11,23040,0.25 - 0.50 Mile,33,0.47
31 ANDERSON HIG*,Cumberland County,CUMBERLAND,37.54431879,-78.11146611,2019-09-11,23139,0.50 - 1.0 Mile,130,0.98
6479B BLENHEIM ROAD,Cumberland County,POWHATAN,37.54202974,-78.10993812,2019-09-11,23139,1.0 - 2.0 Mile,183,1.15
6588 BLENHEIM ROAD,Cumberland County,POWHATAN,37.53908749,-78.11053974,2019-09-11,23139,1.0 - 2.0 Mile,221,1.28
6615 BLENHEIM ROAD,Cumberland County,POWHATAN,37.53898571,-78.1161526,2019-09-11,23139,1.0 - 2.0 Mile,175,1.13
6607 BLENHEIM ROAD,Cumberland County,POWHATAN,37.53963294,-78.1173558,2019-09-11,23139,1.0 - 2.0 Mile,154,1.06
31 FRENCHS STORE ROAD,Cumberland County,CUMBERLAND,37.54036965,-78.12358258,2019-09-11,23040,0.50 - 1.0 Mile,99,0.91
47 FRENCHS STORE ROAD,Cumberland County,CUMBERLAND,37.53880937,-78.12425099,2019-09-11,23040,1.0 - 2.0 Mile,137,1.01
44 FRENCHS STORE ROAD,Cumberland County,CUMBERLAND,37.53902472,-78.12531476,2019-09-11,23040,0.50 - 1.0 Mile,132,0.99
38 FRENCHS STORE ROAD,Cumberland County,CUMBERLAND,37.53997949,-78.12703465,2019-09-11,23040,0.50 - 1.0 Mile,108,0.93
28 FRENCHS STORE ROAD,Cumberland County,CUMBERLAND,37.54058345,-78.12560197,2019-09-11,23040,0.50 - 1.0 Mile,89,0.89
120 MILLER LANE,Cumberland County,CUMBERLAND,37.55990583,-78.11775264,2019-09-11,23040,0.25 - 0.50 Mile,13,0.27
122 MILLER LANE,Cumberland County,CUMBERLAND,37.56042675,-78.11752476,2019-09-11,23040,0.25 - 0.50 Mile,16,0.29
27 CLINTON ROAD,Cumberland County,CUMBERLAND,37.54009393,-78.14021882,2019-09-11,23040,1.0 - 2.0 Mile,169,1.11
280 ANDERSON HIG*,Cumberland County,CUMBERLAND,37.54185529,-78.13614222,2019-09-11,23040,0.50 - 1.0 Mile,102,0.92
20 CHURCHWOOD LANE,Cumberland County,CUMBERLAND,37.54117866,-78.13838251,2019-09-11,23040,1.0 - 2.0 Mile,134,1.00
116 CHURCHWOOD LANE,Cumberland County,CUMBERLAND,37.54866023,-78.13569681,2019-09-11,23040,0.25 - 0.50 Mile,35,0.47
60 CHURCHWOOD LANE,Cumberland County,CUMBERLAND,37.54408044,-78.13663203,2019-09-11,23040,0.50 - 1.0 Mile,66,0.78
30 CHURCHWOOD LANE,Cumberland County,CUMBERLAND,37.54172299,-78.13685759,2019-09-11,23040,0.50 - 1.0 Mile,110,0.94
36 CHURCHWOOD LANE,Cumberland County,CUMBERLAND,37.54297585,-78.13670193,2019-09-11,23040,0.50 - 1.0 Mile,81,0.85
3 CHURCHWOOD LANE,Cumberland County,CUMBERLAND,37.54082013,-78.14035328,2019-09-11,23040,1.0 - 2.0 Mile,156,1.07
19 CHURCHWOOD LANE,Cumberland County,CUMBERLAND,37.54201509,-78.13902933,2019-09-11,23040,0.50 - 1.0 Mile,123,0.97
28 HIDEAWAY TRA*,Cumberland County,CUMBERLAND,37.54291305,-78.14205825,2019-09-11,23040,0.50 - 1.0 Mile,133,1.00
16 HIDEAWAY TRA*,Cumberland County,CUMBERLAND,37.54195981,-78.14169652,2019-09-11,23040,1.0 - 2.0 Mile,146,1.04
8 HIDEAWAY TRA*,Cumberland County,CUMBERLAND,37.5413941,-78.14183926,2019-09-11,23040,1.0 - 2.0 Mile,157,1.08
72 RUBY LANE,Cumberland County,CUMBERLAND,37.55053342,-78.14816283,2019-09-11,23040,0.50 - 1.0 Mile,97,0.91
45 RUBY LANE,Cumberland County,CUMBERLAND,37.54521599,-78.15114674,2019-09-11,23040,1.0 - 2.0 Mile,206,1.24
13 RUBY LANE,Cumberland County,CUMBERLAND,37.54339941,-78.15170949,2019-09-11,23040,1.0 - 2.0 Mile,236,1.34
11 RUBY LANE,Cumberland County,CUMBERLAND,37.54276682,-78.15165451,2019-09-11,23040,1.0 - 2.0 Mile,241,1.36
201 CLINTON ROAD,Cumberland County,CUMBERLAND,37.54230556,-78.15613258,2019-09-11,23040,1.0 - 2.0 Mile,307,1.58
177 CLINTON ROAD,Cumberland County,CUMBERLAND,37.54202499,-78.15479357,2019-09-11,23040,1.0 - 2.0 Mile,290,1.53
37 PINE RIDGE DRI*,Cumberland County,CUMBERLAND,37.5569001,-78.19692113,2019-09-11,23040,3.0 - 5.0 Mile,862,3.49
16 PINE RIDGE DRI*,Cumberland County,CUMBERLAND,37.55595863,-78.19506121,2019-09-11,23040,3.0 - 5.0 Mile,822,3.39
36 ASHBURN ROAD,Cumberland County,CUMBERLAND,37.5540188,-78.19068395,2019-09-11,23040,3.0 - 5.0 Mile,739,3.15
107 PIPJUNGE ROAD,Cumberland County,CUMBERLAND,37.55653846,-78.17585439,2019-09-11,23040,2.0 - 3.0 Mile,512,2.33
620 CARTERSVILLE ROAD,Cumberland County,CUMBERLAND,37.56248934,-78.18181696,2019-09-11,23040,2.0 - 3.0 Mile,608,2.69
469 JENKINS CHURCH ROAD,Cumberland County,CUMBERLAND,37.55616248,-78.22369832,2019-09-11,23040,3.0 - 5.0 Mile,1656,4.96
211 CLINTON ROAD,Cumberland County,CUMBERLAND,37.54254744,-78.15649871,2019-09-11,23040,1.0 - 2.0 Mile,310,1.58
310 CLINTON ROAD,Cumberland County,CUMBERLAND,37.55104959,-78.16820882,2019-09-11,23040,1.0 - 2.0 Mile,406,1.95
466 CARTERSVILLE ROAD,Cumberland County,CUMBERLAND,37.55124228,-78.18655775,2019-09-11,23040,2.0 - 3.0 Mile,681,2.94
51 RUBY LANE,Cumberland County,CUMBERLAND,37.54790358,-78.14896818,2019-09-11,23040,1.0 - 2.0 Mile,143,1.03
35 CHURCHWOOD LANE,Cumberland County,CUMBERLAND,37.54249907,-78.13756748,2019-09-11,23040,0.50 - 1.0 Mile,95,0.90
213 CLINTON ROAD,Cumberland County,CUMBERLAND,37.54208966,-78.15726083,2019-09-11,23040,1.0 - 2.0 Mile,321,1.64
179 CLINTON ROAD,Cumberland County,CUMBERLAND,37.54188826,-78.15541962,2019-09-11,23040,1.0 - 2.0 Mile,304,1.56
518 CARTERSVILLE ROAD,Cumberland County,CUMBERLAND,37.55432316,-78.18446201,2019-09-11,23040,2.0 - 3.0 Mile,643,2.81
526 CARTERSVILLE ROAD,Cumberland County,CUMBERLAND,37.55602673,-78.18341758,2019-09-11,23040,2.0 - 3.0 Mile,625,2.75
1236 CARTERSVILLE ROAD,Cumberland County,CARTERSVILLE,37.60884772,-78.15967748,2019-09-11,23027,3.0 - 5.0 Mile,743,3.17
262 ANDERSON HIG*,Cumberland County,CUMBERLAND,37.54126576,-78.13478645,2019-09-11,23040,0.50 - 1.0 Mile,109,0.93
302 ANDERSON HIG*,Cumberland County,CUMBERLAND,37.53994939,-78.13842442,2019-09-11,23040,1.0 - 2.0 Mile,161,1.08
338 ANDERSON HIG*,Cumberland County,CUMBERLAND,37.5392009,-78.14217513,2019-09-11,23040,1.0 - 2.0 Mile,200,1.22
354 ANDERSON HIG*,Cumberland County,CUMBERLAND,37.53894099,-78.1433283,2019-09-11,23040,1.0 - 2.0 Mile,214,1.26
73 CLINTON ROAD,Cumberland County,CUMBERLAND,37.53957578,-78.14414902,2019-09-11,23040,1.0 - 2.0 Mile,211,1.25
378 ANDERSON HIG*,Cumberland County,CUMBERLAND,37.53753069,-78.14549054,2019-09-11,23040,1.0 - 2.0 Mile,256,1.41
170 CLINTON ROAD,Cumberland County,CUMBERLAND,37.54376495,-78.15346896,2019-09-11,23040,1.0 - 2.0 Mile,250,1.40
208 CLINTON ROAD,Cumberland County,CUMBERLAND,37.5452803,-78.15738485,2019-09-11,23040,1.0 - 2.0 Mile,287,1.52
231 CLINTON ROAD,Cumberland County,CUMBERLAND,37.54426286,-78.16095543,2019-09-11,23040,1.0 - 2.0 Mile,345,1.73
262 CLINTON ROAD,Cumberland County,CUMBERLAND,37.54603728,-78.16175827,2019-09-11,23040,1.0 - 2.0 Mile,339,1.71
272 CLINTON ROAD,Cumberland County,CUMBERLAND,37.54656538,-78.16232748,2019-09-11,23040,1.0 - 2.0 Mile,344,1.73
16 BROWN ROAD,Cumberland County,CUMBERLAND,37.54802889,-78.16189929,2019-09-11,23040,1.0 - 2.0 Mile,329,1.67
18 BROWN ROAD,Cumberland County,CUMBERLAND,37.54841313,-78.16236298,2019-09-11,23040,1.0 - 2.0 Mile,331,1.69
271 CLINTON ROAD,Cumberland County,CUMBERLAND,37.54611753,-78.16314309,2019-09-11,23040,1.0 - 2.0 Mile,360,1.78
275 CLINTON ROAD,Cumberland County,CUMBERLAND,37.54646454,-78.16354833,2019-09-11,23040,1.0 - 2.0 Mile,363,1.79
283 CLINTON ROAD,Cumberland County,CUMBERLAND,37.54681646,-78.16374671,2019-09-11,23040,1.0 - 2.0 Mile,364,1.79
298 CLINTON ROAD,Cumberland County,CUMBERLAND,37.54784822,-78.16570254,2019-09-11,23040,1.0 - 2.0 Mile,381,1.87
362 CLINTON ROAD,Cumberland County,CUMBERLAND,37.55170501,-78.17449545,2019-09-11,23040,2.0 - 3.0 Mile,499,2.28
360 CLINTON ROAD,Cumberland County,CUMBERLAND,37.54911827,-78.17216341,2019-09-11,23040,2.0 - 3.0 Mile,471,2.19
350 CLINTON ROAD,Cumberland County,CUMBERLAND,37.55015056,-78.17039549,2019-09-11,23040,2.0 - 3.0 Mile,440,2.08
348 CLINTON ROAD,Cumberland County,CUMBERLAND,37.54825472,-78.17092011,2019-09-11,23040,2.0 - 3.0 Mile,460,2.14
312 CLINTON ROAD,Cumberland County,CUMBERLAND,37.54876169,-78.16724988,2019-09-11,23040,1.0 - 2.0 Mile,401,1.93
314 CLINTON ROAD,Cumberland County,CUMBERLAND,37.54822083,-78.16783833,2019-09-11,23040,1.0 - 2.0 Mile,414,1.98
334 CLINTON ROAD,Cumberland County,CUMBERLAND,37.5482598,-78.16820354,2019-09-11,23040,1.0 - 2.0 Mile,418,1.99
332 CLINTON ROAD,Cumberland County,CUMBERLAND,37.547211,-78.16857354,2019-09-11,23040,2.0 - 3.0 Mile,430,2.03
336 CLINTON ROAD,Cumberland County,CUMBERLAND,37.54721207,-78.1689548,2019-09-11,23040,2.0 - 3.0 Mile,435,2.05
470 CLINTON ROAD,Cumberland County,CUMBERLAND,37.54787798,-78.18376969,2019-09-11,23040,2.0 - 3.0 Mile,648,2.83
422 CARTERSVILLE ROAD,Cumberland County,CUMBERLAND,37.54695465,-78.18938595,2019-09-11,23040,3.0 - 5.0 Mile,735,3.14
401 CARTERSVILLE ROAD,Cumberland County,CUMBERLAND,37.54586612,-78.19147193,2019-09-11,23040,3.0 - 5.0 Mile,778,3.27
377 CARTERSVILLE ROAD,Cumberland County,CUMBERLAND,37.54427612,-78.19438457,2019-09-11,23040,3.0 - 5.0 Mile,848,3.45
372 CARTERSVILLE ROAD,Cumberland County,CUMBERLAND,37.54305931,-78.19194884,2019-09-11,23040,3.0 - 5.0 Mile,811,3.35
369 CARTERSVILLE ROAD,Cumberland County,CUMBERLAND,37.54314021,-78.19457535,2019-09-11,23040,3.0 - 5.0 Mile,860,3.48
359 CARTERSVILLE ROAD,Cumberland County,CUMBERLAND,37.54239474,-78.19289266,2019-09-11,23040,3.0 - 5.0 Mile,830,3.41
351 CARTERSVILLE ROAD,Cumberland County,CUMBERLAND,37.54168952,-78.19404347,2019-09-11,23040,3.0 - 5.0 Mile,859,3.48
331 CARTERSVILLE ROAD,Cumberland County,CUMBERLAND,37.54028843,-78.19678967,2019-09-11,23040,3.0 - 5.0 Mile,947,3.66
322 CARTERSVILLE ROAD,Cumberland County,CUMBERLAND,37.53907452,-78.1922754,2019-09-11,23040,3.0 - 5.0 Mile,844,3.45
329 CARTERSVILLE ROAD,Cumberland County,CUMBERLAND,37.53905283,-78.19663953,2019-09-11,23040,3.0 - 5.0 Mile,957,3.68
300 MILLER LANE,Cumberland County,CUMBERLAND,37.57664495,-78.10917458,2019-09-11,23040,0.50 - 1.0 Mile,85,0.88
264 MILLER LANE,Cumberland County,CUMBERLAND,37.57258541,-78.11110386,2019-09-11,23040,0.50 - 1.0 Mile,56,0.70
6479A ANDERSON HIG*,Cumberland County,POWHATAN,37.54473033,-78.10786137,2019-09-11,23139,1.0 - 2.0 Mile,172,1.12
1 ANDERSON HIG*,Cumberland County,CUMBERLAND,37.54427255,-78.10912073,2019-09-11,23139,1.0 - 2.0 Mile,160,1.08
29 ANDERSON HIG*,Cumberland County,CUMBERLAND,37.54433569,-78.1104794,2019-09-11,23139,1.0 - 2.0 Mile,139,1.02
53 ANDERSON HIG*,Cumberland County,CUMBERLAND,37.54346151,-78.11285752,2019-09-11,23139,0.50 - 1.0 Mile,124,0.97
6630 BLENHEIM ROAD,Cumberland County,POWHATAN,37.54250785,-78.1151112,2019-09-11,23139,0.50 - 1.0 Mile,114,0.95
6646 BLENHEIM ROAD,Cumberland County,POWHATAN,37.54152904,-78.11482536,2019-09-11,23139,1.0 - 2.0 Mile,136,1.01
105 ANDERSON HIG*,Cumberland County,CUMBERLAND,37.54387966,-78.11807352,2019-09-11,23139,0.50 - 1.0 Mile,65,0.78
6631 BLENHEIM ROAD,Cumberland County,POWHATAN,37.54092275,-78.11566872,2019-09-11,23139,1.0 - 2.0 Mile,138,1.02
139 ANDERSON HIG*,Cumberland County,CUMBERLAND,37.542437,-78.12121853,2019-09-11,23139,0.50 - 1.0 Mile,69,0.80
152 ANDERSON HIG*,Cumberland County,CUMBERLAND,37.54392287,-78.12309346,2019-09-11,23139,0.50 - 1.0 Mile,52,0.67
169 ANDERSON HIG*,Cumberland County,CUMBERLAND,37.54274571,-78.1248229,2019-09-11,23139,0.50 - 1.0 Mile,61,0.74
196 ANDERSON HIG*,Cumberland County,CUMBERLAND,37.54291407,-78.12807851,2019-09-11,23040,0.50 - 1.0 Mile,59,0.73
35 FRENCHS STORE ROAD,Cumberland County,CUMBERLAND,37.54045285,-78.12258632,2019-09-11,23040,0.50 - 1.0 Mile,100,0.91
37 FRENCHS STORE ROAD,Cumberland County,CUMBERLAND,37.53960997,-78.12417797,2019-09-11,23040,0.50 - 1.0 Mile,120,0.96
32 FRENCHS STORE ROAD,Cumberland County,CUMBERLAND,37.5405743,-78.12685093,2019-09-11,23040,0.50 - 1.0 Mile,91,0.89
36 FRENCHS STORE ROAD,Cumberland County,CUMBERLAND,37.53997561,-78.12580219,2019-09-11,23040,0.50 - 1.0 Mile,107,0.93
43 FRENCHS STORE ROAD,Cumberland County,CUMBERLAND,37.53950402,-78.12295589,2019-09-11,23040,0.50 - 1.0 Mile,125,0.98
64 FRENCHS STORE ROAD,Cumberland County,CUMBERLAND,37.53758681,-78.12495713,2019-09-11,23040,1.0 - 2.0 Mile,165,1.09
59 FRENCHS STORE ROAD,Cumberland County,CUMBERLAND,37.53836179,-78.12423351,2019-09-11,23040,1.0 - 2.0 Mile,149,1.04
63 FRENCHS STORE ROAD,Cumberland County,CUMBERLAND,37.53850492,-78.12232989,2019-09-11,23040,1.0 - 2.0 Mile,151,1.05
6584 BLENHEIM ROAD,Cumberland County,POWHATAN,37.5377639,-78.10910504,2019-09-11,23139,1.0 - 2.0 Mile,251,1.41
274 ANDERSON HIG*,Cumberland County,CUMBERLAND,37.54423643,-78.13530967,2019-09-11,23040,0.50 - 1.0 Mile,62,0.75
199 ANDERSON HIG*,Cumberland County,CUMBERLAND,37.54183198,-78.12787736,2019-09-11,23040,0.50 - 1.0 Mile,70,0.80
209 ANDERSON HIG*,Cumberland County,CUMBERLAND,37.54210118,-78.12901974,2019-09-11,23040,0.50 - 1.0 Mile,67,0.79
217 ANDERSON HIG*,Cumberland County,CUMBERLAND,37.54187985,-78.13000761,2019-09-11,23040,0.50 - 1.0 Mile,74,0.82
219 ANDERSON HIG*,Cumberland County,CUMBERLAND,37.54113626,-78.12988229,2019-09-11,23040,0.50 - 1.0 Mile,83,0.87
275 ANDERSON HIG*,Cumberland County,CUMBERLAND,37.53999272,-78.13576343,2019-09-11,23040,1.0 - 2.0 Mile,144,1.03
66 CLINTON FARM COU*,Cumberland County,CARTERSVILLE,37.60461699,-78.12610075,2019-09-11,23027,2.0 - 3.0 Mile,497,2.27
648 DEEP RUN ROAD,Cumberland County,CARTERSVILLE,37.59876097,-78.12045323,2019-09-11,23027,1.0 - 2.0 Mile,385,1.89
649 DEEP RUN ROAD,Cumberland County,CARTERSVILLE,37.59904233,-78.12248626,2019-09-11,23027,1.0 - 2.0 Mile,389,1.89
651 DEEP RUN ROAD,Cumberland County,CARTERSVILLE,37.59886796,-78.12207769,2019-09-11,23027,1.0 - 2.0 Mile,384,1.88
618 DEEP RUN ROAD,Cumberland County,CARTERSVILLE,37.59202406,-78.12366982,2019-09-11,23027,1.0 - 2.0 Mile,253,1.41
65 OAKLAND ROAD,Cumberland County,CARTERSVILLE,37.59763359,-78.10994991,2019-09-11,23027,1.0 - 2.0 Mile,410,1.96
503 PINEGROVE ROAD,Cumberland County,CUMBERLAND,37.58168908,-78.13382267,2019-09-11,23027,0.50 - 1.0 Mile,75,0.83
530 PINEGROVE ROAD,Cumberland County,CARTERSVILLE,37.58356717,-78.12984492,2019-09-11,23027,0.50 - 1.0 Mile,80,0.85
532 PINEGROVE ROAD,Cumberland County,CARTERSVILLE,37.58351591,-78.12899042,2019-09-11,23027,0.50 - 1.0 Mile,78,0.84
463 PINEGROVE ROAD,Cumberland County,CUMBERLAND,37.57821298,-78.13827523,2019-09-11,23027,0.50 - 1.0 Mile,64,0.77
122 LOCUST GRO*,Cumberland County,CARTERSVILLE,37.57418825,-78.14392085,2019-09-11,23027,0.50 - 1.0 Mile,82,0.86
378 PINEGROVE ROAD,Cumberland County,CUMBERLAND,37.57140875,-78.13547919,2019-09-11,23040,0.25 - 0.50 Mile,20,0.36
356 PINEGROVE ROAD,Cumberland County,CUMBERLAND,37.56959718,-78.13550178,2019-09-11,23040,0.25 - 0.50 Mile,18,0.31
296 PINEGROVE ROAD,Cumberland County,CUMBERLAND,37.5655051,-78.1336356,2019-09-11,23040,0.25 Mile,11,0.23
267 PINEGROVE ROAD,Cumberland County,CUMBERLAND,37.56281901,-78.13323922,2019-09-11,23040,0.25 Mile,6,0.15
263 PINEGROVE ROAD,Cumberland County,CUMBERLAND,37.5622428,-78.13275714,2019-09-11,23040,0.25 Mile,3,0.12
82 MILLER LANE,Cumberland County,CUMBERLAND,37.5575509,-78.11817407,2019-09-11,23040,0.25 Mile,10,0.22
130 MILLER LANE,Cumberland County,CUMBERLAND,37.56065293,-78.11565532,2019-09-11,23040,0.25 - 0.50 Mile,23,0.40
128 MILLER LANE,Cumberland County,CUMBERLAND,37.56085416,-78.11594899,2019-09-11,23040,0.25 - 0.50 Mile,22,0.38
57 ALDER LANE,Cumberland County,CUMBERLAND,37.56590382,-78.10922521,2019-09-11,23040,0.50 - 1.0 Mile,77,0.83
5 ALDER LANE,Cumberland County,CUMBERLAND,37.56509584,-78.11466934,2019-09-11,23040,0.50 - 1.0 Mile,39,0.53
192 MILLER LANE,Cumberland County,CUMBERLAND,37.56593525,-78.11413308,2019-09-11,23040,0.50 - 1.0 Mile,41,0.58
206 MILLER LANE,Cumberland County,CUMBERLAND,37.56704831,-78.11328629,2019-09-11,23040,0.50 - 1.0 Mile,44,0.63
216 MILLER LANE,Cumberland County,CUMBERLAND,37.56793834,-78.11248376,2019-09-11,23040,0.50 - 1.0 Mile,49,0.65
230 MILLER LANE,Cumberland County,CUMBERLAND,37.56908775,-78.11225498,2019-09-11,23040,0.50 - 1.0 Mile,46,0.64
228 MILLER LANE,Cumberland County,CUMBERLAND,37.56974915,-78.11153268,2019-09-11,23040,0.50 - 1.0 Mile,51,0.67
87 PINEGROVE ROAD,Cumberland County,CUMBERLAND,37.55053741,-78.12613895,2019-09-11,23040,0.25 Mile,9,0.20
79 PINEGROVE ROAD,Cumberland County,CUMBERLAND,37.54979138,-78.12614266,2019-09-11,23040,0.25 - 0.50 Mile,12,0.25
75 PINEGROVE ROAD,Cumberland County,CUMBERLAND,37.54933297,-78.12617422,2019-09-11,23040,0.25 - 0.50 Mile,14,0.28
74 PINEGROVE ROAD,Cumberland County,CUMBERLAND,37.54943485,-78.12409135,2019-09-11,23040,0.25 - 0.50 Mile,15,0.29
68 PINEGROVE ROAD,Cumberland County,CUMBERLAND,37.54884486,-78.12501108,2019-09-11,23040,0.25 - 0.50 Mile,19,0.32
49 PINEGROVE ROAD,Cumberland County,CUMBERLAND,37.54744896,-78.12802978,2019-09-11,23040,0.25 - 0.50 Mile,25,0.42
47 PINEGROVE ROAD,Cumberland County,CUMBERLAND,37.54703346,-78.12718238,2019-09-11,23040,0.25 - 0.50 Mile,28,0.44
37 PINEGROVE ROAD,Cumberland County,CUMBERLAND,37.54662869,-78.12695272,2019-09-11,23040,0.25 - 0.50 Mile,34,0.47
34 PINEGROVE ROAD,Cumberland County,CUMBERLAND,37.54597324,-78.12522398,2019-09-11,23040,0.50 - 1.0 Mile,38,0.52
209 BROWN ROAD,Cumberland County,CUMBERLAND,37.56000463,-78.1521074,2019-09-11,23040,1.0 - 2.0 Mile,153,1.06
171 BROWN ROAD,Cumberland County,CUMBERLAND,37.55732691,-78.15455491,2019-09-11,23040,1.0 - 2.0 Mile,188,1.16
146 BROWN ROAD,Cumberland County,CUMBERLAND,37.55483612,-78.15345659,2019-09-11,23040,1.0 - 2.0 Mile,167,1.11
69 BROWN ROAD,Cumberland County,CUMBERLAND,37.55540016,-78.16321383,2019-09-11,23040,1.0 - 2.0 Mile,323,1.64
131 PIPJUNGE ROAD,Cumberland County,CUMBERLAND,37.55404366,-78.17635,2019-09-11,23040,2.0 - 3.0 Mile,527,2.37
457 CARTERSVILLE ROAD,Cumberland County,CUMBERLAND,37.55047193,-78.18954073,2019-09-11,23040,3.0 - 5.0 Mile,723,3.11
65 ASHBURN ROAD,Cumberland County,CUMBERLAND,37.54971462,-78.19376332,2019-09-11,23040,3.0 - 5.0 Mile,812,3.35
83 ASHBURN ROAD,Cumberland County,CUMBERLAND,37.550354,-78.19805012,2019-09-11,23040,3.0 - 5.0 Mile,892,3.58
85 ASHBURN ROAD,Cumberland County,CUMBERLAND,37.54836978,-78.20209002,2019-09-11,23040,3.0 - 5.0 Mile,1006,3.81
418 JENKINS CHURCH ROAD,Cumberland County,CUMBERLAND,37.55263183,-78.21931544,2019-09-11,23040,3.0 - 5.0 Mile,1505,4.73
2 BONBROOK CREEK ROAD,Cumberland County,CUMBERLAND,37.54991965,-78.22155789,2019-09-11,23040,3.0 - 5.0 Mile,1582,4.86
18 BONBROOK CREEK ROAD,Cumberland County,CUMBERLAND,37.55067885,-78.22341681,2019-09-11,23040,3.0 - 5.0 Mile,1657,4.96
335 JENKINS CHURCH ROAD,Cumberland County,CUMBERLAND,37.54807212,-78.22345497,2019-09-11,23040,3.0 - 5.0 Mile,1678,4.98
344 JENKINS CHURCH ROAD,Cumberland County,CUMBERLAND,37.5481218,-78.22216404,2019-09-11,23040,3.0 - 5.0 Mile,1609,4.91
340 JENKINS CHURCH ROAD,Cumberland County,CUMBERLAND,37.54772674,-78.22225375,2019-09-11,23040,3.0 - 5.0 Mile,1612,4.92
336 JENKINS CHURCH ROAD,Cumberland County,CUMBERLAND,37.54749847,-78.22229872,2019-09-11,23040,3.0 - 5.0 Mile,1618,4.92
49 MARIGOLD LANE,Cumberland County,CUMBERLAND,37.58189286,-78.21636652,2019-09-11,23040,3.0 - 5.0 Mile,1568,4.83
251 MT AIRY LANE,Cumberland County,CUMBERLAND,37.58255853,-78.21844085,2019-09-11,23040,3.0 - 5.0 Mile,1646,4.95
89 ASHBURN ROAD,Cumberland County,CUMBERLAND,37.55364089,-78.19628186,2019-09-11,23040,3.0 - 5.0 Mile,851,3.46
29 PIPJUNGE ROAD,Cumberland County,CUMBERLAND,37.55595326,-78.18038681,2019-09-11,23040,2.0 - 3.0 Mile,581,2.58
511 CARTERSVILLE ROAD,Cumberland County,CUMBERLAND,37.5542518,-78.18677872,2019-09-11,23040,2.0 - 3.0 Mile,679,2.94
11 PIPJUNGE ROAD,Cumberland County,CUMBERLAND,37.55656972,-78.18425855,2019-09-11,23040,2.0 - 3.0 Mile,639,2.79
513 CARTERSVILLE ROAD,Cumberland County,CUMBERLAND,37.55484278,-78.18644225,2019-09-11,23040,2.0 - 3.0 Mile,674,2.92
545 CARTERSVILLE ROAD,Cumberland County,CUMBERLAND,37.55840213,-78.18626578,2019-09-11,23040,2.0 - 3.0 Mile,668,2.91
532 CARTERSVILLE ROAD,Cumberland County,CUMBERLAND,37.55832979,-78.18486533,2019-09-11,23040,2.0 - 3.0 Mile,649,2.83
528 CARTERSVILLE ROAD,Cumberland County,CUMBERLAND,37.55712169,-78.18216592,2019-09-11,23040,2.0 - 3.0 Mile,604,2.68
586 CARTERSVILLE ROAD,Cumberland County,CUMBERLAND,37.56011855,-78.18481948,2019-09-11,23040,2.0 - 3.0 Mile,651,2.84
29 MEADOR ROAD,Cumberland County,CUMBERLAND,37.55786077,-78.1905181,2019-09-11,23040,3.0 - 5.0 Mile,734,3.14
8 MEADOR ROAD,Cumberland County,CUMBERLAND,37.5603363,-78.18619435,2019-09-11,23040,2.0 - 3.0 Mile,671,2.91
601 CARTERSVILLE ROAD,Cumberland County,CUMBERLAND,37.56307033,-78.18935874,2019-09-11,23040,3.0 - 5.0 Mile,721,3.11
52 MEADOR ROAD,Cumberland County,CUMBERLAND,37.56036495,-78.18951905,2019-09-11,23040,3.0 - 5.0 Mile,719,3.09
637 CARTERSVILLE ROAD,Cumberland County,CUMBERLAND,37.56467948,-78.1843969,2019-09-11,23040,2.0 - 3.0 Mile,656,2.86
646 CARTERSVILLE ROAD,Cumberland County,CUMBERLAND,37.56469093,-78.18166338,2019-09-11,23040,2.0 - 3.0 Mile,614,2.71
662 CARTERSVILLE ROAD,Cumberland County,CUMBERLAND,37.56563121,-78.18171975,2019-09-11,23040,2.0 - 3.0 Mile,620,2.73
680 CARTERSVILLE ROAD,Cumberland County,CUMBERLAND,37.56688248,-78.18054698,2019-09-11,23040,2.0 - 3.0 Mile,607,2.69
669 CARTERSVILLE ROAD,Cumberland County,CUMBERLAND,37.56762872,-78.1837336,2019-09-11,23040,2.0 - 3.0 Mile,659,2.87
691 CARTERSVILLE ROAD,Cumberland County,CUMBERLAND,37.56839115,-78.18016339,2019-09-11,23040,2.0 - 3.0 Mile,612,2.70
700 CARTERSVILLE ROAD,Cumberland County,CUMBERLAND,37.56826792,-78.17900006,2019-09-11,23040,2.0 - 3.0 Mile,595,2.63
702 CARTERSVILLE ROAD,Cumberland County,CUMBERLAND,37.56826341,-78.17734051,2019-09-11,23040,2.0 - 3.0 Mile,574,2.55
704 CARTERSVILLE ROAD,Cumberland County,CUMBERLAND,37.56843809,-78.17377815,2019-09-11,23040,2.0 - 3.0 Mile,526,2.37
754 CARTERSVILLE ROAD,Cumberland County,CUMBERLAND,37.57225707,-78.17594844,2019-09-11,23040,2.0 - 3.0 Mile,571,2.54
768 CARTERSVILLE ROAD,Cumberland County,CUMBERLAND,37.57321546,-78.1747803,2019-09-11,23040,2.0 - 3.0 Mile,561,2.48
787 CARTERSVILLE ROAD,Cumberland County,CUMBERLAND,37.57534713,-78.17697741,2019-09-11,23040,2.0 - 3.0 Mile,592,2.62
104 PARKER ROAD,Cumberland County,CARTERSVILLE,37.57098825,-78.16639456,2019-09-11,23027,2.0 - 3.0 Mile,422,2.01
7 DEEP RUN ROAD,Cumberland County,CARTERSVILLE,37.57832411,-78.17402978,2019-09-11,23027,2.0 - 3.0 Mile,564,2.51
848 CARTERSVILLE ROAD,Cumberland County,CUMBERLAND,37.58029285,-78.17242134,2019-09-11,23027,2.0 - 3.0 Mile,559,2.47
856 CARTERSVILLE ROAD,Cumberland County,CUMBERLAND,37.58082846,-78.17400832,2019-09-11,23027,2.0 - 3.0 Mile,577,2.56
85 DEEP RUN ROAD,Cumberland County,CARTERSVILLE,37.57907852,-78.16590267,2019-09-11,23027,2.0 - 3.0 Mile,445,2.10
879 CARTERSVILLE ROAD,Cumberland County,CUMBERLAND,37.58181748,-78.17489406,2019-09-11,23027,2.0 - 3.0 Mile,593,2.63
885 CARTERSVILLE ROAD,Cumberland County,CUMBERLAND,37.58295771,-78.17557784,2019-09-11,23027,2.0 - 3.0 Mile,609,2.69
893 CARTERSVILLE ROAD,Cumberland County,CUMBERLAND,37.58397106,-78.17605159,2019-09-11,23027,2.0 - 3.0 Mile,623,2.74
886 CARTERSVILLE ROAD,Cumberland County,CUMBERLAND,37.5838757,-78.17179265,2019-09-11,23027,2.0 - 3.0 Mile,567,2.53
926 CARTERSVILLE ROAD,Cumberland County,CUMBERLAND,37.58664372,-78.17411414,2019-09-11,23027,2.0 - 3.0 Mile,618,2.72
935 CARTERSVILLE ROAD,Cumberland County,CUMBERLAND,37.58766736,-78.17516606,2019-09-11,23027,2.0 - 3.0 Mile,642,2.81
927 CARTERSVILLE ROAD,Cumberland County,CUMBERLAND,37.58700685,-78.17515814,2019-09-11,23027,2.0 - 3.0 Mile,636,2.79
136 BABER ROAD,Cumberland County,CUMBERLAND,37.58670151,-78.18925846,2019-09-11,23027,3.0 - 5.0 Mile,861,3.49
271 DEEP RUN ROAD,Cumberland County,CARTERSVILLE,37.58869504,-78.15518957,2019-09-11,23027,1.0 - 2.0 Mile,404,1.95
178 DEEP RUN ROAD,Cumberland County,CARTERSVILLE,37.57612216,-78.15658993,2019-09-11,23027,1.0 - 2.0 Mile,295,1.55
198 DEEP RUN ROAD,Cumberland County,CARTERSVILLE,37.57588412,-78.15231893,2019-09-11,23027,1.0 - 2.0 Mile,233,1.33
234 DEEP RUN ROAD,Cumberland County,CARTERSVILLE,37.58155444,-78.15164474,2019-09-11,23027,1.0 - 2.0 Mile,272,1.48
267 DEEP RUN ROAD,Cumberland County,CARTERSVILLE,37.58409781,-78.15072174,2019-09-11,23027,1.0 - 2.0 Mile,302,1.56
33 LOCUST GRO*,Cumberland County,CARTERSVILLE,37.5831695,-78.14620712,2019-09-11,23027,1.0 - 2.0 Mile,232,1.33
80 LOCUST GRO*,Cumberland County,CARTERSVILLE,37.57892583,-78.14549254,2019-09-11,23027,1.0 - 2.0 Mile,166,1.11
110 LOCUST GRO*,Cumberland County,CARTERSVILLE,37.57693722,-78.14393908,2019-09-11,23027,0.50 - 1.0 Mile,117,0.96
109 LOCUST GRO*,Cumberland County,CARTERSVILLE,37.57712371,-78.14184397,2019-09-11,23027,0.50 - 1.0 Mile,84,0.87
296 DEEP RUN ROAD,Cumberland County,CARTERSVILLE,37.58517902,-78.14793287,2019-09-11,23027,1.0 - 2.0 Mile,273,1.49
293 DEEP RUN ROAD,Cumberland County,CARTERSVILLE,37.5857254,-78.14838609,2019-09-11,23027,1.0 - 2.0 Mile,292,1.53
295 DEEP RUN ROAD,Cumberland County,CARTERSVILLE,37.5915717,-78.15050088,2019-09-11,23027,1.0 - 2.0 Mile,393,1.91
314 DEEP RUN ROAD,Cumberland County,CARTERSVILLE,37.58548036,-78.14543075,2019-09-11,23027,1.0 - 2.0 Mile,254,1.41
343 DEEP RUN ROAD,Cumberland County,CARTERSVILLE,37.58858956,-78.14489403,2019-09-11,23027,1.0 - 2.0 Mile,300,1.55
399 DEEP RUN ROAD,Cumberland County,CARTERSVILLE,37.59134959,-78.14009345,2019-09-11,23027,1.0 - 2.0 Mile,305,1.58
600 PINEGROVE ROAD,Cumberland County,CARTERSVILLE,37.58820545,-78.13710018,2019-09-11,23027,1.0 - 2.0 Mile,228,1.31
467 DEEP RUN ROAD,Cumberland County,CARTERSVILLE,37.59518942,-78.13477412,2019-09-11,23027,1.0 - 2.0 Mile,335,1.70
476 DEEP RUN ROAD,Cumberland County,CARTERSVILLE,37.59525428,-78.13355563,2019-09-11,23027,1.0 - 2.0 Mile,332,1.69
521 DEEP RUN ROAD,Cumberland County,CARTERSVILLE,37.59772561,-78.13228744,2019-09-11,23027,1.0 - 2.0 Mile,373,1.83
525 DEEP RUN ROAD,Cumberland County,CARTERSVILLE,37.59860423,-78.13112664,2019-09-11,23027,1.0 - 2.0 Mile,383,1.88
538 DEEP RUN ROAD,Cumberland County,CARTERSVILLE,37.59780513,-78.12912733,2019-09-11,23027,1.0 - 2.0 Mile,370,1.81
533 DEEP RUN ROAD,Cumberland County,CARTERSVILLE,37.5989408,-78.12953926,2019-09-11,23027,1.0 - 2.0 Mile,388,1.89
539 DEEP RUN ROAD,Cumberland County,CARTERSVILLE,37.59901456,-78.1288593,2019-09-11,23027,1.0 - 2.0 Mile,391,1.89
566 DEEP RUN ROAD,Cumberland County,CARTERSVILLE,37.59724039,-78.12579966,2019-09-11,23027,1.0 - 2.0 Mile,353,1.76
565 DEEP RUN ROAD,Cumberland County,CARTERSVILLE,37.59878238,-78.12594102,2019-09-11,23027,1.0 - 2.0 Mile,380,1.87
20 CLINTON FARM COU*,Cumberland County,CARTERSVILLE,37.60014398,-78.12646853,2019-09-11,23027,1.0 - 2.0 Mile,413,1.96
29 CLINTON FARM COU*,Cumberland County,CARTERSVILLE,37.60085539,-78.12722451,2019-09-11,23027,2.0 - 3.0 Mile,425,2.01
52 CLINTON FARM COU*,Cumberland County,CARTERSVILLE,37.60343783,-78.12569923,2019-09-11,23027,2.0 - 3.0 Mile,473,2.19
56 CLINTON FARM COU*,Cumberland County,CARTERSVILLE,37.60390364,-78.12550812,2019-09-11,23027,2.0 - 3.0 Mile,482,2.22
1487 CARTERSVILLE ROAD,Cumberland County,CARTERSVILLE,37.62603945,-78.14483294,2019-09-11,23027,3.0 - 5.0 Mile,1045,3.90
64 ASHBURN ROAD,Cumberland County,CUMBERLAND,37.5540827,-78.19342542,2019-09-11,23040,3.0 - 5.0 Mile,788,3.30
365 PINEGROVE ROAD,Cumberland County,CUMBERLAND,37.57039024,-78.13632558,2019-09-11,23040,0.25 - 0.50 Mile,21,0.37
346 CARTERSVILLE ROAD,Cumberland County,CUMBERLAND,37.54065523,-78.19213449,2019-09-11,23040,3.0 - 5.0 Mile,827,3.41
61 CHURCHWOOD LANE,Cumberland County,CUMBERLAND,37.54418122,-78.13829997,2019-09-11,23040,0.50 - 1.0 Mile,73,0.81
114 TAYLOR ROAD,Cumberland County,CARTERSVILLE,37.61482875,-78.16766323,2019-09-11,23027,3.0 - 5.0 Mile,984,3.75
48 TAYLOR ROAD,Cumberland County,CARTERSVILLE,37.61051557,-78.16458455,2019-09-11,23027,3.0 - 5.0 Mile,832,3.41
44 TAYLOR ROAD,Cumberland County,CARTERSVILLE,37.61024491,-78.16430305,2019-09-11,23027,3.0 - 5.0 Mile,823,3.39
27 TAYLOR ROAD,Cumberland County,CARTERSVILLE,37.60881205,-78.16416928,2019-09-11,23027,3.0 - 5.0 Mile,791,3.30
33 TAYLOR ROAD,Cumberland County,CARTERSVILLE,37.60924166,-78.16442613,2019-09-11,23027,3.0 - 5.0 Mile,807,3.34
58 TAYLOR ROAD,Cumberland County,CARTERSVILLE,37.61131893,-78.16524345,2019-09-11,23027,3.0 - 5.0 Mile,856,3.48
60 TAYLOR ROAD,Cumberland County,CARTERSVILLE,37.61179241,-78.1657244,2019-09-11,23027,3.0 - 5.0 Mile,873,3.52
64 TAYLOR ROAD,Cumberland County,CARTERSVILLE,37.61207869,-78.16601297,2019-09-11,23027,3.0 - 5.0 Mile,879,3.55
76 TAYLOR ROAD,Cumberland County,CARTERSVILLE,37.6129462,-78.16578297,2019-09-11,23027,3.0 - 5.0 Mile,896,3.59
78 TAYLOR ROAD,Cumberland County,CARTERSVILLE,37.61298046,-78.16652653,2019-09-11,23027,3.0 - 5.0 Mile,915,3.61
82 TAYLOR ROAD,Cumberland County,CARTERSVILLE,37.61274567,-78.16717558,2019-09-11,23027,3.0 - 5.0 Mile,923,3.62
86 TAYLOR ROAD,Cumberland County,CARTERSVILLE,37.61299025,-78.16747262,2019-09-11,23027,3.0 - 5.0 Mile,943,3.64
92 TAYLOR ROAD,Cumberland County,CARTERSVILLE,37.61326841,-78.16800138,2019-09-11,23027,3.0 - 5.0 Mile,958,3.68
1193 CARTERSVILLE ROAD,Cumberland County,CARTERSVILLE,37.60705854,-78.16288328,2019-09-11,23027,3.0 - 5.0 Mile,744,3.17
1183 CARTERSVILLE ROAD,Cumberland County,CARTERSVILLE,37.60631361,-78.16411026,2019-09-11,23027,3.0 - 5.0 Mile,745,3.17
1176 CARTERSVILLE ROAD,Cumberland County,CARTERSVILLE,37.60499014,-78.16382451,2019-09-11,23027,3.0 - 5.0 Mile,716,3.09
1169 CARTERSVILLE ROAD,Cumberland County,CARTERSVILLE,37.60640126,-78.16641344,2019-09-11,23027,3.0 - 5.0 Mile,771,3.25
1159 CARTERSVILLE ROAD,Cumberland County,CARTERSVILLE,37.60507939,-78.16609586,2019-09-11,23027,3.0 - 5.0 Mile,748,3.17
1151 CARTERSVILLE ROAD,Cumberland County,CARTERSVILLE,37.60454733,-78.16704981,2019-09-11,23027,3.0 - 5.0 Mile,750,3.18
1129 CARTERSVILLE ROAD,Cumberland County,CARTERSVILLE,37.60305212,-78.16829846,2019-09-11,23027,3.0 - 5.0 Mile,738,3.15
1150 CARTERSVILLE ROAD,Cumberland County,CARTERSVILLE,37.60395803,-78.16637621,2019-09-11,23027,3.0 - 5.0 Mile,728,3.12
1144 CARTERSVILLE ROAD,Cumberland County,CARTERSVILLE,37.60368454,-78.16672933,2019-09-11,23027,3.0 - 5.0 Mile,727,3.12
1128 CARTERSVILLE ROAD,Cumberland County,CARTERSVILLE,37.60207972,-78.16706558,2019-09-11,23027,3.0 - 5.0 Mile,706,3.05
1126 CARTERSVILLE ROAD,Cumberland County,CARTERSVILLE,37.60223974,-78.16762808,2019-09-11,23027,3.0 - 5.0 Mile,715,3.08
1120 CARTERSVILLE ROAD,Cumberland County,CARTERSVILLE,37.60186481,-78.16795249,2019-09-11,23027,3.0 - 5.0 Mile,713,3.08
9 WHITEVILLE ROAD,Cumberland County,CARTERSVILLE,37.60241359,-78.16917569,2019-09-11,23027,3.0 - 5.0 Mile,740,3.15
26 WHITEVILLE ROAD,Cumberland County,CARTERSVILLE,37.60322624,-78.17145777,2019-09-11,23027,3.0 - 5.0 Mile,782,3.28
1093 CARTERSVILLE ROAD,Cumberland County,CARTERSVILLE,37.60066518,-78.17074175,2019-09-11,23027,3.0 - 5.0 Mile,731,3.13
1088 CARTERSVILLE ROAD,Cumberland County,CARTERSVILLE,37.59977381,-78.1700129,2019-09-11,23027,3.0 - 5.0 Mile,710,3.06
83 WHITEVILLE ROAD,Cumberland County,CARTERSVILLE,37.60430435,-78.17672525,2019-09-11,23027,3.0 - 5.0 Mile,878,3.55
151 WHITEVILLE ROAD,Cumberland County,CARTERSVILLE,37.60888488,-78.17988629,2019-09-11,23027,3.0 - 5.0 Mile,1037,3.89
189 WHITEVILLE ROAD,Cumberland County,CARTERSVILLE,37.61057368,-78.1827041,2019-09-11,23027,3.0 - 5.0 Mile,1156,4.08
193 WHITEVILLE ROAD,Cumberland County,CARTERSVILLE,37.6106261,-78.18305971,2019-09-11,23027,3.0 - 5.0 Mile,1167,4.10
26 BIGGER ROAD,Cumberland County,CUMBERLAND,37.61299853,-78.19112366,2019-09-11,23040,3.0 - 5.0 Mile,1411,4.54
52 BIGGER ROAD,Cumberland County,CUMBERLAND,37.61574991,-78.19081484,2019-09-11,23040,3.0 - 5.0 Mile,1467,4.65
62 BIGGER ROAD,Cumberland County,CUMBERLAND,37.61669931,-78.19110907,2019-09-11,23040,3.0 - 5.0 Mile,1496,4.70
113 BIGGER ROAD,Cumberland County,CUMBERLAND,37.62073141,-78.19127138,2019-09-11,23040,3.0 - 5.0 Mile,1602,4.90
127 BIGGER ROAD,Cumberland County,CUMBERLAND,37.62189833,-78.19131429,2019-09-11,23040,3.0 - 5.0 Mile,1660,4.96
420 GAME FARM ROAD,Cumberland County,CUMBERLAND,37.61183605,-78.20206024,2019-09-11,23040,3.0 - 5.0 Mile,1643,4.95
301 GAME FARM ROAD,Cumberland County,CUMBERLAND,37.6071705,-78.19805432,2019-09-11,23040,3.0 - 5.0 Mile,1434,4.58
298 GAME FARM ROAD,Cumberland County,CUMBERLAND,37.60991942,-78.19001208,2019-09-11,23040,3.0 - 5.0 Mile,1278,4.35
287 GAME FARM ROAD,Cumberland County,CUMBERLAND,37.6067474,-78.192623,2019-09-11,23040,3.0 - 5.0 Mile,1268,4.33
266 GAME FARM ROAD,Cumberland County,CUMBERLAND,37.60538944,-78.19084836,2019-09-11,23040,3.0 - 5.0 Mile,1211,4.19
247 GAME FARM ROAD,Cumberland County,CUMBERLAND,37.60393444,-78.19105293,2019-09-11,23040,3.0 - 5.0 Mile,1186,4.14
244 GAME FARM ROAD,Cumberland County,CUMBERLAND,37.60339978,-78.18943479,2019-09-11,23040,3.0 - 5.0 Mile,1131,4.05
190 GAME FARM ROAD,Cumberland County,CUMBERLAND,37.60205893,-78.18764281,2019-09-11,23040,3.0 - 5.0 Mile,1056,3.91
184 GAME FARM ROAD,Cumberland County,CUMBERLAND,37.60257089,-78.18573342,2019-09-11,23040,3.0 - 5.0 Mile,1021,3.85
178 GAME FARM ROAD,Cumberland County,CUMBERLAND,37.6019568,-78.18205654,2019-09-11,23040,3.0 - 5.0 Mile,951,3.67
170 GAME FARM ROAD,Cumberland County,CUMBERLAND,37.60088924,-78.18206106,2019-09-11,23040,3.0 - 5.0 Mile,921,3.62
148 GAME FARM ROAD,Cumberland County,CUMBERLAND,37.59897478,-78.18424637,2019-09-11,23040,3.0 - 5.0 Mile,940,3.64
989 CARTERSVILLE ROAD,Cumberland County,CARTERSVILLE,37.59209458,-78.1739924,2019-09-11,23027,2.0 - 3.0 Mile,669,2.91
975 CARTERSVILLE ROAD,Cumberland County,CUMBERLAND,37.59079548,-78.17415003,2019-09-11,23027,2.0 - 3.0 Mile,658,2.87
968 CARTERSVILLE ROAD,Cumberland County,CUMBERLAND,37.59018346,-78.17306395,2019-09-11,23027,2.0 - 3.0 Mile,638,2.79
568 JENKINS CHURCH ROAD,Cumberland County,CUMBERLAND,37.56528407,-78.22299765,2019-09-11,23040,3.0 - 5.0 Mile,1654,4.96
31 WHITE OAK TRA*,Cumberland County,CUMBERLAND,37.56336582,-78.21824965,2019-09-11,23040,3.0 - 5.0 Mile,1490,4.68
332 MEADOR ROAD,Cumberland County,CUMBERLAND,37.56295213,-78.21624571,2019-09-11,23040,3.0 - 5.0 Mile,1425,4.57
15 WHITE OAK TRA*,Cumberland County,CUMBERLAND,37.56141765,-78.21783133,2019-09-11,23040,3.0 - 5.0 Mile,1469,4.65
532 JENKINS CHURCH ROAD,Cumberland County,CUMBERLAND,37.56137847,-78.2222307,2019-09-11,23040,3.0 - 5.0 Mile,1590,4.89
509 JENKINS CHURCH ROAD,Cumberland County,CUMBERLAND,37.55911994,-78.22349454,2019-09-11,23040,3.0 - 5.0 Mile,1644,4.95
523 JENKINS CHURCH ROAD,Cumberland County,CUMBERLAND,37.56107992,-78.22415172,2019-09-11,23040,3.0 - 5.0 Mile,1688,4.99
478 JENKINS CHURCH ROAD,Cumberland County,CUMBERLAND,37.55761621,-78.22031398,2019-09-11,23040,3.0 - 5.0 Mile,1533,4.77
369 MEADOR ROAD,Cumberland County,CUMBERLAND,37.55907154,-78.21960725,2019-09-11,23040,3.0 - 5.0 Mile,1514,4.74
347 MEADOR ROAD,Cumberland County,CUMBERLAND,37.56001443,-78.21577254,2019-09-11,23040,3.0 - 5.0 Mile,1407,4.53
314 MEADOR ROAD,Cumberland County,CUMBERLAND,37.56389577,-78.21388348,2019-09-11,23040,3.0 - 5.0 Mile,1347,4.45
246 MEADOR ROAD,Cumberland County,CUMBERLAND,37.5636407,-78.2077746,2019-09-11,23040,3.0 - 5.0 Mile,1174,4.12
205 ASHBURN ROAD,Cumberland County,CUMBERLAND,37.56132602,-78.20485269,2019-09-11,23040,3.0 - 5.0 Mile,1064,3.94
151 ASHBURN ROAD,Cumberland County,CUMBERLAND,37.55762696,-78.20385372,2019-09-11,23040,3.0 - 5.0 Mile,1032,3.87
153 ASHBURN ROAD,Cumberland County,CUMBERLAND,37.55702656,-78.20467193,2019-09-11,23040,3.0 - 5.0 Mile,1057,3.92
188 ASHBURN ROAD,Cumberland County,CUMBERLAND,37.56151622,-78.20077583,2019-09-11,23040,3.0 - 5.0 Mile,966,3.72
155 MEADOR ROAD,Cumberland County,CUMBERLAND,37.5637423,-78.19791881,2019-09-11,23040,3.0 - 5.0 Mile,894,3.58
180 MEADOR ROAD,Cumberland County,CUMBERLAND,37.56455277,-78.20090693,2019-09-11,23040,3.0 - 5.0 Mile,982,3.75
212 ASHBURN ROAD,Cumberland County,CUMBERLAND,37.56312786,-78.2015735,2019-09-11,23040,3.0 - 5.0 Mile,994,3.77
26 PINE RIDGE DRI*,Cumberland County,CUMBERLAND,37.5567908,-78.19520844,2019-09-11,23040,3.0 - 5.0 Mile,824,3.40
25 PINE RIDGE DRI*,Cumberland County,CUMBERLAND,37.55613405,-78.19657125,2019-09-11,23040,3.0 - 5.0 Mile,854,3.47
15 PINE RIDGE DRI*,Cumberland County,CUMBERLAND,37.55553497,-78.19641835,2019-09-11,23040,3.0 - 5.0 Mile,852,3.46
9 PINE RIDGE DRI*,Cumberland County,CUMBERLAND,37.55495633,-78.19578063,2019-09-11,23040,3.0 - 5.0 Mile,836,3.43
135 MT AIRY FOREST ROAD,Cumberland County,CUMBERLAND,37.57465094,-78.20627444,2019-09-11,23040,3.0 - 5.0 Mile,1213,4.19
145 MT AIRY FOREST ROAD,Cumberland County,CUMBERLAND,37.57560779,-78.20655049,2019-09-11,23040,3.0 - 5.0 Mile,1227,4.23
29 MT AIRY LANE,Cumberland County,CUMBERLAND,37.57226224,-78.21091607,2019-09-11,23040,3.0 - 5.0 Mile,1306,4.40
27 MT AIRY LANE,Cumberland County,CUMBERLAND,37.57255252,-78.20926416,2019-09-11,23040,3.0 - 5.0 Mile,1264,4.31
38 MT AIRY LANE,Cumberland County,CUMBERLAND,37.57311686,-78.20792813,2019-09-11,23040,3.0 - 5.0 Mile,1243,4.25
60 MT AIRY LANE,Cumberland County,CUMBERLAND,37.57378297,-78.20839754,2019-09-11,23040,3.0 - 5.0 Mile,1260,4.29
66 MT AIRY LANE,Cumberland County,CUMBERLAND,37.5750008,-78.21039653,2019-09-11,23040,3.0 - 5.0 Mile,1325,4.42
101 MT AIRY LANE,Cumberland County,CUMBERLAND,37.57509479,-78.21319559,2019-09-11,23040,3.0 - 5.0 Mile,1421,4.57
103 MT AIRY LANE,Cumberland County,CUMBERLAND,37.57560005,-78.21382657,2019-09-11,23040,3.0 - 5.0 Mile,1448,4.61
115 MT AIRY LANE,Cumberland County,CUMBERLAND,37.57645426,-78.21454145,2019-09-11,23040,3.0 - 5.0 Mile,1474,4.66
121 MT AIRY LANE,Cumberland County,CUMBERLAND,37.57659138,-78.21516168,2019-09-11,23040,3.0 - 5.0 Mile,1494,4.70
133 MT AIRY LANE,Cumberland County,CUMBERLAND,37.57751353,-78.21593718,2019-09-11,23040,3.0 - 5.0 Mile,1526,4.76
145 MT AIRY LANE,Cumberland County,CUMBERLAND,37.57742936,-78.21679317,2019-09-11,23040,3.0 - 5.0 Mile,1545,4.80
154 MT AIRY LANE,Cumberland County,CUMBERLAND,37.57887934,-78.21710905,2019-09-11,23040,3.0 - 5.0 Mile,1571,4.84
232 MT AIRY LANE,Cumberland County,CUMBERLAND,37.58054682,-78.21763835,2019-09-11,23040,3.0 - 5.0 Mile,1588,4.88
154 MARIGOLD LANE,Cumberland County,CUMBERLAND,37.58055429,-78.21537908,2019-09-11,23040,3.0 - 5.0 Mile,1529,4.76
213 MT AIRY LANE,Cumberland County,CUMBERLAND,37.58107803,-78.21941839,2019-09-11,23040,3.0 - 5.0 Mile,1683,4.99
1010 DEEP RUN ROAD,Cumberland County,CARTERSVILLE,37.62752317,-78.11454245,2019-09-11,23027,3.0 - 5.0 Mile,1044,3.90
34 RHODES LANE,Cumberland County,CARTERSVILLE,37.62816129,-78.11385286,2019-09-11,23027,3.0 - 5.0 Mile,1067,3.94
42 RHODES LANE,Cumberland County,CARTERSVILLE,37.62749569,-78.11343654,2019-09-11,23027,3.0 - 5.0 Mile,1050,3.90
13 CHEROKEE TRA*,Cumberland County,CARTERSVILLE,37.62609323,-78.11048776,2019-09-11,23027,3.0 - 5.0 Mile,1016,3.84
73 RHODES LANE,Cumberland County,CARTERSVILLE,37.6250228,-78.11106721,2019-09-11,23027,3.0 - 5.0 Mile,987,3.76
99 RHODES LANE,Cumberland County,CARTERSVILLE,37.62413247,-78.11354959,2019-09-11,23027,3.0 - 5.0 Mile,955,3.67
95 RHODES LANE,Cumberland County,CARTERSVILLE,37.62368839,-78.11290511,2019-09-11,23027,3.0 - 5.0 Mile,945,3.65
31 CHEROKEE TRA*,Cumberland County,CARTERSVILLE,37.62581883,-78.10856705,2019-09-11,23027,3.0 - 5.0 Mile,1018,3.84
40 CHEROKEE TRA*,Cumberland County,CARTERSVILLE,37.62426943,-78.10891218,2019-09-11,23027,3.0 - 5.0 Mile,972,3.73
35 CHEROKEE TRA*,Cumberland County,CARTERSVILLE,37.62550454,-78.10773971,2019-09-11,23027,3.0 - 5.0 Mile,1013,3.83
50 CHEROKEE TRA*,Cumberland County,CARTERSVILLE,37.62393389,-78.10823072,2019-09-11,23027,3.0 - 5.0 Mile,967,3.72
880 DEEP RUN ROAD,Cumberland County,CARTERSVILLE,37.61764456,-78.1137282,2019-09-11,23027,3.0 - 5.0 Mile,766,3.23
882 DEEP RUN ROAD,Cumberland County,CARTERSVILLE,37.61711456,-78.11353895,2019-09-11,23027,3.0 - 5.0 Mile,756,3.20
104 SHERWOOD ROAD,Cumberland County,CARTERSVILLE,37.62832464,-78.1009417,2019-09-11,23027,3.0 - 5.0 Mile,1177,4.12
200 SHERWOOD ROAD,Cumberland County,CARTERSVILLE,37.62243958,-78.09786151,2019-09-11,23027,3.0 - 5.0 Mile,1002,3.80
199 SHERWOOD ROAD,Cumberland County,CARTERSVILLE,37.62235348,-78.09704482,2019-09-11,23027,3.0 - 5.0 Mile,1004,3.81
203 SHERWOOD ROAD,Cumberland County,CARTERSVILLE,37.62181196,-78.09707916,2019-09-11,23027,3.0 - 5.0 Mile,993,3.77
237 SHERWOOD ROAD,Cumberland County,CARTERSVILLE,37.62003067,-78.0985682,2019-09-11,23027,3.0 - 5.0 Mile,929,3.63
255 SHERWOOD ROAD,Cumberland County,CARTERSVILLE,37.61841131,-78.09819814,2019-09-11,23027,3.0 - 5.0 Mile,875,3.53
265 SHERWOOD ROAD,Cumberland County,CARTERSVILLE,37.61785183,-78.09819031,2019-09-11,23027,3.0 - 5.0 Mile,866,3.50
269 SHERWOOD ROAD,Cumberland County,CARTERSVILLE,37.61721574,-78.09843176,2019-09-11,23027,3.0 - 5.0 Mile,845,3.45
277 SHERWOOD ROAD,Cumberland County,CARTERSVILLE,37.61716698,-78.09928681,2019-09-11,23027,3.0 - 5.0 Mile,837,3.43
252 SHERWOOD ROAD,Cumberland County,CARTERSVILLE,37.61889009,-78.09873988,2019-09-11,23027,3.0 - 5.0 Mile,882,3.55
236 SHERWOOD ROAD,Cumberland County,CARTERSVILLE,37.61988714,-78.09956181,2019-09-11,23027,3.0 - 5.0 Mile,904,3.60
329 SHERWOOD ROAD,Cumberland County,CARTERSVILLE,37.61137687,-78.09526769,2019-09-11,23027,3.0 - 5.0 Mile,747,3.17
1313 CARTERSVILLE ROAD,Cumberland County,CARTERSVILLE,37.61445897,-78.15480659,2019-09-11,23027,3.0 - 5.0 Mile,817,3.36
1299 CARTERSVILLE ROAD,Cumberland County,CARTERSVILLE,37.61335369,-78.1559764,2019-09-11,23027,3.0 - 5.0 Mile,801,3.33
1293 CARTERSVILLE ROAD,Cumberland County,CARTERSVILLE,37.61314152,-78.1565448,2019-09-11,23027,3.0 - 5.0 Mile,803,3.33
1291 CARTERSVILLE ROAD,Cumberland County,CARTERSVILLE,37.61299979,-78.15682419,2019-09-11,23027,3.0 - 5.0 Mile,802,3.33
1289 CARTERSVILLE ROAD,Cumberland County,CARTERSVILLE,37.61277875,-78.15706411,2019-09-11,23027,3.0 - 5.0 Mile,799,3.32
1287 CARTERSVILLE ROAD,Cumberland County,CARTERSVILLE,37.61263695,-78.15732359,2019-09-11,23027,3.0 - 5.0 Mile,798,3.32
1283 CARTERSVILLE ROAD,Cumberland County,CARTERSVILLE,37.61237626,-78.15754378,2019-09-11,23027,3.0 - 5.0 Mile,794,3.31
1247 CARTERSVILLE ROAD,Cumberland County,CARTERSVILLE,37.61064257,-78.1605082,2019-09-11,23027,3.0 - 5.0 Mile,785,3.29
49 JEFFERSON ROAD,Cumberland County,CARTERSVILLE,37.61032397,-78.15167997,2019-09-11,23027,3.0 - 5.0 Mile,699,3.03
33 JEFFERSON ROAD,Cumberland County,CARTERSVILLE,37.61179206,-78.1527184,2019-09-11,23027,3.0 - 5.0 Mile,736,3.14
1242 CARTERSVILLE ROAD,Cumberland County,CARTERSVILLE,37.60903378,-78.15870676,2019-09-11,23027,3.0 - 5.0 Mile,737,3.15
1240 CARTERSVILLE ROAD,Cumberland County,CARTERSVILLE,37.60811186,-78.15866317,2019-09-11,23027,3.0 - 5.0 Mile,718,3.09
1234 CARTERSVILLE ROAD,Cumberland County,CARTERSVILLE,37.60904712,-78.16004457,2019-09-11,23027,3.0 - 5.0 Mile,752,3.19
1274 CARTERSVILLE ROAD,Cumberland County,CARTERSVILLE,37.61156077,-78.15760723,2019-09-11,23027,3.0 - 5.0 Mile,775,3.27
1276 CARTERSVILLE ROAD,Cumberland County,CARTERSVILLE,37.61107446,-78.15648457,2019-09-11,23027,3.0 - 5.0 Mile,761,3.20
1282 CARTERSVILLE ROAD,Cumberland County,CARTERSVILLE,37.61208994,-78.15711703,2019-09-11,23027,3.0 - 5.0 Mile,783,3.28
1298 CARTERSVILLE ROAD,Cumberland County,CARTERSVILLE,37.61275821,-78.15544157,2019-09-11,23027,3.0 - 5.0 Mile,781,3.28
85 BRADLEY ROAD,Cumberland County,CARTERSVILLE,37.60461038,-78.15385027,2019-09-11,23027,2.0 - 3.0 Mile,626,2.75
31 BRADLEY ROAD,Cumberland County,CARTERSVILLE,37.60613542,-78.15825841,2019-09-11,23027,2.0 - 3.0 Mile,690,2.97
69 BRADLEY ROAD,Cumberland County,CARTERSVILLE,37.60358757,-78.15609322,2019-09-11,23027,2.0 - 3.0 Mile,628,2.75
121 TAYLOR ROAD,Cumberland County,CARTERSVILLE,37.61410189,-78.17304022,2019-09-11,23027,3.0 - 5.0 Mile,1042,3.89
168 JENNINGS ROAD,Cumberland County,CARTERSVILLE,37.62852843,-78.12268209,2019-09-11,23027,3.0 - 5.0 Mile,1060,3.92
180 JENNINGS ROAD,Cumberland County,CARTERSVILLE,37.62818928,-78.12168157,2019-09-11,23027,3.0 - 5.0 Mile,1051,3.90
186 JENNINGS ROAD,Cumberland County,CARTERSVILLE,37.62709277,-78.12075942,2019-09-11,23027,3.0 - 5.0 Mile,1014,3.83
196 JENNINGS ROAD,Cumberland County,CARTERSVILLE,37.62799427,-78.12044011,2019-09-11,23027,3.0 - 5.0 Mile,1043,3.89
198 JENNINGS ROAD,Cumberland County,CARTERSVILLE,37.62783503,-78.12008476,2019-09-11,23027,3.0 - 5.0 Mile,1036,3.88
200 JENNINGS ROAD,Cumberland County,CARTERSVILLE,37.62803738,-78.11950393,2019-09-11,23027,3.0 - 5.0 Mile,1047,3.90
1510 CARTERSVILLE ROAD,Cumberland County,CARTERSVILLE,37.62629403,-78.1416129,2019-09-11,23027,3.0 - 5.0 Mile,1030,3.87
1525 CARTERSVILLE ROAD,Cumberland County,CARTERSVILLE,37.62843855,-78.1418713,2019-09-11,23027,3.0 - 5.0 Mile,1109,4.02
1519 CARTERSVILLE ROAD,Cumberland County,CARTERSVILLE,37.62791519,-78.14183065,2019-09-11,23027,3.0 - 5.0 Mile,1083,3.98
1515 CARTERSVILLE ROAD,Cumberland County,CARTERSVILLE,37.62758167,-78.14216658,2019-09-11,23027,3.0 - 5.0 Mile,1075,3.96
1507 CARTERSVILLE ROAD,Cumberland County,CARTERSVILLE,37.62787563,-78.14579972,2019-09-11,23027,3.0 - 5.0 Mile,1126,4.03
1505 CARTERSVILLE ROAD,Cumberland County,CARTERSVILLE,37.62759741,-78.14480061,2019-09-11,23027,3.0 - 5.0 Mile,1096,4.00
1497 CARTERSVILLE ROAD,Cumberland County,CARTERSVILLE,37.62638269,-78.14338815,2019-09-11,23027,3.0 - 5.0 Mile,1046,3.90
1495 CARTERSVILLE ROAD,Cumberland County,CARTERSVILLE,37.62623332,-78.14298681,2019-09-11,23027,3.0 - 5.0 Mile,1035,3.88
1476 CARTERSVILLE ROAD,Cumberland County,CARTERSVILLE,37.624268,-78.14341069,2019-09-11,23027,3.0 - 5.0 Mile,988,3.76
1461 CARTERSVILLE ROAD,Cumberland County,CARTERSVILLE,37.62386551,-78.14721327,2019-09-11,23027,3.0 - 5.0 Mile,1001,3.79
1460 CARTERSVILLE ROAD,Cumberland County,CARTERSVILLE,37.62132606,-78.14382918,2019-09-11,23027,3.0 - 5.0 Mile,889,3.57
1478 CARTERSVILLE ROAD,Cumberland County,CARTERSVILLE,37.62256982,-78.14056839,2019-09-11,23027,3.0 - 5.0 Mile,912,3.61
1462 CARTERSVILLE ROAD,Cumberland County,CARTERSVILLE,37.61893607,-78.13974796,2019-09-11,23027,3.0 - 5.0 Mile,815,3.35
1444 CARTERSVILLE ROAD,Cumberland County,CARTERSVILLE,37.62232798,-78.14556537,2019-09-11,23027,3.0 - 5.0 Mile,950,3.66
1437 CARTERSVILLE ROAD,Cumberland County,CARTERSVILLE,37.62228013,-78.1471868,2019-09-11,23027,3.0 - 5.0 Mile,961,3.69
37 JENKINS RIDGE ROAD,Cumberland County,CARTERSVILLE,37.62106593,-78.15453898,2019-09-11,23027,3.0 - 5.0 Mile,989,3.76
3 CARNEAL COU*,Cumberland County,CARTERSVILLE,37.62151436,-78.14706267,2019-09-11,23027,3.0 - 5.0 Mile,937,3.64
5 CARNEAL COU*,Cumberland County,CARTERSVILLE,37.62113274,-78.14721916,2019-09-11,23027,3.0 - 5.0 Mile,916,3.61
4 CARNEAL COU*,Cumberland County,CARTERSVILLE,37.62101064,-78.14753727,2019-09-11,23027,3.0 - 5.0 Mile,914,3.61
2 CARNEAL COU*,Cumberland County,CARTERSVILLE,37.62134041,-78.14736474,2019-09-11,23027,3.0 - 5.0 Mile,932,3.63
1 CARNEAL COU*,Cumberland County,CARTERSVILLE,37.62118605,-78.1477237,2019-09-11,23027,3.0 - 5.0 Mile,928,3.63
1430 CARTERSVILLE ROAD,Cumberland County,CARTERSVILLE,37.62104517,-78.14826172,2019-09-11,23027,3.0 - 5.0 Mile,930,3.63
11 CARNEAL COU*,Cumberland County,CARTERSVILLE,37.62109245,-78.14673898,2019-09-11,23027,3.0 - 5.0 Mile,908,3.60
10 CARNEAL COU*,Cumberland County,CARTERSVILLE,37.6210152,-78.14689404,2019-09-11,23027,3.0 - 5.0 Mile,907,3.60
9 CARNEAL COU*,Cumberland County,CARTERSVILLE,37.62091845,-78.14702476,2019-09-11,23027,3.0 - 5.0 Mile,902,3.60
8 CARNEAL COU*,Cumberland County,CARTERSVILLE,37.62084115,-78.14716354,2019-09-11,23027,3.0 - 5.0 Mile,901,3.59
7 CARNEAL COU*,Cumberland County,CARTERSVILLE,37.62074442,-78.1473024,2019-09-11,23027,3.0 - 5.0 Mile,900,3.59
1390 CARTERSVILLE ROAD,Cumberland County,CARTERSVILLE,37.61976726,-78.15039839,2019-09-11,23027,3.0 - 5.0 Mile,897,3.59
1386 CARTERSVILLE ROAD,Cumberland County,CARTERSVILLE,37.61933314,-78.1507619,2019-09-11,23027,3.0 - 5.0 Mile,888,3.57
1387 CARTERSVILLE ROAD,Cumberland County,CARTERSVILLE,37.61995817,-78.15189232,2019-09-11,23027,3.0 - 5.0 Mile,935,3.63
1368 CARTERSVILLE ROAD,Cumberland County,CARTERSVILLE,37.61783135,-78.15153875,2019-09-11,23027,3.0 - 5.0 Mile,863,3.49
1359 CARTERSVILLE ROAD,Cumberland County,CARTERSVILLE,37.61754584,-78.15263471,2019-09-11,23027,3.0 - 5.0 Mile,867,3.50
1354 CARTERSVILLE ROAD,Cumberland County,CARTERSVILLE,37.61685532,-78.15157784,2019-09-11,23027,3.0 - 5.0 Mile,838,3.43
1374 CARTERSVILLE ROAD,Cumberland County,CARTERSVILLE,37.61838688,-78.15139157,2019-09-11,23027,3.0 - 5.0 Mile,874,3.52
1324 CARTERSVILLE ROAD,Cumberland County,CARTERSVILLE,37.614512,-78.15341554,2019-09-11,23027,3.0 - 5.0 Mile,804,3.33
86 JENKINS RIDGE ROAD,Cumberland County,CARTERSVILLE,37.62537056,-78.15411717,2019-09-11,23027,3.0 - 5.0 Mile,1118,4.02
134 JENNINGS ROAD,Cumberland County,CARTERSVILLE,37.62802414,-78.12738944,2019-09-11,23027,3.0 - 5.0 Mile,1038,3.89
140 JENNINGS ROAD,Cumberland County,CARTERSVILLE,37.62753416,-78.12540093,2019-09-11,23027,3.0 - 5.0 Mile,1022,3.85
1000 DEEP RUN ROAD,Cumberland County,CARTERSVILLE,37.62652972,-78.11428088,2019-09-11,23027,3.0 - 5.0 Mile,1011,3.83
30 CLINTON FARM COU*,Cumberland County,CARTERSVILLE,37.60179434,-78.12595582,2019-09-11,23027,2.0 - 3.0 Mile,437,2.08
276 CLINTON ROAD,Cumberland County,CUMBERLAND,37.54713086,-78.16319096,2019-09-11,23040,1.0 - 2.0 Mile,352,1.76
14 ALDER LANE,Cumberland County,CUMBERLAND,37.56496124,-78.11369223,2019-09-11,23040,0.50 - 1.0 Mile,40,0.58
120 BROWN ROAD,Cumberland County,CUMBERLAND,37.55320592,-78.15626541,2019-09-11,23040,1.0 - 2.0 Mile,218,1.28
250 CLINTON ROAD,Cumberland County,CUMBERLAND,37.54910372,-78.15824449,2019-09-11,23040,1.0 - 2.0 Mile,267,1.46
16 ALDER LANE,Cumberland County,CUMBERLAND,37.56358103,-78.11117422,2019-09-11,23040,0.50 - 1.0 Mile,54,0.69
18 PINE RIDGE DRI*,Cumberland County,CUMBERLAND,37.55540319,-78.19470578,2019-09-11,23040,3.0 - 5.0 Mile,818,3.37
86 ASHBURN ROAD,Cumberland County,CUMBERLAND,37.55460283,-78.19405878,2019-09-11,23040,3.0 - 5.0 Mile,806,3.33
69 FRENCHS STORE ROAD,Cumberland County,CUMBERLAND,37.53788537,-78.12254991,2019-09-11,23040,1.0 - 2.0 Mile,164,1.09
6634 BLENHEIM ROAD,Cumberland County,POWHATAN,37.54014602,-78.11421842,2019-09-11,23139,1.0 - 2.0 Mile,168,1.11
52 BOONE TRA*,Cumberland County,CARTERSVILLE,37.62805597,-78.10690345,2019-09-11,23027,3.0 - 5.0 Mile,1104,4.01
73 BOONE TRA*,Cumberland County,CARTERSVILLE,37.62777532,-78.10516496,2019-09-11,23027,3.0 - 5.0 Mile,1111,4.02
988 DEEP RUN ROAD,Cumberland County,CARTERSVILLE,37.62540178,-78.11440401,2019-09-11,23027,3.0 - 5.0 Mile,983,3.75
297 BROWN ROAD,Cumberland County,CUMBERLAND,37.56254085,-78.1453609,2019-09-11,23040,0.50 - 1.0 Mile,63,0.77
302 BROWN ROAD,Cumberland County,CUMBERLAND,37.56235227,-78.14254937,2019-09-11,23040,0.50 - 1.0 Mile,45,0.63
294 BROWN ROAD,Cumberland County,CUMBERLAND,37.56235681,-78.14405793,2019-09-11,23040,0.50 - 1.0 Mile,57,0.71
26 CLINTON FARM COU*,Cumberland County,CARTERSVILLE,37.60095327,-78.12598002,2019-09-11,23027,2.0 - 3.0 Mile,427,2.02
579 DEEP RUN ROAD,Cumberland County,CARTERSVILLE,37.59876063,-78.1240633,2019-09-11,23027,1.0 - 2.0 Mile,379,1.87
16 JEFFERSON ROAD,Cumberland County,CARTERSVILLE,37.61253828,-78.15430723,2019-09-11,23027,3.0 - 5.0 Mile,767,3.23
669 DEEP RUN ROAD,Cumberland County,CARTERSVILLE,37.6010052,-78.12321716,2019-09-11,23027,2.0 - 3.0 Mile,429,2.03
93 BROWN ROAD,Cumberland County,CUMBERLAND,37.56272655,-78.15843539,2019-09-11,23040,1.0 - 2.0 Mile,264,1.44
134 BROWN ROAD,Cumberland County,CUMBERLAND,37.55359775,-78.15544049,2019-09-11,23040,1.0 - 2.0 Mile,204,1.23
130 BROWN ROAD,Cumberland County,CUMBERLAND,37.5521821,-78.15605206,2019-09-11,23040,1.0 - 2.0 Mile,220,1.28
468 JENKINS CHURCH ROAD,Cumberland County,CUMBERLAND,37.55674697,-78.21856147,2019-09-11,23040,3.0 - 5.0 Mile,1487,4.68
62 MILLER LANE,Cumberland County,CUMBERLAND,37.55552163,-78.11716755,2019-09-11,23040,0.25 - 0.50 Mile,17,0.31
391 PINEGROVE ROAD,Cumberland County,CUMBERLAND,37.57251644,-78.13688186,2019-09-11,23040,0.25 - 0.50 Mile,32,0.46
225 ANDERSON HIG*,Cumberland County,CUMBERLAND,37.5406166,-78.13115351,2019-09-11,23040,0.50 - 1.0 Mile,101,0.92
65 FRENCHS STORE ROAD,Cumberland County,CUMBERLAND,37.53772003,-78.12407518,2019-09-11,23040,1.0 - 2.0 Mile,163,1.09
88 ASHBURN ROAD,Cumberland County,CUMBERLAND,37.55503393,-78.19428636,2019-09-11,23040,3.0 - 5.0 Mile,810,3.35
460 CARTERSVILLE ROAD,Cumberland County,CUMBERLAND,37.55067648,-78.18676876,2019-09-11,23040,2.0 - 3.0 Mile,689,2.96
5 CHEROKEE TRA*,Cumberland County,CARTERSVILLE,37.62630708,-78.11136461,2019-09-11,23027,3.0 - 5.0 Mile,1019,3.84
81 DEEP RUN ROAD,Cumberland County,CARTERSVILLE,37.57903422,-78.16662077,2019-09-11,23027,2.0 - 3.0 Mile,461,2.14
42 FRENCHES STORE ROAD,Cumberland County,CUMBERLAND,37.53962849,-78.12691244,2019-09-11,23040,0.50 - 1.0 Mile,116,0.95
6590 BLENHEIM ROAD,Cumberland County,POWHATAN,37.53790916,-78.11301179,2019-09-11,23139,1.0 - 2.0 Mile,216,1.27
229 CLINTON ROAD,Cumberland County,CUMBERLAND,37.54385577,-78.16038519,2019-09-11,23040,1.0 - 2.0 Mile,340,1.71
190 BROWN ROAD,Cumberland County,CUMBERLAND,37.55762973,-78.15295734,2019-09-11,23040,1.0 - 2.0 Mile,158,1.08
71 HIDEAWAY TRA*,Cumberland County,CUMBERLAND,37.54595164,-78.14424637,2019-09-11,23040,0.50 - 1.0 Mile,98,0.91
492 DEEP RUN ROAD,Cumberland County,CARTERSVILLE,37.59498753,-78.13258381,2019-09-11,23027,1.0 - 2.0 Mile,325,1.65
220 MILLER LANE,Cumberland County,CUMBERLAND,37.56862834,-78.11237765,2019-09-11,23040,0.50 - 1.0 Mile,47,0.64
17 CHURCHWOOD LANE,Cumberland County,CUMBERLAND,37.54113654,-78.13907655,2019-09-11,23040,1.0 - 2.0 Mile,140,1.02
129 MT AIRY LANE,Cumberland County,CUMBERLAND,37.57727647,-78.21575143,2019-09-11,23040,3.0 - 5.0 Mile,1519,4.74
130 MT AIRY LANE,Cumberland County,CUMBERLAND,37.57760128,-78.21527599,2019-09-11,23040,3.0 - 5.0 Mile,1504,4.73
23 CHEROKEE TRA*,Cumberland County,CARTERSVILLE,37.62686653,-78.10929735,2019-09-11,23027,3.0 - 5.0 Mile,1049,3.90
39 HIDEAWAY TRA*,Cumberland County,CUMBERLAND,37.54410267,-78.14381747,2019-09-11,23040,0.50 - 1.0 Mile,131,0.99
482 CARTERSVILLE ROAD,Cumberland County,CUMBERLAND,37.55297263,-78.18508966,2019-09-11,23040,2.0 - 3.0 Mile,654,2.85
29 DEEP RUN ROAD,Cumberland County,CARTERSVILLE,37.57871878,-78.17212305,2019-09-11,23027,2.0 - 3.0 Mile,543,2.42
274 DEEP RUN ROAD,Cumberland County,CARTERSVILLE,37.58407513,-78.14944347,2019-09-11,23027,1.0 - 2.0 Mile,279,1.50
53 CHURCHWOOD LANE,Cumberland County,CUMBERLAND,37.54335197,-78.13889817,2019-09-11,23040,0.50 - 1.0 Mile,87,0.88
57 CHURCHWOOD LANE,Cumberland County,CUMBERLAND,37.54344817,-78.14068432,2019-09-11,23040,0.50 - 1.0 Mile,104,0.92
1181 CARTERSVILLE ROAD,Cumberland County,CARTERSVILLE,37.60620685,-78.16480135,2019-09-11,23027,3.0 - 5.0 Mile,751,3.18
268 DEEP RUN ROAD,Cumberland County,CARTERSVILLE,37.58340962,-78.14991003,2019-09-11,23027,1.0 - 2.0 Mile,276,1.49
2375 MOSBY ROAD,Cumberland County,POWHATAN,37.55058348,-78.11007873,2019-09-11,23139,0.50 - 1.0 Mile,72,0.80
2369 MOSBY ROAD,Cumberland County,POWHATAN,37.5495586,-78.10920742,2019-09-11,23139,0.50 - 1.0 Mile,88,0.88
2377 MOSBY ROAD,Cumberland County,POWHATAN,37.54979202,-78.10818086,2019-09-11,23139,0.50 - 1.0 Mile,103,0.92
2370 MOSBY ROAD,Cumberland County,POWHATAN,37.55421971,-78.10553451,2019-09-11,23139,0.50 - 1.0 Mile,113,0.94
133 CLINTON ROAD,Cumberland County,CUMBERLAND,37.54150793,-78.15075664,2019-09-11,23040,1.0 - 2.0 Mile,243,1.38
147 ANNE CAROL DRI*,Cumberland County,CARTERSVILLE,37.60046499,-78.16634658,2019-09-11,23027,2.0 - 3.0 Mile,683,2.95
6674 BLENHEIM ROAD,Cumberland County,POWHATAN,37.54262148,-78.11399881,2019-09-11,23139,0.50 - 1.0 Mile,127,0.98
61 BOONE TRA*,Cumberland County,CARTERSVILLE,37.62847004,-78.10520282,2019-09-11,23027,3.0 - 5.0 Mile,1142,4.06
1498 CARTERSVILLE ROAD,Cumberland County,CARTERSVILLE,37.62602433,-78.14194403,2019-09-11,23027,3.0 - 5.0 Mile,1024,3.86
1049 CARTERSVILLE ROAD,Cumberland County,CARTERSVILLE,37.59807725,-78.17501125,2019-09-11,23027,3.0 - 5.0 Mile,757,3.20
470 DEEP RUN ROAD,Cumberland County,CARTERSVILLE,37.59299066,-78.1326414,2019-09-11,23027,1.0 - 2.0 Mile,286,1.52
53 DEEP RUN ROAD,Cumberland County,CARTERSVILLE,37.58037747,-78.16938128,2019-09-11,23027,2.0 - 3.0 Mile,510,2.31
318 DEEP RUN ROAD,Cumberland County,CARTERSVILLE,37.58503529,-78.14379842,2019-09-11,23027,1.0 - 2.0 Mile,231,1.32
47 FOX GLOVE LANE,Cumberland County,CARTERSVILLE,37.600954,-78.12789552,2019-09-11,23027,2.0 - 3.0 Mile,428,2.02
462 JENKINS CHURCH ROAD,Cumberland County,CUMBERLAND,37.55591293,-78.21843749,2019-09-11,23040,3.0 - 5.0 Mile,1483,4.67
208 MILLER LANE,Cumberland County,CUMBERLAND,37.56739966,-78.11232847,2019-09-11,23040,0.50 - 1.0 Mile,50,0.67
204 MILLER LANE,Cumberland County,CUMBERLAND,37.56657847,-78.11157733,2019-09-11,23040,0.50 - 1.0 Mile,58,0.72
180 MILLER LANE,Cumberland County,CUMBERLAND,37.56558549,-78.11323432,2019-09-11,23040,0.50 - 1.0 Mile,43,0.62
215 MT AIRY LANE,Cumberland County,CUMBERLAND,37.58120225,-78.21856298,2019-09-11,23040,3.0 - 5.0 Mile,1628,4.94
46 PINEGROVE ROAD,Cumberland County,CUMBERLAND,37.54649641,-78.12439394,2019-09-11,23040,0.25 - 0.50 Mile,37,0.49
6672 BLENHEIM ROAD,Cumberland County,POWHATAN,37.54336898,-78.11430364,2019-09-11,23139,0.50 - 1.0 Mile,105,0.92
234 SHERWOOD ROAD,Cumberland County,CARTERSVILLE,37.62009426,-78.09983612,2019-09-11,23027,3.0 - 5.0 Mile,910,3.60
15 ANDERSON HIG*,Cumberland County,CUMBERLAND,37.54430305,-78.10965599,2019-09-11,23139,1.0 - 2.0 Mile,152,1.06
274 BROWN ROAD,Cumberland County,CUMBERLAND,37.56019262,-78.14600904,2019-09-11,23040,0.50 - 1.0 Mile,60,0.74
69 CLINTON ROAD,Cumberland County,CUMBERLAND,37.53964214,-78.14334649,2019-09-11,23040,1.0 - 2.0 Mile,202,1.22
524 DEEP RUN ROAD,Cumberland County,CARTERSVILLE,37.59647339,-78.13109623,2019-09-11,23027,1.0 - 2.0 Mile,348,1.74
320 DEEP RUN ROAD,Cumberland County,CARTERSVILLE,37.58596406,-78.14523272,2019-09-11,23027,1.0 - 2.0 Mile,260,1.42
22 GINGER LANE,Cumberland County,CARTERSVILLE,37.59539212,-78.16365357,2019-09-11,23027,2.0 - 3.0 Mile,586,2.60
217 GINGER LANE,Cumberland County,CARTERSVILLE,37.59319403,-78.16584637,2019-09-11,23027,2.0 - 3.0 Mile,583,2.59
239 MEADOR ROAD,Cumberland County,CUMBERLAND,37.56086867,-78.20777225,2019-09-11,23040,3.0 - 5.0 Mile,1168,4.10
2190 PINE COVE TRA*,Cumberland County,POWHATAN,37.54259178,-78.11203157,2019-09-11,23139,1.0 - 2.0 Mile,150,1.05
51 PINEGROVE ROAD,Cumberland County,CUMBERLAND,37.54725354,-78.12929974,2019-09-11,23040,0.25 - 0.50 Mile,30,0.45
577 DEEP RUN ROAD,Cumberland County,CARTERSVILLE,37.59947631,-78.12381085,2019-09-11,23027,1.0 - 2.0 Mile,396,1.92
163 FOXGLOVE LANE,Cumberland County,CARTERSVILLE,37.60206582,-78.12893592,2019-09-11,23027,2.0 - 3.0 Mile,447,2.10
168 FOXGLOVE LANE,Cumberland County,CARTERSVILLE,37.60272672,-78.12840712,2019-09-11,23027,2.0 - 3.0 Mile,463,2.15
202 MILLER LANE,Cumberland County,CUMBERLAND,37.56655986,-78.11228898,2019-09-11,23040,0.50 - 1.0 Mile,53,0.68
110 TAYLOR ROAD,Cumberland County,CARTERSVILLE,37.61426754,-78.16905164,2019-09-11,23027,3.0 - 5.0 Mile,991,3.77
216 SHERWOOD ROAD,Cumberland County,CARTERSVILLE,37.62094492,-78.09905701,2019-09-11,23027,3.0 - 5.0 Mile,956,3.67
481 PINEGROVE ROAD,Cumberland County,CUMBERLAND,37.58159294,-78.13664029,2019-09-11,23027,0.50 - 1.0 Mile,94,0.90
1295 CARTERSVILLE ROAD,Cumberland County,CARTERSVILLE,37.61349715,-78.15649603,2019-09-11,23027,3.0 - 5.0 Mile,813,3.35
106 LOCUST GRO*,Cumberland County,CARTERSVILLE,37.57724336,-78.14480354,2019-09-11,23027,1.0 - 2.0 Mile,135,1.01
522 DEEP RUN ROAD,Cumberland County,CARTERSVILLE,37.5963823,-78.13216881,2019-09-11,23027,1.0 - 2.0 Mile,349,1.74
118 LILY DRI*,Cumberland County,CUMBERLAND,37.54778873,-78.11033602,2019-09-11,23139,0.50 - 1.0 Mile,90,0.89
120 LILY DRI*,Cumberland County,CUMBERLAND,37.54780474,-78.11024633,2019-09-11,23139,0.50 - 1.0 Mile,93,0.89
24 LILY DRI*,Cumberland County,CUMBERLAND,37.54672897,-78.10967578,2019-09-11,23139,0.50 - 1.0 Mile,118,0.96
32 LILY DRI*,Cumberland County,CUMBERLAND,37.54673073,-78.10959128,2019-09-11,23139,0.50 - 1.0 Mile,121,0.96
22 PONCE TRA*,Cumberland County,CARTERSVILLE,37.62711285,-78.11173042,2019-09-11,23027,3.0 - 5.0 Mile,1041,3.89
221 ANDERSON HIG*,Cumberland County,CUMBERLAND,37.54146897,-78.13058721,2019-09-11,23040,0.50 - 1.0 Mile,79,0.85
77 DEEP RUN ROAD,Cumberland County,CARTERSVILLE,37.57936549,-78.16724141,2019-09-11,23027,2.0 - 3.0 Mile,466,2.18
14 MT AIRY LANE,Cumberland County,CUMBERLAND,37.57241897,-78.20565593,2019-09-11,23040,3.0 - 5.0 Mile,1176,4.12
254 WHITEVILLE ROAD,Cumberland County,CARTERSVILLE,37.61306439,-78.18967167,2019-09-11,23027,3.0 - 5.0 Mile,1366,4.48
151 MARIGOLD LANE,Cumberland County,CUMBERLAND,37.58089929,-78.21473944,2019-09-11,23040,3.0 - 5.0 Mile,1510,4.73
600 DEEP RUN ROAD,Cumberland County,CARTERSVILLE,37.59629494,-78.12295238,2019-09-11,23027,1.0 - 2.0 Mile,337,1.70
60 GINGER LANE,Cumberland County,CARTERSVILLE,37.59504933,-78.16457471,2019-09-11,23027,2.0 - 3.0 Mile,591,2.62
1017 DEEP RUN ROAD,Cumberland County,CARTERSVILLE,37.62825242,-78.11652527,2019-09-11,23027,3.0 - 5.0 Mile,1061,3.93
104 CLINTON HOLLOW LANE,Cumberland County,CUMBERLAND,37.54078166,-78.15811721,2019-09-11,23040,1.0 - 2.0 Mile,346,1.73
1015 DEEP RUN ROAD,Cumberland County,CARTERSVILLE,37.6273533,-78.11650339,2019-09-11,23027,3.0 - 5.0 Mile,1031,3.87
145 JENKINS RIDGE ROAD,Cumberland County,CARTERSVILLE,37.62868095,-78.15937642,2019-09-11,23027,3.0 - 5.0 Mile,1277,4.35
109 JENKINS RIDGE ROAD,Cumberland County,CARTERSVILLE,37.62622838,-78.15763684,2019-09-11,23027,3.0 - 5.0 Mile,1191,4.16
1266 CARTERSVILLE ROAD,Cumberland County,CARTERSVILLE,37.61109629,-78.15804945,2019-09-11,23027,3.0 - 5.0 Mile,770,3.25
136 GAME FARM ROAD,Cumberland County,CUMBERLAND,37.59776656,-78.18263866,2019-09-11,23040,3.0 - 5.0 Mile,872,3.52
84 GAME FARM ROAD,Cumberland County,CUMBERLAND,37.5965417,-78.18211743,2019-09-11,23040,3.0 - 5.0 Mile,843,3.45
88 LOCUST GRO*,Cumberland County,CARTERSVILLE,37.57774136,-78.14736989,2019-09-11,23027,1.0 - 2.0 Mile,180,1.14
448 PINEGROVE ROAD,Cumberland County,CUMBERLAND,37.57789925,-78.13523164,2019-09-11,23027,0.50 - 1.0 Mile,48,0.65
377 PINEGROVE ROAD,Cumberland County,CUMBERLAND,37.57104495,-78.13688491,2019-09-11,23040,0.25 - 0.50 Mile,24,0.42
110 MT AIRY FOREST ROAD,Cumberland County,CUMBERLAND,37.57194947,-78.2003599,2019-09-11,23040,3.0 - 5.0 Mile,1012,3.83
196 MEADOR ROAD,Cumberland County,CUMBERLAND,37.56496905,-78.2024284,2019-09-11,23040,3.0 - 5.0 Mile,1017,3.84
336 CARTERSVILLE ROAD,Cumberland County,CUMBERLAND,37.54070212,-78.19021643,2019-09-11,23040,3.0 - 5.0 Mile,790,3.30
1358 CARTERSVILLE RD,Cumberland County,CARTERSVILLE,37.61716502,-78.1515486,2019-09-11,23027,3.0 - 5.0 Mile,842,3.45
257 DEEP RUN RD,Cumberland County,CARTERSVILLE,37.58372094,-78.15203926,2019-09-11,23027,1.0 - 2.0 Mile,313,1.59
110 ANDERSON HIG*,Cumberland County,CUMBERLAND,37.54551198,-78.12062105,2019-09-11,23139,0.50 - 1.0 Mile,42,0.61
997 DEEP RUN RD,Cumberland County,CARTERSVILLE,37.62599754,-78.11553601,2019-09-11,23027,3.0 - 5.0 Mile,997,3.78
1139 CARTERSVILLE RD,Cumberland County,CARTERSVILLE,37.60594927,-78.16904504,2019-09-11,23027,3.0 - 5.0 Mile,800,3.32
38 BRADLEY RD,Cumberland County,CARTERSVILLE,37.60332857,-78.16029272,2019-09-11,23027,2.0 - 3.0 Mile,662,2.88
44 PINE RIDGE DRI*,Cumberland County,CUMBERLAND,37.55771731,-78.19621046,2019-09-11,23040,3.0 - 5.0 Mile,846,3.45
3 ANDERSON HWY,Cumberland County,CUMBERLAND,37.54680575,-78.10906321,2019-09-11,23139,0.50 - 1.0 Mile,129,0.98
5 ANDERSON HWY,Cumberland County,CUMBERLAND,37.54680352,-78.10909991,2019-09-11,23139,0.50 - 1.0 Mile,128,0.98
101 CLINTON HOLLOW LANE,Cumberland County,CUMBERLAND,37.54051819,-78.15589966,2019-09-11,23040,1.0 - 2.0 Mile,324,1.64
514 CARTERSVILLE ROAD,Cumberland County,CUMBERLAND,37.55367244,-78.18457733,2019-09-11,23040,2.0 - 3.0 Mile,645,2.82
1189 CARTERSVILLE ROAD,Cumberland County,CARTERSVILLE,37.60774748,-78.16489021,2019-09-11,23027,3.0 - 5.0 Mile,777,3.27
31 MEADOR ROAD,Cumberland County,CUMBERLAND,37.55954475,-78.18900901,2019-09-11,23040,3.0 - 5.0 Mile,709,3.06
36 JENKINS RIDGE RD,Cumberland County,CARTERSVILLE,37.62134254,-78.15356909,2019-09-11,23027,3.0 - 5.0 Mile,986,3.76
15 BONBROOK CREEK ROAD,Cumberland County,CUMBERLAND,37.54841968,-78.22360504,2019-09-11,23040,3.0 - 5.0 Mile,1681,4.99
335 DEEP RUN ROAD,Cumberland County,CARTERSVILLE,37.58728,-78.14512211,2019-09-11,23027,1.0 - 2.0 Mile,275,1.49
592 JENKINS CHURCH ROAD,Cumberland County,CUMBERLAND,37.5698364,-78.21783182,2019-09-11,23040,3.0 - 5.0 Mile,1507,4.73
68 RUBY LANE,Cumberland County,CUMBERLAND,37.54875762,-78.14785899,2019-09-11,23040,0.50 - 1.0 Mile,115,0.95
54 PINEGROVE ROAD,Cumberland County,CUMBERLAND,37.54708957,-78.1236086,2019-09-11,23040,0.25 - 0.50 Mile,31,0.46
13 LIBERTY LANE,Cumberland County,CUMBERLAND,37.55148577,-78.12628489,2019-09-11,23040,0.25 Mile,5,0.13
19 LIBERTY LANE,Cumberland County,CUMBERLAND,37.55163028,-78.12709837,2019-09-11,23040,0.25 Mile,4,0.13
30 LIBERTY LANE,Cumberland County,CUMBERLAND,37.5520663,-78.12673906,2019-09-11,23040,0.25 Mile,2,0.09
38 LIBERTY LANE,Cumberland County,CUMBERLAND,37.55234456,-78.1270354,2019-09-11,23040,0.25 Mile,1,0.08
6678 BLENHEIM ROAD,Cumberland County,POWHATAN,37.54342626,-78.11536078,2019-09-11,23139,0.50 - 1.0 Mile,92,0.89
59 CLINTON FARM COU*,Cumberland County,CARTERSVILLE,37.60370552,-78.12815127,2019-09-11,23027,2.0 - 3.0 Mile,479,2.21
355 PINEGROVE ROAD,Cumberland County,CUMBERLAND,37.56895779,-78.13769068,2019-09-11,23040,0.25 - 0.50 Mile,27,0.43
80 MILLER LANE,Cumberland County,CUMBERLAND,37.55820742,-78.11902689,2019-09-11,23040,0.25 Mile,8,0.18
286 BROWN ROAD,Cumberland County,CUMBERLAND,37.56100207,-78.14472983,2019-09-11,23040,0.50 - 1.0 Mile,55,0.69
349 DEEP RUN ROAD,Cumberland County,CARTERSVILLE,37.58845069,-78.14407353,2019-09-11,23027,1.0 - 2.0 Mile,283,1.52
232 SHERWOOD ROAD,Cumberland County,CARTERSVILLE,37.62041547,-78.09955544,2019-09-11,23027,3.0 - 5.0 Mile,933,3.63
61 TAYLOR ROAD,Cumberland County,CARTERSVILLE,37.61099196,-78.16580994,2019-09-11,23027,3.0 - 5.0 Mile,857,3.48
44 BROWN ROAD,Cumberland County,CUMBERLAND,37.55037728,-78.16170599,2019-09-11,23040,1.0 - 2.0 Mile,314,1.61
70 RHODES LANE,Cumberland County,CARTERSVILLE,37.62537001,-78.11222888,2019-09-11,23027,3.0 - 5.0 Mile,992,3.77
6 PONCE TRA*,Cumberland County,CARTERSVILLE,37.62783317,-78.1126014,2019-09-11,23027,3.0 - 5.0 Mile,1062,3.93
542 DEEP RUN ROAD,Cumberland County,CARTERSVILLE,37.59772073,-78.12815116,2019-09-11,23027,1.0 - 2.0 Mile,367,1.80
556 DEEP RUN ROAD,Cumberland County,CARTERSVILLE,37.59626159,-78.12724145,2019-09-11,23027,1.0 - 2.0 Mile,334,1.70
329 MEADOR ROAD,Cumberland County,CUMBERLAND,37.5609534,-78.2156381,2019-09-11,23040,3.0 - 5.0 Mile,1398,4.53
24 PONCE TRA*,Cumberland County,CARTERSVILLE,37.62730832,-78.11054352,2019-09-11,23027,3.0 - 5.0 Mile,1059,3.92
71 CLINTON FARM COU*,Cumberland County,CARTERSVILLE,37.60448848,-78.12796856,2019-09-11,23027,2.0 - 3.0 Mile,496,2.27
47 JENKINS RIDGE ROAD,Cumberland County,CARTERSVILLE,37.62202948,-78.15578756,2019-09-11,23027,3.0 - 5.0 Mile,1020,3.85
2159 OLD TAVERN RD,Powhatan County,POWHATAN,37.53524516,-78.03920583,2019-06-04,23139,3.0 - 5.0 Mile,1551,4.81
2157 OLD TAVERN RD,Powhatan County,POWHATAN,37.53548275,-78.0381591,2019-06-04,23139,3.0 - 5.0 Mile,1580,4.86
2155 OLD TAVERN RD,Powhatan County,POWHATAN,37.5359944,-78.03624522,2019-06-04,23139,3.0 - 5.0 Mile,1636,4.95
2093 OLD TAVERN RD,Powhatan County,POWHATAN,37.5342825,-78.03793044,2019-06-04,23139,3.0 - 5.0 Mile,1596,4.90
5750 MOORE CREEK RD,Powhatan County,POWHATAN,37.51027533,-78.05303497,2019-06-04,23139,3.0 - 5.0 Mile,1645,4.95
5770 MOORE CREEK RD,Powhatan County,POWHATAN,37.50801129,-78.05457643,2019-06-04,23139,3.0 - 5.0 Mile,1680,4.98
1549 COOK RD,Powhatan County,POWHATAN,37.50226403,-78.06100966,2019-06-04,23139,3.0 - 5.0 Mile,1687,4.99
1581 COOK RD,Powhatan County,POWHATAN,37.50452556,-78.06069986,2019-06-04,23139,3.0 - 5.0 Mile,1593,4.89
1567 COOK RD,Powhatan County,POWHATAN,37.50208096,-78.06184658,2019-06-04,23139,3.0 - 5.0 Mile,1669,4.97
1565 COOK RD,Powhatan County,POWHATAN,37.50211129,-78.06230477,2019-06-04,23139,3.0 - 5.0 Mile,1641,4.95
1555 COOK RD,Powhatan County,POWHATAN,37.50333598,-78.06431989,2019-06-04,23139,3.0 - 5.0 Mile,1553,4.81
1503 COOK RD,Powhatan County,POWHATAN,37.50173608,-78.06541665,2019-06-04,23139,3.0 - 5.0 Mile,1576,4.85
1517 COOK RD,Powhatan County,POWHATAN,37.50236126,-78.0679835,2019-06-04,23139,3.0 - 5.0 Mile,1506,4.73
1529 COOK RD,Powhatan County,POWHATAN,37.50432399,-78.06819692,2019-06-04,23139,3.0 - 5.0 Mile,1453,4.62
1515 COOK RD,Powhatan County,POWHATAN,37.50062812,-78.06398506,2019-06-04,23139,3.0 - 5.0 Mile,1661,4.96
5900 OLD BUCKINGHAM RD,Powhatan County,POWHATAN,37.49980345,-78.06559858,2019-06-04,23139,3.0 - 5.0 Mile,1633,4.95
5912 OLD BUCKINGHAM RD,Powhatan County,POWHATAN,37.4999956,-78.06723316,2019-06-04,23139,3.0 - 5.0 Mile,1585,4.88
1506 BALLSVILLE RD,Powhatan County,POWHATAN,37.49967814,-78.06853815,2019-06-04,23139,3.0 - 5.0 Mile,1575,4.85
5926 OLD BUCKINGHAM RD,Powhatan County,POWHATAN,37.49873276,-78.06848066,2019-06-04,23139,3.0 - 5.0 Mile,1598,4.90
5920 OLD BUCKINGHAM RD,Powhatan County,POWHATAN,37.49891739,-78.06760595,2019-06-04,23139,3.0 - 5.0 Mile,1617,4.92
1502 BALLSVILLE RD,Powhatan County,POWHATAN,37.49904471,-78.06799551,2019-06-04,23139,3.0 - 5.0 Mile,1599,4.90
1508 BALLSVILLE RD,Powhatan County,POWHATAN,37.50015941,-78.0689578,2019-06-04,23139,3.0 - 5.0 Mile,1550,4.81
5903 OLD BUCKINGHAM RD LOT B,Powhatan County,POWHATAN,37.4990147,-78.06529757,2019-06-04,23139,3.0 - 5.0 Mile,1690,5.00
5905 OLD BUCKINGHAM RD,Powhatan County,POWHATAN,37.49910365,-78.06612388,2019-06-04,23139,3.0 - 5.0 Mile,1665,4.96
5909 OLD BUCKINGHAM RD,Powhatan County,POWHATAN,37.49906188,-78.06644766,2019-06-04,23139,3.0 - 5.0 Mile,1651,4.95
5911 OLD BUCKINGHAM RD,Powhatan County,POWHATAN,37.49904887,-78.06680722,2019-06-04,23139,3.0 - 5.0 Mile,1629,4.94
5913 OLD BUCKINGHAM RD,Powhatan County,POWHATAN,37.49890622,-78.06696083,2019-06-04,23139,3.0 - 5.0 Mile,1631,4.94
1512 BALLSVILLE RD,Powhatan County,POWHATAN,37.50104401,-78.07002224,2019-06-04,23139,3.0 - 5.0 Mile,1503,4.72
1606 COOK RD,Powhatan County,POWHATAN,37.50650698,-78.06015799,2019-06-04,23139,3.0 - 5.0 Mile,1563,4.82
1616 COOK RD,Powhatan County,POWHATAN,37.50702238,-78.06011902,2019-06-04,23139,3.0 - 5.0 Mile,1542,4.80
1595 COOK RD,Powhatan County,POWHATAN,37.50738499,-78.06135728,2019-06-04,23139,3.0 - 5.0 Mile,1509,4.73
1601 COOK RD,Powhatan County,POWHATAN,37.5082656,-78.06132518,2019-06-04,23139,3.0 - 5.0 Mile,1491,4.69
1628 COOK RD,Powhatan County,POWHATAN,37.50775383,-78.06041136,2019-06-04,23139,3.0 - 5.0 Mile,1523,4.75
1605 COOK RD,Powhatan County,POWHATAN,37.50881657,-78.06122309,2019-06-04,23139,3.0 - 5.0 Mile,1482,4.67
1650 COOK RD,Powhatan County,POWHATAN,37.50905645,-78.06025993,2019-06-04,23139,3.0 - 5.0 Mile,1495,4.70
1685 COOK RD,Powhatan County,POWHATAN,37.51017868,-78.06166457,2019-06-04,23139,3.0 - 5.0 Mile,1439,4.59
1695 COOK RD,Powhatan County,POWHATAN,37.51072106,-78.06117602,2019-06-04,23139,3.0 - 5.0 Mile,1435,4.59
1666 COOK RD,Powhatan County,POWHATAN,37.51015956,-78.06037033,2019-06-04,23139,3.0 - 5.0 Mile,1465,4.65
1750 COOK RD,Powhatan County,POWHATAN,37.51391109,-78.05830789,2019-06-04,23139,3.0 - 5.0 Mile,1422,4.57
1725 COOK RD,Powhatan County,POWHATAN,37.51397361,-78.0655347,2019-06-04,23139,3.0 - 5.0 Mile,1245,4.26
1760 COOK RD,Powhatan County,POWHATAN,37.51466365,-78.05850123,2019-06-04,23139,3.0 - 5.0 Mile,1406,4.53
1766 COOK RD,Powhatan County,POWHATAN,37.51528444,-78.05792228,2019-06-04,23139,3.0 - 5.0 Mile,1405,4.53
1775 COOK RD,Powhatan County,POWHATAN,37.51635162,-78.05799691,2019-06-04,23139,3.0 - 5.0 Mile,1371,4.48
1772 COOK RD,Powhatan County,POWHATAN,37.51578613,-78.05613047,2019-06-04,23139,3.0 - 5.0 Mile,1438,4.59
1777 COOK RD,Powhatan County,POWHATAN,37.51686457,-78.05725855,2019-06-04,23139,3.0 - 5.0 Mile,1379,4.50
1805 NICHOLS RD,Powhatan County,POWHATAN,37.51646578,-78.05981208,2019-06-04,23139,3.0 - 5.0 Mile,1310,4.40
1802 NICHOLS RD,Powhatan County,POWHATAN,37.51626195,-78.05891434,2019-06-04,23139,3.0 - 5.0 Mile,1345,4.45
1804 NICHOLS RD,Powhatan County,POWHATAN,37.51666938,-78.05872317,2019-06-04,23139,3.0 - 5.0 Mile,1338,4.44
1811 NICHOLS RD,Powhatan County,POWHATAN,37.51795,-78.06229348,2019-06-04,23139,3.0 - 5.0 Mile,1226,4.23
1806 NICHOLS RD,Powhatan County,POWHATAN,37.51711489,-78.05914306,2019-06-04,23139,3.0 - 5.0 Mile,1315,4.40
1808 NICHOLS RD,Powhatan County,POWHATAN,37.51771721,-78.05937326,2019-06-04,23139,3.0 - 5.0 Mile,1290,4.37
1810 NICHOLS RD LOT A,Powhatan County,POWHATAN,37.51702501,-78.05808284,2019-06-04,23139,3.0 - 5.0 Mile,1348,4.45
1812 NICHOLS RD,Powhatan County,POWHATAN,37.51782097,-78.05839279,2019-06-04,23139,3.0 - 5.0 Mile,1319,4.41
1820 NICHOLS RD,Powhatan County,POWHATAN,37.51838053,-78.05750838,2019-06-04,23139,3.0 - 5.0 Mile,1329,4.42
1792 COOK RD,Powhatan County,POWHATAN,37.51768191,-78.05376403,2019-06-04,23139,3.0 - 5.0 Mile,1457,4.62
1810 COOK RD,Powhatan County,POWHATAN,37.5185426,-78.05380545,2019-06-04,23139,3.0 - 5.0 Mile,1437,4.59
1855 COOK RD,Powhatan County,POWHATAN,37.52042964,-78.05517711,2019-06-04,23139,3.0 - 5.0 Mile,1349,4.46
1885 COOK RD,Powhatan County,POWHATAN,37.52168685,-78.05628442,2019-06-04,23139,3.0 - 5.0 Mile,1282,4.36
1850 COOK RD,Powhatan County,POWHATAN,37.51894552,-78.05160087,2019-06-04,23139,3.0 - 5.0 Mile,1486,4.68
1880 COOK RD,Powhatan County,POWHATAN,37.51993475,-78.05116162,2019-06-04,23139,3.0 - 5.0 Mile,1473,4.66
1888 COOK RD,Powhatan County,POWHATAN,37.52076602,-78.05133646,2019-06-04,23139,3.0 - 5.0 Mile,1460,4.62
1896 COOK RD,Powhatan County,POWHATAN,37.52147096,-78.05029841,2019-06-04,23139,3.0 - 5.0 Mile,1468,4.65
1915 COOK RD,Powhatan County,POWHATAN,37.52249635,-78.05257575,2019-06-04,23139,3.0 - 5.0 Mile,1385,4.50
1931 COOK RD,Powhatan County,POWHATAN,37.52348422,-78.05250694,2019-06-04,23139,3.0 - 5.0 Mile,1363,4.47
1935 COOK RD,Powhatan County,POWHATAN,37.52377253,-78.05300867,2019-06-04,23139,3.0 - 5.0 Mile,1339,4.44
1920 COOK RD,Powhatan County,POWHATAN,37.522991,-78.05083771,2019-06-04,23139,3.0 - 5.0 Mile,1423,4.57
1932 COOK RD,Powhatan County,POWHATAN,37.52354282,-78.05096028,2019-06-04,23139,3.0 - 5.0 Mile,1416,4.55
1956 COOK RD,Powhatan County,POWHATAN,37.52361544,-78.04934161,2019-06-04,23139,3.0 - 5.0 Mile,1458,4.62
1970 COOK RD,Powhatan County,POWHATAN,37.52476134,-78.05129463,2019-06-04,23139,3.0 - 5.0 Mile,1375,4.49
1949 COOK RD,Powhatan County,POWHATAN,37.52470769,-78.05415387,2019-06-04,23139,3.0 - 5.0 Mile,1280,4.35
1967 COOK RD,Powhatan County,POWHATAN,37.52560189,-78.05652401,2019-06-04,23139,3.0 - 5.0 Mile,1222,4.21
1977 COOK RD,Powhatan County,POWHATAN,37.52545673,-78.05225593,2019-06-04,23139,3.0 - 5.0 Mile,1327,4.42
1984 COOK RD,Powhatan County,POWHATAN,37.52522703,-78.05136378,2019-06-04,23139,3.0 - 5.0 Mile,1362,4.47
1986 COOK RD,Powhatan County,POWHATAN,37.52508734,-78.05040264,2019-06-04,23139,3.0 - 5.0 Mile,1395,4.52
1988 COOK RD,Powhatan County,POWHATAN,37.5247584,-78.04863351,2019-06-04,23139,3.0 - 5.0 Mile,1455,4.62
1992 COOK RD,Powhatan County,POWHATAN,37.52599085,-78.05074787,2019-06-04,23139,3.0 - 5.0 Mile,1365,4.48
1996 COOK RD,Powhatan County,POWHATAN,37.52582232,-78.04785395,2019-06-04,23139,3.0 - 5.0 Mile,1461,4.62
2000 COOK RD,Powhatan County,POWHATAN,37.52622843,-78.04920008,2019-06-04,23139,3.0 - 5.0 Mile,1414,4.55
5711 BEAVER VIEW TRL,Powhatan County,POWHATAN,37.52651624,-78.05335198,2019-06-04,23139,3.0 - 5.0 Mile,1269,4.33
5710 BEAVER VIEW TRL,Powhatan County,POWHATAN,37.5273604,-78.05314917,2019-06-04,23139,3.0 - 5.0 Mile,1266,4.32
5716 BEAVER VIEW TRL,Powhatan County,POWHATAN,37.52830596,-78.05515748,2019-06-04,23139,3.0 - 5.0 Mile,1208,4.19
2004 COOK RD,Powhatan County,POWHATAN,37.52650598,-78.0506369,2019-06-04,23139,3.0 - 5.0 Mile,1358,4.47
2006 COOK RD,Powhatan County,POWHATAN,37.52712533,-78.04968919,2019-06-04,23139,3.0 - 5.0 Mile,1378,4.49
2013 COOK RD,Powhatan County,POWHATAN,37.52815773,-78.0512761,2019-06-04,23139,3.0 - 5.0 Mile,1295,4.38
2016 COOK RD,Powhatan County,POWHATAN,37.52838631,-78.04988842,2019-06-04,23139,3.0 - 5.0 Mile,1342,4.44
5717 BEAVER VIEW TRL,Powhatan County,POWHATAN,37.52695894,-78.0568377,2019-06-04,23139,3.0 - 5.0 Mile,1189,4.15
5723 BEAVER VIEW TRL,Powhatan County,POWHATAN,37.52831107,-78.05843907,2019-06-04,23139,3.0 - 5.0 Mile,1122,4.03
5720 BEAVER VIEW TRL,Powhatan County,POWHATAN,37.52946857,-78.05777594,2019-06-04,23139,3.0 - 5.0 Mile,1120,4.02
2045 STEM CREEK TRL,Powhatan County,POWHATAN,37.52904552,-78.05189842,2019-06-04,23139,3.0 - 5.0 Mile,1267,4.33
2028 COOK RD,Powhatan County,POWHATAN,37.53008304,-78.04981533,2019-06-04,23139,3.0 - 5.0 Mile,1308,4.40
2055 STEM CREEK TRL,Powhatan County,POWHATAN,37.53061082,-78.05304893,2019-06-04,23139,3.0 - 5.0 Mile,1225,4.22
2050 STEM CREEK TRL,Powhatan County,POWHATAN,37.53154232,-78.05132609,2019-06-04,23139,3.0 - 5.0 Mile,1254,4.28
2060 STEM CREEK TRL,Powhatan County,POWHATAN,37.53309577,-78.0512359,2019-06-04,23139,3.0 - 5.0 Mile,1239,4.24
2075 STEM CREEK TRL,Powhatan County,POWHATAN,37.53491164,-78.05427319,2019-06-04,23139,3.0 - 5.0 Mile,1128,4.04
2085 STEM CREEK TRL,Powhatan County,POWHATAN,37.5357946,-78.05487039,2019-06-04,23139,3.0 - 5.0 Mile,1085,3.99
5927 OLD BUCKINGHAM RD,Powhatan County,POWHATAN,37.49820039,-78.06758979,2019-06-04,23139,3.0 - 5.0 Mile,1658,4.96
5950 OLD BUCKINGHAM RD,Powhatan County,POWHATAN,37.49800466,-78.069919,2019-06-04,23139,3.0 - 5.0 Mile,1592,4.89
1509 BALLSVILLE RD,Powhatan County,POWHATAN,37.50044217,-78.07260344,2019-06-04,23139,3.0 - 5.0 Mile,1479,4.67
5966 OLD BUCKINGHAM RD,Powhatan County,POWHATAN,37.4974495,-78.0716878,2019-06-04,23139,3.0 - 5.0 Mile,1581,4.86
5953 OLD BUCKINGHAM RD,Powhatan County,POWHATAN,37.49728048,-78.06887658,2019-06-04,23139,3.0 - 5.0 Mile,1667,4.97
5963 OLD BUCKINGHAM RD,Powhatan County,POWHATAN,37.49689787,-78.0697331,2019-06-04,23139,3.0 - 5.0 Mile,1652,4.96
5970 OLD BUCKINGHAM RD,Powhatan County,POWHATAN,37.49667171,-78.0715,2019-06-04,23139,3.0 - 5.0 Mile,1610,4.91
5993 OLD BUCKINGHAM RD,Powhatan County,POWHATAN,37.49493242,-78.07209369,2019-06-04,23139,3.0 - 5.0 Mile,1684,4.99
5997 OLD BUCKINGHAM RD,Powhatan County,POWHATAN,37.49470071,-78.07232994,2019-06-04,23139,3.0 - 5.0 Mile,1689,5.00
6000 OLD BUCKINGHAM RD,Powhatan County,POWHATAN,37.49468857,-78.07368266,2019-06-04,23139,3.0 - 5.0 Mile,1647,4.95
6010 OLD BUCKINGHAM RD,Powhatan County,POWHATAN,37.49498103,-78.07456378,2019-06-04,23139,3.0 - 5.0 Mile,1608,4.91
6016 OLD BUCKINGHAM RD,Powhatan County,POWHATAN,37.49382704,-78.07545308,2019-06-04,23139,3.0 - 5.0 Mile,1635,4.95
6190 OLD BUCKINGHAM RD,Powhatan County,POWHATAN,37.48890567,-78.08571035,2019-06-04,23139,3.0 - 5.0 Mile,1664,4.96
6200 OLD BUCKINGHAM RD,Powhatan County,POWHATAN,37.48876965,-78.08736974,2019-06-04,23139,3.0 - 5.0 Mile,1624,4.93
1533 BALLSVILLE RD,Powhatan County,POWHATAN,37.50258441,-78.07325927,2019-06-04,23139,3.0 - 5.0 Mile,1403,4.53
1541 BALLSVILLE RD,Powhatan County,POWHATAN,37.50313152,-78.07391318,2019-06-04,23139,3.0 - 5.0 Mile,1364,4.48
1543 BALLSVILLE RD,Powhatan County,POWHATAN,37.50266244,-78.07487828,2019-06-04,23139,3.0 - 5.0 Mile,1361,4.47
1566 BALLSVILLE RD,Powhatan County,POWHATAN,37.50457763,-78.07439741,2019-06-04,23139,3.0 - 5.0 Mile,1297,4.38
1560 BALLSVILLE RD,Powhatan County,POWHATAN,37.50503323,-78.07348412,2019-06-04,23139,3.0 - 5.0 Mile,1303,4.39
1569 BALLSVILLE RD,Powhatan County,POWHATAN,37.50414452,-78.07575961,2019-06-04,23139,3.0 - 5.0 Mile,1286,4.36
1612 BALLSVILLE RD,Powhatan County,POWHATAN,37.5076901,-78.07805634,2019-06-04,23139,3.0 - 5.0 Mile,1163,4.09
1660 BALLSVILLE RD,Powhatan County,POWHATAN,37.50983703,-78.0781786,2019-06-04,23139,3.0 - 5.0 Mile,1079,3.97
1700 BALLSVILLE RD,Powhatan County,POWHATAN,37.51207509,-78.07948397,2019-06-04,23139,3.0 - 5.0 Mile,1005,3.81
1730 BALLSVILLE RD,Powhatan County,POWHATAN,37.51359486,-78.08000433,2019-06-04,23139,3.0 - 5.0 Mile,965,3.71
1749 BALLSVILLE RD,Powhatan County,POWHATAN,37.51565976,-78.08151226,2019-06-04,23139,3.0 - 5.0 Mile,881,3.55
6177 BLENHEIM RD,Powhatan County,POWHATAN,37.51393737,-78.08421651,2019-06-04,23139,3.0 - 5.0 Mile,877,3.54
6285 BLENHEIM RD,Powhatan County,POWHATAN,37.51812853,-78.0953672,2019-06-04,23139,2.0 - 3.0 Mile,682,2.95
6280 BLENHEIM RD,Powhatan County,POWHATAN,37.52000271,-78.09395511,2019-06-04,23139,2.0 - 3.0 Mile,665,2.89
1744 BALLSVILLE RD,Powhatan County,POWHATAN,37.51739119,-78.07855448,2019-06-04,23139,3.0 - 5.0 Mile,890,3.57
1855 BALLSVILLE RD,Powhatan County,POWHATAN,37.51879239,-78.08301136,2019-06-04,23139,3.0 - 5.0 Mile,805,3.33
1840 BALLSVILLE RD,Powhatan County,POWHATAN,37.51930928,-78.07945219,2019-06-04,23139,3.0 - 5.0 Mile,840,3.44
1871 BALLSVILLE RD,Powhatan County,POWHATAN,37.51967013,-78.08167703,2019-06-04,23139,3.0 - 5.0 Mile,808,3.34
1865 BALLSVILLE RD,Powhatan County,POWHATAN,37.52037212,-78.083058,2019-06-04,23139,3.0 - 5.0 Mile,772,3.25
1845 BALLSVILLE RD,Powhatan County,POWHATAN,37.51969172,-78.08531078,2019-06-04,23139,3.0 - 5.0 Mile,759,3.20
6170 INDIAN CREEK TRL,Powhatan County,POWHATAN,37.52039773,-78.08785505,2019-06-04,23139,3.0 - 5.0 Mile,712,3.07
6160 INDIAN CREEK TRL,Powhatan County,POWHATAN,37.52164327,-78.08569887,2019-06-04,23139,3.0 - 5.0 Mile,717,3.09
1880 BALLSVILLE RD,Powhatan County,POWHATAN,37.52142399,-78.07856511,2019-06-04,23139,3.0 - 5.0 Mile,820,3.38
1870 BALLSVILLE RD,Powhatan County,POWHATAN,37.51993714,-78.07734368,2019-06-04,23139,3.0 - 5.0 Mile,868,3.50
1876 BALLSVILLE RD,Powhatan County,POWHATAN,37.52199444,-78.07521599,2019-06-04,23139,3.0 - 5.0 Mile,865,3.50
2055 BALLSVILLE RD,Powhatan County,POWHATAN,37.53021327,-78.08361284,2019-06-04,23139,2.0 - 3.0 Mile,635,2.78
2101 BALLSVILLE RD,Powhatan County,POWHATAN,37.53446506,-78.08316821,2019-06-04,23139,2.0 - 3.0 Mile,598,2.64
2120 BALLSVILLE RD,Powhatan County,POWHATAN,37.53503442,-78.08196829,2019-06-04,23139,2.0 - 3.0 Mile,601,2.67
2135 BALLSVILLE RD,Powhatan County,POWHATAN,37.53537046,-78.08720783,2019-06-04,23139,2.0 - 3.0 Mile,541,2.42
1886 NICHOLS RD,Powhatan County,POWHATAN,37.52519903,-78.06128243,2019-06-04,23139,3.0 - 5.0 Mile,1095,4.00
1880 NICHOLS RD,Powhatan County,POWHATAN,37.52389069,-78.06320394,2019-06-04,23139,3.0 - 5.0 Mile,1070,3.95
1854 NICHOLS RD,Powhatan County,POWHATAN,37.52333128,-78.06154142,2019-06-04,23139,3.0 - 5.0 Mile,1136,4.05
1877 NICHOLS RD,Powhatan County,POWHATAN,37.52258586,-78.06455121,2019-06-04,23139,3.0 - 5.0 Mile,1065,3.94
1865 NICHOLS RD,Powhatan County,POWHATAN,37.52186086,-78.06339924,2019-06-04,23139,3.0 - 5.0 Mile,1116,4.02
1852 NICHOLS RD,Powhatan County,POWHATAN,37.52217115,-78.06180967,2019-06-04,23139,3.0 - 5.0 Mile,1158,4.08
1835 NICHOLS RD,Powhatan County,POWHATAN,37.52015205,-78.06083619,2019-06-04,23139,3.0 - 5.0 Mile,1218,4.20
1850 NICHOLS RD,Powhatan County,POWHATAN,37.52075911,-78.06011675,2019-06-04,23139,3.0 - 5.0 Mile,1224,4.21
1762 COOK RD,Powhatan County,POWHATAN,37.51436357,-78.05747347,2019-06-04,23139,3.0 - 5.0 Mile,1436,4.59
1803 COOK RD,Powhatan County,POWHATAN,37.5192898,-78.05631198,2019-06-04,23139,3.0 - 5.0 Mile,1343,4.44
1800 NICHOLS RD,Powhatan County,POWHATAN,37.51541414,-78.05872442,2019-06-04,23139,3.0 - 5.0 Mile,1373,4.49
1610 COOK RD,Powhatan County,POWHATAN,37.50723601,-78.05732722,2019-06-04,23139,3.0 - 5.0 Mile,1603,4.90
1500 BALLSVILLE RD,Powhatan County,POWHATAN,37.49904471,-78.06799551,2019-06-04,23139,3.0 - 5.0 Mile,1599,4.90
1510 BALLSVILLE RD,Powhatan County,POWHATAN,37.50033321,-78.06954929,2019-06-04,23139,3.0 - 5.0 Mile,1537,4.78
6256 OLD BUCKINGHAM RD,Powhatan County,POWHATAN,37.48905657,-78.09110731,2019-06-04,23139,3.0 - 5.0 Mile,1567,4.83
1828 NICHOLS RD,Powhatan County,POWHATAN,37.51818263,-78.05955203,2019-06-04,23139,3.0 - 5.0 Mile,1271,4.34
6071 WILLANNA WAY,Powhatan County,POWHATAN,37.50453264,-78.07651008,2019-06-04,23139,3.0 - 5.0 Mile,1265,4.31
6070 WILLANNA WAY,Powhatan County,POWHATAN,37.50350789,-78.07628003,2019-06-04,23139,3.0 - 5.0 Mile,1294,4.38
5984 OLD BUCKINGHAM RD,Powhatan County,POWHATAN,37.4961285,-78.07199083,2019-06-04,23139,3.0 - 5.0 Mile,1620,4.93
1590 COOK RD,Powhatan County,POWHATAN,37.50572216,-78.05927064,2019-06-04,23139,3.0 - 5.0 Mile,1594,4.89
1888 BALLSVILLE RD,Powhatan County,POWHATAN,37.5216649,-78.07900995,2019-06-04,23139,3.0 - 5.0 Mile,814,3.35
6309 WALNUT TREE DR,Powhatan County,POWHATAN,37.53628969,-78.09321975,2019-06-04,23139,2.0 - 3.0 Mile,450,2.11
2003 WALNUT TREE CT,Powhatan County,POWHATAN,37.53451817,-78.09334852,2019-06-04,23139,2.0 - 3.0 Mile,468,2.18
1875 BALLSVILLE RD,Powhatan County,POWHATAN,37.52026043,-78.08005717,2019-06-04,23139,3.0 - 5.0 Mile,819,3.38
1998 COOK RD,Powhatan County,POWHATAN,37.52644246,-78.04843001,2019-06-04,23139,3.0 - 5.0 Mile,1428,4.58
2008 COOK RD,Powhatan County,POWHATAN,37.52743213,-78.05038164,2019-06-04,23139,3.0 - 5.0 Mile,1346,4.45
5695 KIDD CIR,Powhatan County,POWHATAN,37.53160787,-78.0555651,2019-06-04,23139,3.0 - 5.0 Mile,1146,4.07
1680 BALLSVILLE RD,Powhatan County,POWHATAN,37.51195516,-78.07783135,2019-06-04,23139,3.0 - 5.0 Mile,1033,3.87
1537 BALLSVILLE RD,Powhatan County,POWHATAN,37.50207278,-78.0744458,2019-06-04,23139,3.0 - 5.0 Mile,1391,4.52
1829 NICHOLS RD,Powhatan County,POWHATAN,37.51919495,-78.06099019,2019-06-04,23139,3.0 - 5.0 Mile,1235,4.24
2006 WALNUT TREE CT,Powhatan County,POWHATAN,37.53455125,-78.09442481,2019-06-04,23139,2.0 - 3.0 Mile,457,2.13
2007 WALNUT TREE CT,Powhatan County,POWHATAN,37.5341017,-78.09387337,2019-06-04,23139,2.0 - 3.0 Mile,465,2.17
2010 WALNUT TREE CT,Powhatan County,POWHATAN,37.53410427,-78.09490522,2019-06-04,23139,2.0 - 3.0 Mile,456,2.13
2011 WALNUT TREE CT,Powhatan County,POWHATAN,37.53334711,-78.0943002,2019-06-04,23139,2.0 - 3.0 Mile,472,2.19
6240 OLD BUCKINGHAM RD,Powhatan County,POWHATAN,37.48854334,-78.09034151,2019-06-04,23139,3.0 - 5.0 Mile,1587,4.88
1850B NICHOLS RD B,Powhatan County,POWHATAN,37.52156368,-78.06065154,2019-06-04,23139,3.0 - 5.0 Mile,1195,4.16
1849 NICHOLS RD,Powhatan County,POWHATAN,37.52157009,-78.06288566,2019-06-04,23139,3.0 - 5.0 Mile,1139,4.06
6312 WALNUT TREE DR,Powhatan County,POWHATAN,37.53637708,-78.09461888,2019-06-04,23139,2.0 - 3.0 Mile,433,2.04
2002 WALNUT TREE CT,Powhatan County,POWHATAN,37.53539813,-78.09383339,2019-06-04,23139,2.0 - 3.0 Mile,453,2.12
2014 WALNUT TREE PL,Powhatan County,POWHATAN,37.53118298,-78.09282025,2019-06-04,23139,2.0 - 3.0 Mile,520,2.35
2070 STEM CREEK TRL,Powhatan County,POWHATAN,37.53433054,-78.05146237,2019-06-04,23139,3.0 - 5.0 Mile,1215,4.20
6150 INDIAN CREEK TRL,Powhatan County,POWHATAN,37.5235571,-78.08572215,2019-06-04,23139,2.0 - 3.0 Mile,693,2.99
6305 WALNUT TREE DR,Powhatan County,POWHATAN,37.53500301,-78.09201665,2019-06-04,23139,2.0 - 3.0 Mile,480,2.22
6301 WALNUT TREE DR,Powhatan County,POWHATAN,37.53435396,-78.09150379,2019-06-04,23139,2.0 - 3.0 Mile,495,2.27
2024 WALNUT TREE PL,Powhatan County,POWHATAN,37.53323814,-78.09179117,2019-06-04,23139,2.0 - 3.0 Mile,506,2.30
2023 WALNUT TREE PL,Powhatan County,POWHATAN,37.53273411,-78.09133925,2019-06-04,23139,2.0 - 3.0 Mile,515,2.34
2022 WALNUT TREE PL,Powhatan County,POWHATAN,37.53252014,-78.09243819,2019-06-04,23139,2.0 - 3.0 Mile,507,2.30
2019 WALNUT TREE PL,Powhatan County,POWHATAN,37.53187128,-78.09175995,2019-06-04,23139,2.0 - 3.0 Mile,524,2.36
1659 BALLSVILLE RD,Powhatan County,POWHATAN,37.50880128,-78.07930394,2019-06-04,23139,3.0 - 5.0 Mile,1086,3.99
1575 BALLSVILLE RD,Powhatan County,POWHATAN,37.50105648,-78.07898372,2019-06-04,23139,3.0 - 5.0 Mile,1331,4.43
1524 BALLSVILLE RD,Powhatan County,POWHATAN,37.5027257,-78.07087437,2019-06-04,23139,3.0 - 5.0 Mile,1443,4.60
1785 COOK RD,Powhatan County,POWHATAN,37.51750216,-78.05679784,2019-06-04,23139,3.0 - 5.0 Mile,1376,4.49
1832 NICHOLS RD,Powhatan County,POWHATAN,37.51919304,-78.06002006,2019-06-04,23139,3.0 - 5.0 Mile,1253,4.28
1839 NICHOLS RD,Powhatan County,POWHATAN,37.52080897,-78.06138448,2019-06-04,23139,3.0 - 5.0 Mile,1190,4.15
6281 WALNUT TREE DR,Powhatan County,POWHATAN,37.53303464,-78.09061645,2019-06-04,23139,2.0 - 3.0 Mile,521,2.36
2110 WALNUT TREE TER,Powhatan County,POWHATAN,37.53294003,-78.09003555,2019-06-04,23139,2.0 - 3.0 Mile,533,2.39
2125 WALNUT TREE TER,Powhatan County,POWHATAN,37.53282291,-78.08889921,2019-06-04,23139,2.0 - 3.0 Mile,547,2.44
2115 WALNUT TREE TER,Powhatan County,POWHATAN,37.53239332,-78.08963801,2019-06-04,23139,2.0 - 3.0 Mile,545,2.43
6221 WALNUT TREE DR,Powhatan County,POWHATAN,37.53201218,-78.08951089,2019-06-04,23139,2.0 - 3.0 Mile,552,2.45
6185 WALNUT TREE DR,Powhatan County,POWHATAN,37.53109242,-78.08835312,2019-06-04,23139,2.0 - 3.0 Mile,572,2.54
6175 WALNUT TREE DR,Powhatan County,POWHATAN,37.53030928,-78.08802149,2019-06-04,23139,2.0 - 3.0 Mile,582,2.59
6165 WALNUT TREE DR,Powhatan County,POWHATAN,37.52963937,-78.08770217,2019-06-04,23139,2.0 - 3.0 Mile,594,2.63
6155 WALNUT TREE DR,Powhatan County,POWHATAN,37.52917744,-78.08801477,2019-06-04,23139,2.0 - 3.0 Mile,599,2.64
6160 WALNUT TREE DR,Powhatan County,POWHATAN,37.52931394,-78.08880212,2019-06-04,23139,2.0 - 3.0 Mile,585,2.60
6170 WALNUT TREE DR,Powhatan County,POWHATAN,37.52990131,-78.0890573,2019-06-04,23139,2.0 - 3.0 Mile,578,2.56
6190 WALNUT TREE DR,Powhatan County,POWHATAN,37.53077588,-78.08905252,2019-06-04,23139,2.0 - 3.0 Mile,566,2.52
1985 WALNUT TREE RD,Powhatan County,POWHATAN,37.5307983,-78.08958212,2019-06-04,23139,2.0 - 3.0 Mile,563,2.50
1965 WALNUT TREE RD,Powhatan County,POWHATAN,37.52915483,-78.0903921,2019-06-04,23139,2.0 - 3.0 Mile,573,2.54
1960 WALNUT TREE RD,Powhatan County,POWHATAN,37.52936404,-78.09138577,2019-06-04,23139,2.0 - 3.0 Mile,562,2.49
1970 WALNUT TREE RD,Powhatan County,POWHATAN,37.53017648,-78.09126508,2019-06-04,23139,2.0 - 3.0 Mile,555,2.46
1980 WALNUT TREE RD,Powhatan County,POWHATAN,37.53081279,-78.09079651,2019-06-04,23139,2.0 - 3.0 Mile,549,2.45
1990 WALNUT TREE RD,Powhatan County,POWHATAN,37.53122194,-78.0900966,2019-06-04,23139,2.0 - 3.0 Mile,556,2.46
6220 WALNUT TREE DR,Powhatan County,POWHATAN,37.5316025,-78.09005577,2019-06-04,23139,2.0 - 3.0 Mile,548,2.45
2120 WALNUT TREE TER,Powhatan County,POWHATAN,37.53334452,-78.08925411,2019-06-04,23139,2.0 - 3.0 Mile,537,2.41
1640 BALLSVILLE RD,Powhatan County,POWHATAN,37.51042173,-78.07779356,2019-06-04,23139,3.0 - 5.0 Mile,1068,3.95
1630 BALLSVILLE RD,Powhatan County,POWHATAN,37.51021015,-78.07631684,2019-06-04,23139,3.0 - 5.0 Mile,1112,4.02
1626 BALLSVILLE RD,Powhatan County,POWHATAN,37.50885211,-78.07787958,2019-06-04,23139,3.0 - 5.0 Mile,1127,4.03
5964 OLD BUCKINGHAM RD,Powhatan County,POWHATAN,37.49742963,-78.07070888,2019-06-04,23139,3.0 - 5.0 Mile,1595,4.90
1565 BALLSVILLE RD,Powhatan County,POWHATAN,37.50360408,-78.07519114,2019-06-04,23139,3.0 - 5.0 Mile,1320,4.41
2018 WALNUT TREE PL,Powhatan County,POWHATAN,37.53204589,-78.09346192,2019-06-04,23139,2.0 - 3.0 Mile,500,2.28
1850H NICHOLS RD,Powhatan County,POWHATAN,37.52204083,-78.06090627,2019-06-04,23139,3.0 - 5.0 Mile,1182,4.13
6109 AUTUMN BLUFF RD,Powhatan County,POWHATAN,37.5669951,-78.08049595,2019-06-04,23139,2.0 - 3.0 Mile,530,2.37
6107 AUTUMN BLUFF RD,Powhatan County,POWHATAN,37.56631115,-78.08047628,2019-06-04,23139,2.0 - 3.0 Mile,522,2.36
2648 POPLAR FOREST DR,Powhatan County,POWHATAN,37.56631163,-78.08192017,2019-06-04,23139,2.0 - 3.0 Mile,501,2.28
2658 POPLAR FOREST DR,Powhatan County,POWHATAN,37.56729521,-78.08307565,2019-06-04,23139,2.0 - 3.0 Mile,488,2.24
2668 POPLAR FOREST DR,Powhatan County,POWHATAN,37.56872005,-78.08300401,2019-06-04,23139,2.0 - 3.0 Mile,486,2.24
2678 POPLAR FOREST DR,Powhatan County,POWHATAN,37.56967178,-78.08582758,2019-06-04,23139,2.0 - 3.0 Mile,442,2.08
2683 POPLAR FOREST DR,Powhatan County,POWHATAN,37.57082302,-78.08841725,2019-06-04,23139,1.0 - 2.0 Mile,402,1.94
2689 POPLAR FOREST DR,Powhatan County,POWHATAN,37.56888383,-78.08801956,2019-06-04,23139,1.0 - 2.0 Mile,412,1.96
2679 POPLAR FOREST DR,Powhatan County,POWHATAN,37.56775653,-78.08751835,2019-06-04,23139,1.0 - 2.0 Mile,419,2.00
2669 POPLAR FOREST DR,Powhatan County,POWHATAN,37.56698801,-78.08594091,2019-06-04,23139,2.0 - 3.0 Mile,443,2.08
2659 POPLAR FOREST DR,Powhatan County,POWHATAN,37.56647765,-78.08469823,2019-06-04,23139,2.0 - 3.0 Mile,462,2.14
2649 POPLAR FOREST DR,Powhatan County,POWHATAN,37.56491726,-78.08294074,2019-06-04,23139,2.0 - 3.0 Mile,477,2.21
2607 BALLSVILLE RD,Powhatan County,POWHATAN,37.56399127,-78.07948585,2019-06-04,23139,2.0 - 3.0 Mile,531,2.38
2601 BALLSVILLE RD TRLR A,Powhatan County,POWHATAN,37.56364794,-78.08010912,2019-06-04,23139,2.0 - 3.0 Mile,517,2.34
2601 BALLSVILLE RD,Powhatan County,POWHATAN,37.56365744,-78.08029754,2019-06-04,23139,2.0 - 3.0 Mile,513,2.33
2575 BALLSVILLE RD,Powhatan County,POWHATAN,37.5611373,-78.08357378,2019-06-04,23139,2.0 - 3.0 Mile,459,2.13
2437 BALLSVILLE RD,Powhatan County,POWHATAN,37.55902385,-78.09206564,2019-06-04,23139,1.0 - 2.0 Mile,326,1.66
2427 BALLSVILLE RD,Powhatan County,POWHATAN,37.55588109,-78.09200703,2019-06-04,23139,1.0 - 2.0 Mile,327,1.66
2429 BALLSVILLE RD,Powhatan County,POWHATAN,37.55587463,-78.09096033,2019-06-04,23139,1.0 - 2.0 Mile,342,1.72
2423 BALLSVILLE RD,Powhatan County,POWHATAN,37.5558619,-78.09356367,2019-06-04,23139,1.0 - 2.0 Mile,306,1.58
2421 BALLSVILLE RD,Powhatan County,POWHATAN,37.55529889,-78.09524369,2019-06-04,23139,1.0 - 2.0 Mile,274,1.49
2405 BALLSVILLE RD,Powhatan County,POWHATAN,37.55004046,-78.09176231,2019-06-04,23139,1.0 - 2.0 Mile,350,1.75
5500 ANDERSON HWY,Powhatan County,POWHATAN,37.56675552,-78.03635506,2019-06-04,23139,3.0 - 5.0 Mile,1522,4.75
2600 TRENHOLM RD,Powhatan County,POWHATAN,37.56735924,-78.03651765,2019-06-04,23139,3.0 - 5.0 Mile,1521,4.75
2720 TRENHOLM RD,Powhatan County,POWHATAN,37.56851531,-78.03719756,2019-06-04,23139,3.0 - 5.0 Mile,1502,4.72
2744 TRENHOLM RD,Powhatan County,POWHATAN,37.57215963,-78.0412079,2019-06-04,23139,3.0 - 5.0 Mile,1400,4.53
2750 TRENHOLM RD,Powhatan County,POWHATAN,37.57241113,-78.04157967,2019-06-04,23139,3.0 - 5.0 Mile,1386,4.51
2756 TRENHOLM RD,Powhatan County,POWHATAN,37.57275444,-78.04188815,2019-06-04,23139,3.0 - 5.0 Mile,1377,4.49
2762 TRENHOLM RD,Powhatan County,POWHATAN,37.57315351,-78.0423847,2019-06-04,23139,3.0 - 5.0 Mile,1354,4.46
2766 TRENHOLM RD,Powhatan County,POWHATAN,37.57355714,-78.04253748,2019-06-04,23139,3.0 - 5.0 Mile,1350,4.46
2770 TRENHOLM RD,Powhatan County,POWHATAN,37.57382552,-78.04282383,2019-06-04,23139,3.0 - 5.0 Mile,1341,4.44
2772 TRENHOLM RD,Powhatan County,POWHATAN,37.57505977,-78.04247626,2019-06-04,23139,3.0 - 5.0 Mile,1356,4.47
2776 TRENHOLM RD,Powhatan County,POWHATAN,37.57504363,-78.04439341,2019-06-04,23139,3.0 - 5.0 Mile,1287,4.36
2800 TRENHOLM RD,Powhatan County,POWHATAN,37.57530729,-78.04573417,2019-06-04,23139,3.0 - 5.0 Mile,1259,4.29
6270 ANDERSON HWY,Powhatan County,POWHATAN,37.54969799,-78.09158691,2019-06-04,23139,1.0 - 2.0 Mile,356,1.77
2594 BALLSVILLE RD,Powhatan County,POWHATAN,37.56263439,-78.07961105,2019-06-04,23139,2.0 - 3.0 Mile,523,2.36
2610 BALLSVILLE RD,Powhatan County,POWHATAN,37.56336044,-78.07873501,2019-06-04,23139,2.0 - 3.0 Mile,539,2.42
2670 BALLSVILLE RD,Powhatan County,POWHATAN,37.56441507,-78.0780838,2019-06-04,23139,2.0 - 3.0 Mile,557,2.46
2680 BALLSVILLE RD,Powhatan County,POWHATAN,37.56539926,-78.07691248,2019-06-04,23139,2.0 - 3.0 Mile,570,2.54
2656 BALLSVILLE RD,Powhatan County,POWHATAN,37.56614387,-78.07589227,2019-06-04,23139,2.0 - 3.0 Mile,587,2.60
2690 BALLSVILLE RD,Powhatan County,POWHATAN,37.56744587,-78.07453864,2019-06-04,23139,2.0 - 3.0 Mile,611,2.70
2700 BALLSVILLE RD,Powhatan County,POWHATAN,37.56779608,-78.07391108,2019-06-04,23139,2.0 - 3.0 Mile,622,2.74
2708 BALLSVILLE RD,Powhatan County,POWHATAN,37.56805911,-78.07356558,2019-06-04,23139,2.0 - 3.0 Mile,629,2.76
5954 OLD GRAY RD,Powhatan County,POWHATAN,37.56855013,-78.0691076,2019-06-04,23139,3.0 - 5.0 Mile,696,3.00
5950 OLD GRAY RD,Powhatan County,POWHATAN,37.5688156,-78.06855805,2019-06-04,23139,3.0 - 5.0 Mile,700,3.03
2752 BALLSVILLE RD,Powhatan County,POWHATAN,37.57127836,-78.06937819,2019-06-04,23139,2.0 - 3.0 Mile,691,2.98
2780 BALLSVILLE RD,Powhatan County,POWHATAN,37.57201787,-78.06782942,2019-06-04,23139,3.0 - 5.0 Mile,711,3.07
2766 BALLSVILLE RD,Powhatan County,POWHATAN,37.57000349,-78.06555922,2019-06-04,23139,3.0 - 5.0 Mile,755,3.19
2760 BALLSVILLE RD,Powhatan County,POWHATAN,37.5692886,-78.06805032,2019-06-04,23139,3.0 - 5.0 Mile,707,3.06
2796 BALLSVILLE RD,Powhatan County,POWHATAN,37.57445828,-78.06631725,2019-06-04,23139,3.0 - 5.0 Mile,741,3.16
2800 BALLSVILLE RD,Powhatan County,POWHATAN,37.57492179,-78.06604422,2019-06-04,23139,3.0 - 5.0 Mile,749,3.17
2848 BALLSVILLE RD,Powhatan County,POWHATAN,37.57743181,-78.06136753,2019-06-04,23139,3.0 - 5.0 Mile,841,3.45
2790 BALLSVILLE RD,Powhatan County,POWHATAN,37.58056373,-78.06583026,2019-06-04,23139,3.0 - 5.0 Mile,769,3.24
2890 BALLSVILLE RD,Powhatan County,POWHATAN,37.58057966,-78.06663011,2019-06-04,23139,3.0 - 5.0 Mile,758,3.20
2898 BALLSVILLE RD,Powhatan County,POWHATAN,37.58099035,-78.06664494,2019-06-04,23139,3.0 - 5.0 Mile,760,3.20
2900 BALLSVILLE RD,Powhatan County,POWHATAN,37.58187916,-78.06639902,2019-06-04,23139,3.0 - 5.0 Mile,765,3.23
5890 AKERS LN,Powhatan County,POWHATAN,37.58312208,-78.06345119,2019-06-04,23139,3.0 - 5.0 Mile,828,3.41
5886 AKERS LN,Powhatan County,POWHATAN,37.5827839,-78.06454532,2019-06-04,23139,3.0 - 5.0 Mile,809,3.34
5880 AKERS LN,Powhatan County,POWHATAN,37.58287606,-78.06541337,2019-06-04,23139,3.0 - 5.0 Mile,787,3.30
2910 BALLSVILLE RD,Powhatan County,POWHATAN,37.58286781,-78.06704388,2019-06-04,23139,3.0 - 5.0 Mile,762,3.21
2914 BALLSVILLE RD,Powhatan County,POWHATAN,37.58362138,-78.06724593,2019-06-04,23139,3.0 - 5.0 Mile,763,3.21
2980 BALLSVILLE RD,Powhatan County,POWHATAN,37.58462855,-78.06363651,2019-06-04,23139,3.0 - 5.0 Mile,834,3.42
2990 BALLSVILLE RD,Powhatan County,POWHATAN,37.58640668,-78.06657151,2019-06-04,23139,3.0 - 5.0 Mile,789,3.30
3010 BALLSVILLE RD,Powhatan County,POWHATAN,37.58731762,-78.06545537,2019-06-04,23139,3.0 - 5.0 Mile,821,3.38
3066 BALLSVILLE RD,Powhatan County,POWHATAN,37.58884597,-78.06272712,2019-06-04,23139,3.0 - 5.0 Mile,885,3.56
3115 BALLSVILLE RD,Powhatan County,POWHATAN,37.59326034,-78.06338695,2019-06-04,23139,3.0 - 5.0 Mile,941,3.64
3141 TRENHOLM RD,Powhatan County,POWHATAN,37.5945176,-78.06195789,2019-06-04,23139,3.0 - 5.0 Mile,980,3.75
6000 MILES RD,Powhatan County,POWHATAN,37.59031676,-78.07192478,2019-06-04,23139,3.0 - 5.0 Mile,729,3.13
6004 MILES RD,Powhatan County,POWHATAN,37.59081419,-78.07426969,2019-06-04,23139,3.0 - 5.0 Mile,698,3.03
6060 MILES RD,Powhatan County,POWHATAN,37.58992131,-78.07529199,2019-06-04,23139,2.0 - 3.0 Mile,684,2.95
6064 MILES RD,Powhatan County,POWHATAN,37.59083186,-78.07581292,2019-06-04,23139,2.0 - 3.0 Mile,686,2.95
6080 MILES RD,Powhatan County,POWHATAN,37.59189743,-78.07728473,2019-06-04,23139,2.0 - 3.0 Mile,675,2.92
6086 MILES RD,Powhatan County,POWHATAN,37.59373643,-78.07940797,2019-06-04,23139,2.0 - 3.0 Mile,663,2.88
6100 MILES RD,Powhatan County,POWHATAN,37.59550168,-78.08089222,2019-06-04,23139,2.0 - 3.0 Mile,664,2.88
6120 MILES RD,Powhatan County,POWHATAN,37.59805007,-78.08159193,2019-06-04,23139,2.0 - 3.0 Mile,687,2.96
6105 MILES RD,Powhatan County,POWHATAN,37.59826353,-78.08443124,2019-06-04,23139,2.0 - 3.0 Mile,653,2.85
6110 MILES RD,Powhatan County,POWHATAN,37.59712627,-78.08605459,2019-06-04,23139,2.0 - 3.0 Mile,619,2.73
6091 MILES RD,Powhatan County,POWHATAN,37.5894907,-78.08196101,2019-06-04,23139,2.0 - 3.0 Mile,589,2.61
6175 MILES RD,Powhatan County,POWHATAN,37.58763214,-78.0850279,2019-06-04,23139,2.0 - 3.0 Mile,536,2.40
6133 MILES RD,Powhatan County,POWHATAN,37.58938925,-78.07903328,2019-06-04,23139,2.0 - 3.0 Mile,627,2.75
6055 MILES RD,Powhatan County,POWHATAN,37.58924122,-78.07649195,2019-06-04,23139,2.0 - 3.0 Mile,660,2.87
6053 MILES RD,Powhatan County,POWHATAN,37.58848501,-78.07654443,2019-06-04,23139,2.0 - 3.0 Mile,652,2.85
6011 MILES RD,Powhatan County,POWHATAN,37.58914884,-78.07553782,2019-06-04,23139,2.0 - 3.0 Mile,673,2.92
6007 MILES RD,Powhatan County,POWHATAN,37.58919291,-78.07264254,2019-06-04,23139,3.0 - 5.0 Mile,708,3.06
6001 MILES RD,Powhatan County,POWHATAN,37.58903299,-78.07216811,2019-06-04,23139,3.0 - 5.0 Mile,714,3.08
5945 MILES RD,Powhatan County,POWHATAN,37.58969654,-78.06780686,2019-06-04,23139,3.0 - 5.0 Mile,797,3.32
3071 BALLSVILLE RD,Powhatan County,POWHATAN,37.59058294,-78.06554656,2019-06-04,23139,3.0 - 5.0 Mile,849,3.46
2989 BALLSVILLE RD,Powhatan County,POWHATAN,37.58635138,-78.06733361,2019-06-04,23139,3.0 - 5.0 Mile,774,3.26
2977 BALLSVILLE RD,Powhatan County,POWHATAN,37.58496461,-78.06815155,2019-06-04,23139,3.0 - 5.0 Mile,754,3.19
2923 BALLSVILLE RD,Powhatan County,POWHATAN,37.58237918,-78.06861386,2019-06-04,23139,3.0 - 5.0 Mile,726,3.12
2897 BALLSVILLE RD,Powhatan County,POWHATAN,37.58145009,-78.0685132,2019-06-04,23139,3.0 - 5.0 Mile,722,3.11
2891 BALLSVILLE RD,Powhatan County,POWHATAN,37.57993392,-78.06756842,2019-06-04,23139,3.0 - 5.0 Mile,733,3.14
5926 TRENHOLM VILLAGE DR,Powhatan County,POWHATAN,37.58033196,-78.06964794,2019-06-04,23139,3.0 - 5.0 Mile,701,3.03
5932 TRENHOLM VILLAGE DR,Powhatan County,POWHATAN,37.57984777,-78.07012368,2019-06-04,23139,2.0 - 3.0 Mile,695,3.00
5938 TRENHOLM VILLAGE DR,Powhatan County,POWHATAN,37.58009029,-78.07094784,2019-06-04,23139,2.0 - 3.0 Mile,688,2.96
5944 TRENHOLM VILLAGE DR,Powhatan County,POWHATAN,37.58000502,-78.07219803,2019-06-04,23139,2.0 - 3.0 Mile,666,2.89
5950 TRENHOLM VILLAGE DR,Powhatan County,POWHATAN,37.58102006,-78.07309428,2019-06-04,23139,2.0 - 3.0 Mile,655,2.86
5956 TRENHOLM VILLAGE DR,Powhatan County,POWHATAN,37.5812512,-78.07388091,2019-06-04,23139,2.0 - 3.0 Mile,646,2.82
6006 TRENHOLM VILLAGE DR,Powhatan County,POWHATAN,37.58068647,-78.07576186,2019-06-04,23139,2.0 - 3.0 Mile,613,2.71
6010 TRENHOLM VILLAGE DR,Powhatan County,POWHATAN,37.58016082,-78.0761346,2019-06-04,23139,2.0 - 3.0 Mile,606,2.68
6009 TRENHOLM VILLAGE DR,Powhatan County,POWHATAN,37.57922144,-78.07564114,2019-06-04,23139,2.0 - 3.0 Mile,610,2.69
6003 TRENHOLM VILLAGE DR,Powhatan County,POWHATAN,37.57880764,-78.07475775,2019-06-04,23139,2.0 - 3.0 Mile,621,2.74
5953 TRENHOLM VILLAGE DR,Powhatan County,POWHATAN,37.57878814,-78.07352285,2019-06-04,23139,2.0 - 3.0 Mile,641,2.80
5943 TRENHOLM VILLAGE DR,Powhatan County,POWHATAN,37.57919685,-78.07230218,2019-06-04,23139,2.0 - 3.0 Mile,661,2.87
5937 TRENHOLM VILLAGE DR,Powhatan County,POWHATAN,37.57844127,-78.07154114,2019-06-04,23139,2.0 - 3.0 Mile,667,2.90
5921 TRENHOLM VILLAGE DR,Powhatan County,POWHATAN,37.57829626,-78.06895453,2019-06-04,23139,3.0 - 5.0 Mile,703,3.04
5915 TRENHOLM VILLAGE DR,Powhatan County,POWHATAN,37.57886111,-78.06798483,2019-06-04,23139,3.0 - 5.0 Mile,720,3.10
5907 TRENHOLM VILLAGE DR,Powhatan County,POWHATAN,37.57889319,-78.0673999,2019-06-04,23139,3.0 - 5.0 Mile,732,3.13
5901 TRENHOLM VILLAGE DR,Powhatan County,POWHATAN,37.57902103,-78.06679721,2019-06-04,23139,3.0 - 5.0 Mile,746,3.17
2813 BALLSVILLE RD,Powhatan County,POWHATAN,37.57584474,-78.06631618,2019-06-04,23139,3.0 - 5.0 Mile,742,3.16
2805 BALLSVILLE RD,Powhatan County,POWHATAN,37.57527856,-78.06682679,2019-06-04,23139,3.0 - 5.0 Mile,730,3.13
2781 BALLSVILLE RD,Powhatan County,POWHATAN,37.5722436,-78.06890982,2019-06-04,23139,3.0 - 5.0 Mile,697,3.01
2771 BALLSVILLE RD,Powhatan County,POWHATAN,37.57276521,-78.07039695,2019-06-04,23139,2.0 - 3.0 Mile,678,2.93
2751 BALLSVILLE RD,Powhatan County,POWHATAN,37.57160899,-78.07050674,2019-06-04,23139,2.0 - 3.0 Mile,676,2.92
2747 BALLSVILLE RD,Powhatan County,POWHATAN,37.57103854,-78.07160788,2019-06-04,23139,2.0 - 3.0 Mile,657,2.86
2691 BALLSVILLE RD,Powhatan County,POWHATAN,37.56815455,-78.07506616,2019-06-04,23139,2.0 - 3.0 Mile,603,2.68
2687 BALLSVILLE RD,Powhatan County,POWHATAN,37.56775696,-78.07576693,2019-06-04,23139,2.0 - 3.0 Mile,596,2.64
2657 BALLSVILLE RD,Powhatan County,POWHATAN,37.56744868,-78.07709162,2019-06-04,23139,2.0 - 3.0 Mile,576,2.56
2685 BALLSVILLE RD,Powhatan County,POWHATAN,37.56778947,-78.07696034,2019-06-04,23139,2.0 - 3.0 Mile,579,2.57
6110 AUTUMN BLUFF RD,Powhatan County,POWHATAN,37.56734838,-78.07907324,2019-06-04,23139,2.0 - 3.0 Mile,553,2.45
6131 AUTUMN BLUFF RD,Powhatan County,POWHATAN,37.57115054,-78.08536327,2019-06-04,23139,2.0 - 3.0 Mile,446,2.10
6119 AUTUMN BLUFF RD,Powhatan County,POWHATAN,37.56971767,-78.08097037,2019-06-04,23139,2.0 - 3.0 Mile,518,2.35
2701 CAMP CRUSADE RD,Powhatan County,POWHATAN,37.57405362,-78.08880589,2019-06-04,23139,1.0 - 2.0 Mile,398,1.92
2701 CAMP CRUSADE RD BLDG B2,Powhatan County,POWHATAN,37.57322155,-78.09017768,2019-06-04,23139,1.0 - 2.0 Mile,374,1.84
2701 CAMP CRUSADE RD BLDG B3,Powhatan County,POWHATAN,37.57269887,-78.09151815,2019-06-04,23139,1.0 - 2.0 Mile,357,1.77
2701 CAMP CRUSADE RD BLDG B4,Powhatan County,POWHATAN,37.57320021,-78.09102014,2019-06-04,23139,1.0 - 2.0 Mile,366,1.80
2850 TRENHOLM RD,Powhatan County,POWHATAN,37.57993389,-78.04307019,2019-06-04,23139,3.0 - 5.0 Mile,1355,4.47
2858 TRENHOLM RD,Powhatan County,POWHATAN,37.57771096,-78.04680579,2019-06-04,23139,3.0 - 5.0 Mile,1241,4.24
2870 TRENHOLM RD,Powhatan County,POWHATAN,37.578235,-78.047103,2019-06-04,23139,3.0 - 5.0 Mile,1230,4.23
2884 TRENHOLM RD,Powhatan County,POWHATAN,37.57955942,-78.05011141,2019-06-04,23139,3.0 - 5.0 Mile,1154,4.08
2890 TRENHOLM RD,Powhatan County,POWHATAN,37.57995196,-78.05044544,2019-06-04,23139,3.0 - 5.0 Mile,1145,4.06
2970 TRENHOLM RD,Powhatan County,POWHATAN,37.5852604,-78.05183396,2019-06-04,23139,3.0 - 5.0 Mile,1141,4.06
2910 TRENHOLM RD,Powhatan County,POWHATAN,37.58348329,-78.05016743,2019-06-04,23139,3.0 - 5.0 Mile,1179,4.12
3000 TRENHOLM RD,Powhatan County,POWHATAN,37.5870256,-78.05408225,2019-06-04,23139,3.0 - 5.0 Mile,1081,3.97
3074 TRENHOLM RD,Powhatan County,POWHATAN,37.58997461,-78.05391598,2019-06-04,23139,3.0 - 5.0 Mile,1129,4.04
3088 TRENHOLM RD,Powhatan County,POWHATAN,37.59065516,-78.05554505,2019-06-04,23139,3.0 - 5.0 Mile,1080,3.97
3100 DUKE RD,Powhatan County,POWHATAN,37.59195054,-78.0542832,2019-06-04,23139,3.0 - 5.0 Mile,1147,4.07
3106 DUKE RD,Powhatan County,POWHATAN,37.59256172,-78.05350091,2019-06-04,23139,3.0 - 5.0 Mile,1180,4.12
3170 DUKE RD,Powhatan County,POWHATAN,37.59145763,-78.04477828,2019-06-04,23139,3.0 - 5.0 Mile,1417,4.55
3184 DUKE RD,Powhatan County,POWHATAN,37.59527235,-78.04782937,2019-06-04,23139,3.0 - 5.0 Mile,1367,4.48
3180 DUKE RD,Powhatan County,POWHATAN,37.59490324,-78.04546916,2019-06-04,23139,3.0 - 5.0 Mile,1440,4.59
3190 DUKE RD,Powhatan County,POWHATAN,37.59702759,-78.04673047,2019-06-04,23139,3.0 - 5.0 Mile,1433,4.58
3198 DUKE RD,Powhatan County,POWHATAN,37.59735634,-78.04523524,2019-06-04,23139,3.0 - 5.0 Mile,1476,4.67
3200 DUKE RD,Powhatan County,POWHATAN,37.59794553,-78.04445077,2019-06-04,23139,3.0 - 5.0 Mile,1501,4.72
3214 DUKE RD,Powhatan County,POWHATAN,37.59861635,-78.04350946,2019-06-04,23139,3.0 - 5.0 Mile,1539,4.79
3301 DUKE RD,Powhatan County,POWHATAN,37.60423867,-78.04368341,2019-06-04,23139,3.0 - 5.0 Mile,1630,4.94
3217 DUKE RD,Powhatan County,POWHATAN,37.59949839,-78.04420889,2019-06-04,23139,3.0 - 5.0 Mile,1534,4.78
3215 DUKE RD,Powhatan County,POWHATAN,37.60005501,-78.04481976,2019-06-04,23139,3.0 - 5.0 Mile,1528,4.76
3211 DUKE RD,Powhatan County,POWHATAN,37.59898378,-78.04523075,2019-06-04,23139,3.0 - 5.0 Mile,1498,4.71
3189 DUKE RD,Powhatan County,POWHATAN,37.59832445,-78.04830371,2019-06-04,23139,3.0 - 5.0 Mile,1412,4.54
3177 DUKE RD,Powhatan County,POWHATAN,37.59607445,-78.05064117,2019-06-04,23139,3.0 - 5.0 Mile,1285,4.36
3130 TRENHOLM RD STE A,Powhatan County,POWHATAN,37.59369841,-78.05930712,2019-06-04,23139,3.0 - 5.0 Mile,1025,3.86
3130 TRENHOLM RD STE B,Powhatan County,POWHATAN,37.59369535,-78.0594001,2019-06-04,23139,3.0 - 5.0 Mile,1023,3.85
3210 TRENHOLM RD,Powhatan County,POWHATAN,37.59836242,-78.05778182,2019-06-04,23139,3.0 - 5.0 Mile,1149,4.07
3308 TRENHOLM RD,Powhatan County,POWHATAN,37.60482852,-78.06220686,2019-06-04,23139,3.0 - 5.0 Mile,1166,4.09
3396 TRENHOLM RD,Powhatan County,POWHATAN,37.60864137,-78.0624077,2019-06-04,23139,3.0 - 5.0 Mile,1236,4.24
3470 TRENHOLM RD,Powhatan County,POWHATAN,37.61283434,-78.06053057,2019-06-04,23139,3.0 - 5.0 Mile,1381,4.50
3480 TRENHOLM RD,Powhatan County,POWHATAN,37.61345931,-78.06091432,2019-06-04,23139,3.0 - 5.0 Mile,1387,4.51
3600 TRENHOLM RD,Powhatan County,POWHATAN,37.61924724,-78.06086958,2019-06-04,23139,3.0 - 5.0 Mile,1535,4.78
3608 TRENHOLM RD,Powhatan County,POWHATAN,37.61994495,-78.05976901,2019-06-04,23139,3.0 - 5.0 Mile,1577,4.85
3616 TRENHOLM RD,Powhatan County,POWHATAN,37.62095706,-78.05867285,2019-06-04,23139,3.0 - 5.0 Mile,1632,4.95
3620 TRENHOLM RD,Powhatan County,POWHATAN,37.62167243,-78.0603246,2019-06-04,23139,3.0 - 5.0 Mile,1611,4.91
3617 TRENHOLM RD,Powhatan County,POWHATAN,37.62209962,-78.06368955,2019-06-04,23139,3.0 - 5.0 Mile,1549,4.81
3633 TRENHOLM RD,Powhatan County,POWHATAN,37.62383984,-78.06670306,2019-06-04,23139,3.0 - 5.0 Mile,1538,4.78
3585 TRENHOLM RD,Powhatan County,POWHATAN,37.61868621,-78.06283165,2019-06-04,23139,3.0 - 5.0 Mile,1484,4.67
3511 TRENHOLM RD,Powhatan County,POWHATAN,37.61518837,-78.0707844,2019-06-04,23139,3.0 - 5.0 Mile,1212,4.19
3493 TRENHOLM RD,Powhatan County,POWHATAN,37.61380348,-78.06428808,2019-06-04,23139,3.0 - 5.0 Mile,1298,4.38
3395 TRENHOLM RD,Powhatan County,POWHATAN,37.60856127,-78.06454623,2019-06-04,23139,3.0 - 5.0 Mile,1185,4.14
3315 TRENHOLM RD,Powhatan County,POWHATAN,37.60451587,-78.0636782,2019-06-04,23139,3.0 - 5.0 Mile,1106,4.01
3277 TRENHOLM RD,Powhatan County,POWHATAN,37.60268399,-78.06236144,2019-06-04,23139,3.0 - 5.0 Mile,1097,4.00
3269 TRENHOLM RD,Powhatan County,POWHATAN,37.60201478,-78.06211154,2019-06-04,23139,3.0 - 5.0 Mile,1091,3.99
3261 TRENHOLM RD,Powhatan County,POWHATAN,37.60066121,-78.0646274,2019-06-04,23139,3.0 - 5.0 Mile,1009,3.82
3231 TRENHOLM RD,Powhatan County,POWHATAN,37.59995142,-78.06118878,2019-06-04,23139,3.0 - 5.0 Mile,1073,3.96
3189 TRENHOLM RD,Powhatan County,POWHATAN,37.59752442,-78.06120779,2019-06-04,23139,3.0 - 5.0 Mile,1034,3.88
5900 DERWENT RD,Powhatan County,POWHATAN,37.59594183,-78.06417703,2019-06-04,23139,3.0 - 5.0 Mile,960,3.68
5912 DERWENT RD,Powhatan County,POWHATAN,37.59772886,-78.06663712,2019-06-04,23139,3.0 - 5.0 Mile,925,3.62
5940 DERWENT RD,Powhatan County,POWHATAN,37.59943791,-78.06796885,2019-06-04,23139,3.0 - 5.0 Mile,924,3.62
5948 DERWENT RD,Powhatan County,POWHATAN,37.59942465,-78.06867768,2019-06-04,23139,3.0 - 5.0 Mile,899,3.59
5952 DERWENT RD,Powhatan County,POWHATAN,37.59989443,-78.06814336,2019-06-04,23139,3.0 - 5.0 Mile,934,3.63
5956 DERWENT RD,Powhatan County,POWHATAN,37.600005,-78.06947728,2019-06-04,23139,3.0 - 5.0 Mile,891,3.57
5964 DERWENT RD,Powhatan County,POWHATAN,37.60170114,-78.06932876,2019-06-04,23139,3.0 - 5.0 Mile,944,3.65
5970 DERWENT RD,Powhatan County,POWHATAN,37.60285379,-78.07058625,2019-06-04,23139,3.0 - 5.0 Mile,939,3.64
5976 DERWENT RD,Powhatan County,POWHATAN,37.60375305,-78.07138998,2019-06-04,23139,3.0 - 5.0 Mile,942,3.64
5980 DERWENT RD,Powhatan County,POWHATAN,37.60498358,-78.07193279,2019-06-04,23139,3.0 - 5.0 Mile,953,3.67
5988 DERWENT RD,Powhatan County,POWHATAN,37.60533561,-78.07335806,2019-06-04,23139,3.0 - 5.0 Mile,927,3.63
6000 DERWENT RD,Powhatan County,POWHATAN,37.60589661,-78.07953472,2019-06-04,23139,3.0 - 5.0 Mile,826,3.40
5977 DERWENT RD,Powhatan County,POWHATAN,37.60262279,-78.07310731,2019-06-04,23139,3.0 - 5.0 Mile,870,3.52
5959 DERWENT RD,Powhatan County,POWHATAN,37.60016755,-78.07022824,2019-06-04,23139,3.0 - 5.0 Mile,880,3.55
3175 ELWOOD FARMS LN,Powhatan County,POWHATAN,37.59803399,-78.06909862,2019-06-04,23139,3.0 - 5.0 Mile,871,3.52
3165 ELWOOD FARMS LN,Powhatan County,POWHATAN,37.59617393,-78.06909895,2019-06-04,23139,3.0 - 5.0 Mile,847,3.45
3160 ELWOOD FARMS LN,Powhatan County,POWHATAN,37.59406193,-78.06851605,2019-06-04,23139,3.0 - 5.0 Mile,831,3.41
3170 ELWOOD FARMS LN,Powhatan County,POWHATAN,37.59354447,-78.06700477,2019-06-04,23139,3.0 - 5.0 Mile,853,3.47
5903 DERWENT RD,Powhatan County,POWHATAN,37.59507161,-78.06553936,2019-06-04,23139,3.0 - 5.0 Mile,898,3.59
3167 TRENHOLM RD,Powhatan County,POWHATAN,37.59531724,-78.06245649,2019-06-04,23139,3.0 - 5.0 Mile,979,3.75
3131 TRENHOLM RD,Powhatan County,POWHATAN,37.59045262,-78.0595001,2019-06-04,23139,3.0 - 5.0 Mile,990,3.76
3133 TRENHOLM RD,Powhatan County,POWHATAN,37.591411,-78.05918398,2019-06-04,23139,3.0 - 5.0 Mile,1003,3.80
3081 TRENHOLM RD,Powhatan County,POWHATAN,37.5909153,-78.05703973,2019-06-04,23139,3.0 - 5.0 Mile,1048,3.90
3065 TRENHOLM RD,Powhatan County,POWHATAN,37.5891152,-78.05607748,2019-06-04,23139,3.0 - 5.0 Mile,1053,3.91
3069 TRENHOLM RD,Powhatan County,POWHATAN,37.58979379,-78.05623232,2019-06-04,23139,3.0 - 5.0 Mile,1058,3.92
3015 TRENHOLM RD,Powhatan County,POWHATAN,37.58788043,-78.05642684,2019-06-04,23139,3.0 - 5.0 Mile,1028,3.87
3025 TRENHOLM RD,Powhatan County,POWHATAN,37.58894037,-78.05993958,2019-06-04,23139,3.0 - 5.0 Mile,964,3.70
3001 TRENHOLM RD,Powhatan County,POWHATAN,37.58710456,-78.0552752,2019-06-04,23139,3.0 - 5.0 Mile,1055,3.91
5800 TRENHOLM WOODS DR,Powhatan County,POWHATAN,37.58653188,-78.05513629,2019-06-04,23139,3.0 - 5.0 Mile,1052,3.91
5806 TRENHOLM WOODS DR,Powhatan County,POWHATAN,37.58658194,-78.05608847,2019-06-04,23139,3.0 - 5.0 Mile,1026,3.86
5810 TRENHOLM WOODS DR,Powhatan County,POWHATAN,37.58617949,-78.05673224,2019-06-04,23139,3.0 - 5.0 Mile,1007,3.82
5836 TRENHOLM WOODS DR,Powhatan County,POWHATAN,37.587678,-78.05992842,2019-06-04,23139,3.0 - 5.0 Mile,959,3.68
5842 TRENHOLM WOODS DR,Powhatan County,POWHATAN,37.58817032,-78.0608992,2019-06-04,23139,3.0 - 5.0 Mile,938,3.64
5845 TRENHOLM WOODS DR,Powhatan County,POWHATAN,37.58634905,-78.06157641,2019-06-04,23139,3.0 - 5.0 Mile,886,3.56
5835 TRENHOLM WOODS DR,Powhatan County,POWHATAN,37.58568811,-78.06174503,2019-06-04,23139,3.0 - 5.0 Mile,876,3.54
5827 TRENHOLM WOODS DR,Powhatan County,POWHATAN,37.58608274,-78.06047701,2019-06-04,23139,3.0 - 5.0 Mile,918,3.62
2990 TRENHOLM WOODS CT,Powhatan County,POWHATAN,37.58692807,-78.05683687,2019-06-04,23139,3.0 - 5.0 Mile,1010,3.82
2996 TRENHOLM WOODS CT,Powhatan County,POWHATAN,37.5873224,-78.05709668,2019-06-04,23139,3.0 - 5.0 Mile,1008,3.82
2995 TRENHOLM WOODS CT,Powhatan County,POWHATAN,37.58748001,-78.05780726,2019-06-04,23139,3.0 - 5.0 Mile,998,3.78
2991 TRENHOLM WOODS CT,Powhatan County,POWHATAN,37.58648148,-78.05854711,2019-06-04,23139,3.0 - 5.0 Mile,969,3.73
2985 TRENHOLM WOODS LN,Powhatan County,POWHATAN,37.58535434,-78.0594245,2019-06-04,23139,3.0 - 5.0 Mile,948,3.66
2983 TRENHOLM WOODS LN,Powhatan County,POWHATAN,37.58479885,-78.05986515,2019-06-04,23139,3.0 - 5.0 Mile,926,3.62
5821 TRENHOLM WOODS DR,Powhatan County,POWHATAN,37.58568637,-78.0589582,2019-06-04,23139,3.0 - 5.0 Mile,962,3.69
5809 TRENHOLM WOODS DR,Powhatan County,POWHATAN,37.58502291,-78.05686443,2019-06-04,23139,3.0 - 5.0 Mile,999,3.79
5805 TRENHOLM WOODS DR,Powhatan County,POWHATAN,37.58509367,-78.0555432,2019-06-04,23139,3.0 - 5.0 Mile,1027,3.86
5801 TRENHOLM WOODS DR,Powhatan County,POWHATAN,37.58540044,-78.05470257,2019-06-04,23139,3.0 - 5.0 Mile,1054,3.91
2973 TRENHOLM RD,Powhatan County,POWHATAN,37.58482475,-78.05406817,2019-06-04,23139,3.0 - 5.0 Mile,1063,3.93
2915 TRENHOLM RD,Powhatan County,POWHATAN,37.58010195,-78.05224719,2019-06-04,23139,3.0 - 5.0 Mile,1077,3.97
2911 TRENHOLM RD,Powhatan County,POWHATAN,37.5802066,-78.0515501,2019-06-04,23139,3.0 - 5.0 Mile,1100,4.01
2859 TRENHOLM RD,Powhatan County,POWHATAN,37.57714499,-78.04958827,2019-06-04,23139,3.0 - 5.0 Mile,1162,4.09
2775 TRENHOLM RD,Powhatan County,POWHATAN,37.57296183,-78.04767541,2019-06-04,23139,3.0 - 5.0 Mile,1202,4.17
2771 TRENHOLM RD,Powhatan County,POWHATAN,37.57227006,-78.04344126,2019-06-04,23139,3.0 - 5.0 Mile,1317,4.41
2745 TRENHOLM RD,Powhatan County,POWHATAN,37.57177589,-78.04173292,2019-06-04,23139,3.0 - 5.0 Mile,1382,4.50
2727 TRENHOLM RD,Powhatan County,POWHATAN,37.56966639,-78.04007101,2019-06-04,23139,3.0 - 5.0 Mile,1432,4.58
2709 TRENHOLM RD,Powhatan County,POWHATAN,37.56892149,-78.03943293,2019-06-04,23139,3.0 - 5.0 Mile,1444,4.61
5580 ANDERSON HWY,Powhatan County,POWHATAN,37.56583145,-78.0411906,2019-06-04,23139,3.0 - 5.0 Mile,1369,4.48
2600 RAVENSWOOD DR,Powhatan County,POWHATAN,37.56380844,-78.04594116,2019-06-04,23139,3.0 - 5.0 Mile,1219,4.21
2608 RAVENSWOOD DR,Powhatan County,POWHATAN,37.56561719,-78.04655618,2019-06-04,23139,3.0 - 5.0 Mile,1207,4.19
5740 ANDERSON HWY,Powhatan County,POWHATAN,37.56259606,-78.05346991,2019-06-04,23139,3.0 - 5.0 Mile,1000,3.79
5810 ANDERSON HWY,Powhatan County,POWHATAN,37.56004845,-78.05929985,2019-06-04,23139,3.0 - 5.0 Mile,850,3.46
5918 ANDERSON HWY,Powhatan County,POWHATAN,37.55629125,-78.06676779,2019-06-04,23139,3.0 - 5.0 Mile,704,3.05
6000 ANDERSON HWY,Powhatan County,POWHATAN,37.55535231,-78.07284473,2019-06-04,23139,2.0 - 3.0 Mile,615,2.72
6024 ANDERSON HWY,Powhatan County,POWHATAN,37.55310314,-78.08061487,2019-06-04,23139,2.0 - 3.0 Mile,508,2.30
6028 ANDERSON HWY,Powhatan County,POWHATAN,37.55241186,-78.08064118,2019-06-04,23139,2.0 - 3.0 Mile,509,2.31
6050 ANDERSON HWY,Powhatan County,POWHATAN,37.55230664,-78.08153321,2019-06-04,23139,2.0 - 3.0 Mile,494,2.26
6032 ANDERSON HWY,Powhatan County,POWHATAN,37.55201096,-78.08238395,2019-06-04,23139,2.0 - 3.0 Mile,481,2.22
6036 ANDERSON HWY,Powhatan County,POWHATAN,37.5516504,-78.08323936,2019-06-04,23139,2.0 - 3.0 Mile,467,2.18
6090 ANDERSON HWY,Powhatan County,POWHATAN,37.55130857,-78.08566362,2019-06-04,23139,2.0 - 3.0 Mile,434,2.05
6100 ANDERSON HWY,Powhatan County,POWHATAN,37.55110496,-78.08709457,2019-06-04,23139,1.0 - 2.0 Mile,415,1.98
2988 TRENHOLM WOODS LN,Powhatan County,POWHATAN,37.58546803,-78.05820452,2019-06-04,23139,3.0 - 5.0 Mile,968,3.72
5921 ANDERSON HWY,Powhatan County,POWHATAN,37.55500079,-78.06365433,2019-06-04,23139,3.0 - 5.0 Mile,764,3.22
5925 ANDERSON HWY,Powhatan County,POWHATAN,37.55081465,-78.06606646,2019-06-04,23139,3.0 - 5.0 Mile,725,3.12
5809 ANDERSON HWY,Powhatan County,POWHATAN,37.55563414,-78.05894247,2019-06-04,23139,3.0 - 5.0 Mile,855,3.48
5631 ANDERSON HWY,Powhatan County,POWHATAN,37.56223434,-78.04537709,2019-06-04,23139,3.0 - 5.0 Mile,1229,4.23
2625 OLD TAVERN RD,Powhatan County,POWHATAN,37.56513964,-78.03694239,2019-06-04,23139,3.0 - 5.0 Mile,1497,4.71
2529 OLD TAVERN RD,Powhatan County,POWHATAN,37.55912321,-78.03420242,2019-06-04,23139,3.0 - 5.0 Mile,1569,4.83
2481 OLD TAVERN RD,Powhatan County,POWHATAN,37.55618889,-78.03228688,2019-06-04,23139,3.0 - 5.0 Mile,1625,4.94
2421 OLD TAVERN RD,Powhatan County,POWHATAN,37.55417252,-78.03164738,2019-06-04,23139,3.0 - 5.0 Mile,1676,4.98
2377 OLD TAVERN RD,Powhatan County,POWHATAN,37.54996399,-78.03344979,2019-06-04,23139,3.0 - 5.0 Mile,1600,4.90
2371 OLD TAVERN RD,Powhatan County,POWHATAN,37.54911284,-78.03323024,2019-06-04,23139,3.0 - 5.0 Mile,1614,4.92
2323 OLD TAVERN RD,Powhatan County,POWHATAN,37.54796109,-78.03395684,2019-06-04,23139,3.0 - 5.0 Mile,1591,4.89
2291 OLD TAVERN RD,Powhatan County,POWHATAN,37.54524485,-78.03287206,2019-06-04,23139,3.0 - 5.0 Mile,1674,4.98
2259 OLD TAVERN RD,Powhatan County,POWHATAN,37.54405664,-78.03343025,2019-06-04,23139,3.0 - 5.0 Mile,1662,4.96
2090 STEM CREEK TRL,Powhatan County,POWHATAN,37.53663249,-78.05110688,2019-06-04,23139,3.0 - 5.0 Mile,1196,4.16
2100 STEM CREEK TRL,Powhatan County,POWHATAN,37.53752376,-78.05011246,2019-06-04,23139,3.0 - 5.0 Mile,1210,4.19
2115 STEM CREEK TRL,Powhatan County,POWHATAN,37.54092949,-78.05321239,2019-06-04,23139,3.0 - 5.0 Mile,1072,3.96
2128 BALLSVILLE RD,Powhatan County,POWHATAN,37.53795382,-78.08155312,2019-06-04,23139,2.0 - 3.0 Mile,584,2.60
2130 BALLSVILLE RD,Powhatan County,POWHATAN,37.53817045,-78.07793931,2019-06-04,23139,2.0 - 3.0 Mile,631,2.77
2145 BALLSVILLE RD,Powhatan County,POWHATAN,37.53689291,-78.08601376,2019-06-04,23139,2.0 - 3.0 Mile,542,2.42
2165 BALLSVILLE RD,Powhatan County,POWHATAN,37.53876256,-78.08569317,2019-06-04,23139,2.0 - 3.0 Mile,529,2.37
2211 BALLSVILLE RD,Powhatan County,POWHATAN,37.54221665,-78.08677127,2019-06-04,23139,2.0 - 3.0 Mile,476,2.21
2285 BALLSVILLE RD,Powhatan County,POWHATAN,37.54383202,-78.09201547,2019-06-04,23139,1.0 - 2.0 Mile,392,1.90
2290 BALLSVILLE RD,Powhatan County,POWHATAN,37.54580986,-78.08726133,2019-06-04,23139,2.0 - 3.0 Mile,439,2.08
2310 BALLSVILLE RD,Powhatan County,POWHATAN,37.54734188,-78.08881561,2019-06-04,23139,1.0 - 2.0 Mile,411,1.96
2305 BALLSVILLE RD,Powhatan County,POWHATAN,37.54686184,-78.09034767,2019-06-04,23139,1.0 - 2.0 Mile,390,1.89
2320 BALLSVILLE RD,Powhatan County,POWHATAN,37.54906032,-78.09070144,2019-06-04,23139,1.0 - 2.0 Mile,372,1.82
6271 ANDERSON HWY,Powhatan County,POWHATAN,37.5491181,-78.09136841,2019-06-04,23139,1.0 - 2.0 Mile,362,1.79
2275 BALLSVILLE RD,Powhatan County,POWHATAN,37.54373344,-78.09031893,2019-06-04,23139,1.0 - 2.0 Mile,417,1.98
2120 STEM CREEK TRL,Powhatan County,POWHATAN,37.54063143,-78.05119363,2019-06-04,23139,3.0 - 5.0 Mile,1148,4.07
2245 OLD TAVERN RD,Powhatan County,POWHATAN,37.54280539,-78.03391856,2019-06-04,23139,3.0 - 5.0 Mile,1648,4.95
2654 BALLSVILLE RD,Powhatan County,POWHATAN,37.56572847,-78.07627265,2019-06-04,23139,2.0 - 3.0 Mile,580,2.58
5955 OLD GRAY RD,Powhatan County,POWHATAN,37.56950877,-78.06918096,2019-06-04,23139,2.0 - 3.0 Mile,694,2.99
5949 TRENHOLM VILLAGE DR,Powhatan County,POWHATAN,37.5790825,-78.07304624,2019-06-04,23139,2.0 - 3.0 Mile,650,2.83
2757 BALLSVILLE RD,Powhatan County,POWHATAN,37.5721798,-78.07039083,2019-06-04,23139,2.0 - 3.0 Mile,677,2.93
6116 AUTUMN BLUFF RD,Powhatan County,POWHATAN,37.56901169,-78.07905447,2019-06-04,23139,2.0 - 3.0 Mile,554,2.45
6118 AUTUMN BLUFF RD,Powhatan County,POWHATAN,37.57037328,-78.0790633,2019-06-04,23139,2.0 - 3.0 Mile,550,2.45
6120 AUTUMN BLUFF RD,Powhatan County,POWHATAN,37.57088778,-78.07991797,2019-06-04,23139,2.0 - 3.0 Mile,534,2.40
6126 AUTUMN BLUFF RD,Powhatan County,POWHATAN,37.5717354,-78.08182624,2019-06-04,23139,2.0 - 3.0 Mile,505,2.30
3030 TRENHOLM RD,Powhatan County,POWHATAN,37.58833882,-78.0507822,2019-06-04,23139,3.0 - 5.0 Mile,1201,4.17
3375 TRENHOLM RD,Powhatan County,POWHATAN,37.60804918,-78.06356175,2019-06-04,23139,3.0 - 5.0 Mile,1197,4.16
3355 TRENHOLM RD,Powhatan County,POWHATAN,37.60651545,-78.06394184,2019-06-04,23139,3.0 - 5.0 Mile,1157,4.08
3325 TRENHOLM RD,Powhatan County,POWHATAN,37.60576184,-78.0680832,2019-06-04,23139,3.0 - 5.0 Mile,1029,3.87
5826 TRENHOLM WOODS DR,Powhatan County,POWHATAN,37.58712666,-78.0594535,2019-06-04,23139,3.0 - 5.0 Mile,963,3.69
5848 TRENHOLM WOODS DR,Powhatan County,POWHATAN,37.58703679,-78.0612053,2019-06-04,23139,3.0 - 5.0 Mile,906,3.60
5811 TRENHOLM WOODS DR,Powhatan County,POWHATAN,37.58504834,-78.0575959,2019-06-04,23139,3.0 - 5.0 Mile,981,3.75
5586 ANDERSON HWY,Powhatan County,POWHATAN,37.56549445,-78.04277928,2019-06-04,23139,3.0 - 5.0 Mile,1304,4.39
6080 ANDERSON HWY,Powhatan County,POWHATAN,37.55143484,-78.08488892,2019-06-04,23139,2.0 - 3.0 Mile,444,2.09
2181 OLD TAVERN RD,Powhatan County,POWHATAN,37.53959773,-78.0343681,2019-06-04,23139,3.0 - 5.0 Mile,1677,4.98
2110 STEM CREEK TRL,Powhatan County,POWHATAN,37.53951457,-78.04996309,2019-06-04,23139,3.0 - 5.0 Mile,1192,4.16
2095 STEM CREEK TRL,Powhatan County,POWHATAN,37.53758339,-78.05400278,2019-06-04,23139,3.0 - 5.0 Mile,1087,3.99
6373 HALEFORD DR,Powhatan County,POWHATAN,37.53909748,-78.09558376,2019-06-04,23139,1.0 - 2.0 Mile,387,1.89
2132 HALEFORD CT,Powhatan County,POWHATAN,37.53888107,-78.09260371,2019-06-04,23139,2.0 - 3.0 Mile,432,2.04
2140 HALEFORD CT,Powhatan County,POWHATAN,37.53831877,-78.09041743,2019-06-04,23139,2.0 - 3.0 Mile,464,2.16
6325 WALNUT TREE DR,Powhatan County,POWHATAN,37.5398639,-78.09367058,2019-06-04,23139,1.0 - 2.0 Mile,408,1.95
6329 WALNUT TREE DR,Powhatan County,POWHATAN,37.5402859,-78.09426006,2019-06-04,23139,1.0 - 2.0 Mile,394,1.91
6337 WALNUT TREE DR,Powhatan County,POWHATAN,37.54213258,-78.09531242,2019-06-04,23139,1.0 - 2.0 Mile,365,1.79
3335 TRENHOLM RD,Powhatan County,POWHATAN,37.6060009,-78.06459461,2019-06-04,23139,3.0 - 5.0 Mile,1123,4.03
5832 TRENHOLM WOODS DR,Powhatan County,POWHATAN,37.58788178,-78.05899258,2019-06-04,23139,3.0 - 5.0 Mile,971,3.73
3385 TRENHOLM RD,Powhatan County,POWHATAN,37.60782162,-78.06480304,2019-06-04,23139,3.0 - 5.0 Mile,1169,4.10
3345 TRENHOLM RD,Powhatan County,POWHATAN,37.60591609,-78.06379372,2019-06-04,23139,3.0 - 5.0 Mile,1143,4.06
2976 BALLSVILLE RD,Powhatan County,POWHATAN,37.58438754,-78.06595994,2019-06-04,23139,3.0 - 5.0 Mile,786,3.29
2701 TRENHOLM RD,Powhatan County,POWHATAN,37.56752055,-78.03894013,2019-06-04,23139,3.0 - 5.0 Mile,1454,4.62
6324 WALNUT TREE DR,Powhatan County,POWHATAN,37.53911715,-78.09409126,2019-06-04,23139,1.0 - 2.0 Mile,409,1.96
2136 HALEFORD CT,Powhatan County,POWHATAN,37.53849614,-78.09140318,2019-06-04,23139,2.0 - 3.0 Mile,448,2.11
5904 WILBURN ESTATES CT,Powhatan County,POWHATAN,37.60746268,-78.06708895,2019-06-04,23139,3.0 - 5.0 Mile,1084,3.98
6127 AUTUMN BLUFF RD,Powhatan County,POWHATAN,37.57037948,-78.08344843,2019-06-04,23139,2.0 - 3.0 Mile,478,2.21
6125 AUTUMN BLUFF RD,Powhatan County,POWHATAN,37.57044817,-78.08206188,2019-06-04,23139,2.0 - 3.0 Mile,502,2.29
2135 HALEFORD CT,Powhatan County,POWHATAN,37.53968469,-78.09252382,2019-06-04,23139,2.0 - 3.0 Mile,424,2.01
5923 ANDERSON HWY,Powhatan County,POWHATAN,37.54970561,-78.06264827,2019-06-04,23139,3.0 - 5.0 Mile,796,3.31
5929 ANDERSON HWY,Powhatan County,POWHATAN,37.55117416,-78.06251337,2019-06-04,23139,3.0 - 5.0 Mile,793,3.31
6333 WALNUT TREE DR,Powhatan County,POWHATAN,37.54111697,-78.09471042,2019-06-04,23139,1.0 - 2.0 Mile,376,1.86
6332 WALNUT TREE DR,Powhatan County,POWHATAN,37.53977328,-78.09510244,2019-06-04,23139,1.0 - 2.0 Mile,386,1.89
5980 BROWN TOWN CIR,Powhatan County,POWHATAN,37.56678008,-78.07314901,2019-06-04,23139,2.0 - 3.0 Mile,630,2.76
5990 BROWN TOWN CIR,Powhatan County,POWHATAN,37.5665905,-78.07385408,2019-06-04,23139,2.0 - 3.0 Mile,616,2.72
2389 OLD TAVERN RD,Powhatan County,POWHATAN,37.55046915,-78.03345361,2019-06-04,23139,3.0 - 5.0 Mile,1597,4.90
2383 OLD TAVERN RD,Powhatan County,POWHATAN,37.55005608,-78.03590457,2019-06-04,23139,3.0 - 5.0 Mile,1530,4.77
2393 OLD TAVERN RD,Powhatan County,POWHATAN,37.55129598,-78.03632789,2019-06-04,23139,3.0 - 5.0 Mile,1512,4.74
2391 OLD TAVERN RD,Powhatan County,POWHATAN,37.55221199,-78.0360175,2019-06-04,23139,3.0 - 5.0 Mile,1520,4.75
2397 OLD TAVERN RD,Powhatan County,POWHATAN,37.55158444,-78.03481326,2019-06-04,23139,3.0 - 5.0 Mile,1558,4.82
3021 BALLSVILLE RD,Powhatan County,POWHATAN,37.58851284,-78.06736605,2019-06-04,23139,3.0 - 5.0 Mile,795,3.31
6105 AUTUMN BLUFF RD,Powhatan County,POWHATAN,37.56571544,-78.08072519,2019-06-04,23139,2.0 - 3.0 Mile,514,2.34
6316 WALNUT TREE DR,Powhatan County,POWHATAN,37.53702156,-78.09464098,2019-06-04,23139,2.0 - 3.0 Mile,426,2.02
2139 HALEFORD CT,Powhatan County,POWHATAN,37.53953729,-78.09136128,2019-06-04,23139,2.0 - 3.0 Mile,436,2.07
6108 AUTUMN BLUFF RD,Powhatan County,POWHATAN,37.56656221,-78.07859663,2019-06-04,23139,2.0 - 3.0 Mile,558,2.47
2710 BALLSVILLE RD,Powhatan County,POWHATAN,37.56853331,-78.07327527,2019-06-04,23139,2.0 - 3.0 Mile,634,2.77
5957 TRENHOLM VILLAGE DR,Powhatan County,POWHATAN,37.57890741,-78.0741999,2019-06-04,23139,2.0 - 3.0 Mile,632,2.77
2972 BALLSVILLE RD,Powhatan County,POWHATAN,37.58440687,-78.06715297,2019-06-04,23139,3.0 - 5.0 Mile,768,3.23
5901 WILBURN ESTATES CT,Powhatan County,POWHATAN,37.60622234,-78.0665297,2019-06-04,23139,3.0 - 5.0 Mile,1071,3.96
5940 WILBURN ESTATES CT,Powhatan County,POWHATAN,37.60943335,-78.06906064,2019-06-04,23139,3.0 - 5.0 Mile,1088,3.99
3455 TRENHOLM RD,Powhatan County,POWHATAN,37.61211215,-78.06295721,2019-06-04,23139,3.0 - 5.0 Mile,1288,4.36
2935 TRENHOLM RD,Powhatan County,POWHATAN,37.5811311,-78.05200319,2019-06-04,23139,3.0 - 5.0 Mile,1092,3.99
6080 PREAKNESS STAKES LN,Powhatan County,POWHATAN,37.55436553,-78.07616505,2019-06-04,23139,2.0 - 3.0 Mile,569,2.54
6092 PREAKNESS STAKES LN,Powhatan County,POWHATAN,37.55384071,-78.07850683,2019-06-04,23139,2.0 - 3.0 Mile,538,2.41
6109 PREAKNESS STAKES LN,Powhatan County,POWHATAN,37.55524816,-78.08127943,2019-06-04,23139,2.0 - 3.0 Mile,491,2.25
2411 OLD TAVERN RD,Powhatan County,POWHATAN,37.55284113,-78.03309142,2019-06-04,23139,3.0 - 5.0 Mile,1605,4.91
6320 WALNUT TREE DR,Powhatan County,POWHATAN,37.5381567,-78.09386325,2019-06-04,23139,2.0 - 3.0 Mile,421,2.01
6020 BROWN TOWN CIR,Powhatan County,POWHATAN,37.56637042,-78.07478245,2019-06-04,23139,2.0 - 3.0 Mile,600,2.67
6130 MILES RD,Powhatan County,POWHATAN,37.59668171,-78.08350572,2019-06-04,23139,2.0 - 3.0 Mile,644,2.82
6313 WALNUT TREE DR,Powhatan County,POWHATAN,37.53742035,-78.0922332,2019-06-04,23139,2.0 - 3.0 Mile,449,2.11
2695 BALLSVILLE RD,Powhatan County,POWHATAN,37.56881521,-78.07620165,2019-06-04,23139,2.0 - 3.0 Mile,588,2.61
6097 PREAKNESS STAKES LN,Powhatan County,POWHATAN,37.55462388,-78.07970581,2019-06-04,23139,2.0 - 3.0 Mile,516,2.34
6119 PREAKNESS STAKES LN,Powhatan County,POWHATAN,37.55484192,-78.08358869,2019-06-04,23139,2.0 - 3.0 Mile,455,2.13
6115 PREAKNESS STAKES LN,Powhatan County,POWHATAN,37.55570044,-78.08246395,2019-06-04,23139,2.0 - 3.0 Mile,469,2.19
5960 DERWENT RD,Powhatan County,POWHATAN,37.60078208,-78.06926148,2019-06-04,23139,3.0 - 5.0 Mile,917,3.61
6114 AUTUMN BLUFF RD,Powhatan County,POWHATAN,37.56807576,-78.07919901,2019-06-04,23139,2.0 - 3.0 Mile,551,2.45
2297 BALLSVILLE RD,Powhatan County,POWHATAN,37.54611642,-78.08962853,2019-06-04,23139,1.0 - 2.0 Mile,407,1.95
5800 ANDERSON HWY,Powhatan County,POWHATAN,37.55998068,-78.05711517,2019-06-04,23139,3.0 - 5.0 Mile,893,3.58
6116 PREAKNESS STAKES LN,Powhatan County,POWHATAN,37.55425631,-78.08259624,2019-06-04,23139,2.0 - 3.0 Mile,470,2.19
6110 PREAKNESS STAKES LN,Powhatan County,POWHATAN,37.55421712,-78.08168543,2019-06-04,23139,2.0 - 3.0 Mile,485,2.24
6086 PREAKNESS STAKES LN,Powhatan County,POWHATAN,37.5537543,-78.07751998,2019-06-04,23139,2.0 - 3.0 Mile,560,2.47
6091 PREAKNESS STAKES LN,Powhatan County,POWHATAN,37.55466073,-78.07861049,2019-06-04,23139,2.0 - 3.0 Mile,535,2.40
2291 BALLSVILLE RD,Powhatan County,POWHATAN,37.54564944,-78.09028662,2019-06-04,23139,1.0 - 2.0 Mile,400,1.93
2281 BALLSVILLE RD,Powhatan County,POWHATAN,37.54480955,-78.08979076,2019-06-04,23139,1.0 - 2.0 Mile,416,1.98
3297 TRENHOLM RD,Powhatan County,POWHATAN,37.60372418,-78.06289754,2019-06-04,23139,3.0 - 5.0 Mile,1110,4.02
6131 PREAKNESS STAKES LN,Powhatan County,POWHATAN,37.55323892,-78.08597714,2019-06-04,23139,2.0 - 3.0 Mile,423,2.01
3425 TRENHOLM RD,Powhatan County,POWHATAN,37.6105519,-78.06421954,2019-06-04,23139,3.0 - 5.0 Mile,1237,4.24
5890 WILBURN ESTATES CT,Powhatan County,POWHATAN,37.6072789,-78.06534383,2019-06-04,23139,3.0 - 5.0 Mile,1135,4.05
6034 ANDERSON HWY,Powhatan County,POWHATAN,37.5530088,-78.08165715,2019-06-04,23139,2.0 - 3.0 Mile,490,2.25
6016 ANDERSON HWY,Powhatan County,POWHATAN,37.55284608,-78.0781579,2019-06-04,23139,2.0 - 3.0 Mile,546,2.44
5824 ANDERSON HWY,Powhatan County,POWHATAN,37.56385527,-78.06333545,2019-06-04,23139,3.0 - 5.0 Mile,773,3.26
2986 BALLSVILLE RD,Powhatan County,POWHATAN,37.58561728,-78.06693609,2019-06-04,23139,3.0 - 5.0 Mile,776,3.27
6098 PREAKNESS STAKES LN,Powhatan County,POWHATAN,37.55377259,-78.07973633,2019-06-04,23139,2.0 - 3.0 Mile,519,2.35
6104 PREAKNESS STAKES LN,Powhatan County,POWHATAN,37.55425184,-78.08089408,2019-06-04,23139,2.0 - 3.0 Mile,498,2.28
6127 PREAKNESS STAKES LN,Powhatan County,POWHATAN,37.55396174,-78.08461285,2019-06-04,23139,2.0 - 3.0 Mile,441,2.08
3139 TRENHOLM RD,Powhatan County,POWHATAN,37.59214051,-78.06074016,2019-06-04,23139,3.0 - 5.0 Mile,976,3.74
3137 TRENHOLM RD,Powhatan County,POWHATAN,37.59200043,-78.05995977,2019-06-04,23139,3.0 - 5.0 Mile,996,3.78
6150 MILES RD,Powhatan County,POWHATAN,37.59983203,-78.08359573,2019-06-04,23139,2.0 - 3.0 Mile,685,2.95
2898C BALLSVILLE RD,Powhatan County,POWHATAN,37.58161616,-78.06544699,2019-06-04,23139,3.0 - 5.0 Mile,780,3.28
3405 TRENHOLM RD,Powhatan County,POWHATAN,37.60937117,-78.06320196,2019-06-04,23139,3.0 - 5.0 Mile,1233,4.23
183 SHERWOOD ROAD,Cumberland County,CARTERSVILLE,37.62301858,-78.09171924,2019-09-11,23027,3.0 - 5.0 Mile,1078,3.97
35 BOONE TRA*,Cumberland County,CARTERSVILLE,37.63054782,-78.10660437,2019-09-11,23027,3.0 - 5.0 Mile,1204,4.18
9 BOONE TRA*,Cumberland County,CARTERSVILLE,37.63238653,-78.10815438,2019-09-11,23027,3.0 - 5.0 Mile,1258,4.29
8 BOONE TRA*,Cumberland County,CARTERSVILLE,37.6320378,-78.10905141,2019-09-11,23027,3.0 - 5.0 Mile,1244,4.25
12 BOONE TRA*,Cumberland County,CARTERSVILLE,37.63131048,-78.10959447,2019-09-11,23027,3.0 - 5.0 Mile,1216,4.20
56 BUCK HOLLOW LANE,Cumberland County,CARTERSVILLE,37.63606224,-78.09862071,2019-09-11,23027,3.0 - 5.0 Mile,1477,4.67
1082 DEEP RUN ROAD,Cumberland County,CARTERSVILLE,37.63141233,-78.11157318,2019-09-11,23027,3.0 - 5.0 Mile,1206,4.19
1070 DEEP RUN ROAD,Cumberland County,CARTERSVILLE,37.63110377,-78.11237795,2019-09-11,23027,3.0 - 5.0 Mile,1193,4.16
239 JENNINGS ROAD,Cumberland County,CARTERSVILLE,37.63442597,-78.11675732,2019-09-11,23027,3.0 - 5.0 Mile,1279,4.35
215 JENNINGS ROAD,Cumberland County,CARTERSVILLE,37.63335045,-78.1185147,2019-09-11,23027,3.0 - 5.0 Mile,1248,4.27
159 JENNINGS ROAD,Cumberland County,CARTERSVILLE,37.62979741,-78.12398444,2019-09-11,23027,3.0 - 5.0 Mile,1102,4.01
18 MORNINGSIDE ROAD,Cumberland County,CARTERSVILLE,37.63755743,-78.14086179,2019-09-11,23027,3.0 - 5.0 Mile,1456,4.62
1700 CARTERSVILLE ROAD,Cumberland County,CARTERSVILLE,37.64215103,-78.13738434,2019-09-11,23027,3.0 - 5.0 Mile,1604,4.90
54 JENNINGS ROAD,Cumberland County,CARTERSVILLE,37.63085238,-78.13489284,2019-09-11,23027,3.0 - 5.0 Mile,1173,4.11
154 JENKINS RIDGE ROAD,Cumberland County,CARTERSVILLE,37.63009444,-78.15884097,2019-09-11,23027,3.0 - 5.0 Mile,1330,4.43
112 JENKINS RIDGE ROAD,Cumberland County,CARTERSVILLE,37.62956677,-78.15352366,2019-09-11,23027,3.0 - 5.0 Mile,1252,4.28
43 IVY LANE,Cumberland County,CARTERSVILLE,37.63309994,-78.14860838,2019-09-11,23027,3.0 - 5.0 Mile,1328,4.42
65 MORNINGSIDE ROAD,Cumberland County,CARTERSVILLE,37.63341497,-78.1457292,2019-09-11,23027,3.0 - 5.0 Mile,1314,4.40
63 MORNINGSIDE ROAD,Cumberland County,CARTERSVILLE,37.63358522,-78.14527486,2019-09-11,23027,3.0 - 5.0 Mile,1318,4.41
41 IVY LANE,Cumberland County,CARTERSVILLE,37.63379014,-78.14828148,2019-09-11,23027,3.0 - 5.0 Mile,1352,4.46
47 IVY LANE,Cumberland County,CARTERSVILLE,37.63402042,-78.1490384,2019-09-11,23027,3.0 - 5.0 Mile,1374,4.49
219 JENNINGS ROAD,Cumberland County,CARTERSVILLE,37.63221908,-78.11879009,2019-09-11,23027,3.0 - 5.0 Mile,1209,4.19
43 JENNINGS ROAD,Cumberland County,CARTERSVILLE,37.63260205,-78.1348304,2019-09-11,23027,3.0 - 5.0 Mile,1232,4.23
1088 DEEP RUN ROAD,Cumberland County,CARTERSVILLE,37.63158249,-78.11101625,2019-09-11,23027,3.0 - 5.0 Mile,1217,4.20
11 RHODES LANE,Cumberland County,CARTERSVILLE,37.62998348,-78.11288829,2019-09-11,23027,3.0 - 5.0 Mile,1150,4.08
1060 DEEP RUN ROAD,Cumberland County,CARTERSVILLE,37.63022213,-78.11489128,2019-09-11,23027,3.0 - 5.0 Mile,1151,4.08
10 RHODES LANE,Cumberland County,CARTERSVILLE,37.62977505,-78.11426916,2019-09-11,23027,3.0 - 5.0 Mile,1134,4.05
24 RHODES LANE,Cumberland County,CARTERSVILLE,37.62935653,-78.11400359,2019-09-11,23027,3.0 - 5.0 Mile,1119,4.02
1024 DEEP RUN ROAD,Cumberland County,CARTERSVILLE,37.6287358,-78.11437622,2019-09-11,23027,3.0 - 5.0 Mile,1082,3.98
46 BOONE TRA*,Cumberland County,CARTERSVILLE,37.62873892,-78.1070548,2019-09-11,23027,3.0 - 5.0 Mile,1137,4.06
44 BOONE TRA*,Cumberland County,CARTERSVILLE,37.62922764,-78.10723101,2019-09-11,23027,3.0 - 5.0 Mile,1160,4.09
36 BOONE TRA*,Cumberland County,CARTERSVILLE,37.62982754,-78.10806212,2019-09-11,23027,3.0 - 5.0 Mile,1175,4.12
47 BOONE TRA*,Cumberland County,CARTERSVILLE,37.62881518,-78.10575537,2019-09-11,23027,3.0 - 5.0 Mile,1153,4.08
39 BOONE TRA*,Cumberland County,CARTERSVILLE,37.62965472,-78.10596549,2019-09-11,23027,3.0 - 5.0 Mile,1183,4.13
15 BOONE TRA*,Cumberland County,CARTERSVILLE,37.63156041,-78.10734978,2019-09-11,23027,3.0 - 5.0 Mile,1238,4.24
9 SHERWOOD ROAD,Cumberland County,CARTERSVILLE,37.63497139,-78.1059192,2019-09-11,23027,3.0 - 5.0 Mile,1372,4.49
7 SHERWOOD ROAD,Cumberland County,CARTERSVILLE,37.63526031,-78.10625246,2019-09-11,23027,3.0 - 5.0 Mile,1384,4.50
1167 DEEP RUN ROAD,Cumberland County,CARTERSVILLE,37.63699472,-78.10687337,2019-09-11,23027,3.0 - 5.0 Mile,1450,4.61
1163 DEEP RUN ROAD,Cumberland County,CARTERSVILLE,37.6363799,-78.10794576,2019-09-11,23027,3.0 - 5.0 Mile,1419,4.56
27 SHERWOOD ROAD,Cumberland County,CARTERSVILLE,37.63439061,-78.10437506,2019-09-11,23027,3.0 - 5.0 Mile,1359,4.47
37 SHERWOOD ROAD,Cumberland County,CARTERSVILLE,37.6340131,-78.10337274,2019-09-11,23027,3.0 - 5.0 Mile,1351,4.46
41 SHERWOOD ROAD,Cumberland County,CARTERSVILLE,37.63398217,-78.10273051,2019-09-11,23027,3.0 - 5.0 Mile,1357,4.47
74 SHERWOOD ROAD,Cumberland County,CARTERSVILLE,37.6316688,-78.10112388,2019-09-11,23027,3.0 - 5.0 Mile,1270,4.34
110 BUCK HOLLOW LANE,Cumberland County,CARTERSVILLE,37.63950573,-78.09498573,2019-09-11,23027,3.0 - 5.0 Mile,1650,4.95
92 BUCK HOLLOW LANE,Cumberland County,CARTERSVILLE,37.63882006,-78.09432153,2019-09-11,23027,3.0 - 5.0 Mile,1615,4.92
103 SHERWOOD ROAD,Cumberland County,CARTERSVILLE,37.6301408,-78.09835461,2019-09-11,23027,3.0 - 5.0 Mile,1255,4.28
191 JENNINGS ROAD,Cumberland County,CARTERSVILLE,37.62989269,-78.12080326,2019-09-11,23027,3.0 - 5.0 Mile,1117,4.02
181 JENNINGS ROAD,Cumberland County,CARTERSVILLE,37.62945578,-78.1222053,2019-09-11,23027,3.0 - 5.0 Mile,1089,3.99
202 JENNINGS ROAD,Cumberland County,CARTERSVILLE,37.62882835,-78.11964073,2019-09-11,23027,3.0 - 5.0 Mile,1069,3.95
210 JENNINGS ROAD,Cumberland County,CARTERSVILLE,37.62892277,-78.11827356,2019-09-11,23027,3.0 - 5.0 Mile,1076,3.97
224 JENNINGS ROAD,Cumberland County,CARTERSVILLE,37.62957881,-78.11664644,2019-09-11,23027,3.0 - 5.0 Mile,1114,4.02
1035 DEEP RUN ROAD,Cumberland County,CARTERSVILLE,37.62967381,-78.11585413,2019-09-11,23027,3.0 - 5.0 Mile,1124,4.03
1075 DEEP RUN ROAD,Cumberland County,CARTERSVILLE,37.63395682,-78.11334149,2019-09-11,23027,3.0 - 5.0 Mile,1274,4.34
1083 DEEP RUN ROAD,Cumberland County,CARTERSVILLE,37.63220005,-78.11204278,2019-09-11,23027,3.0 - 5.0 Mile,1234,4.23
1089 DEEP RUN ROAD,Cumberland County,CARTERSVILLE,37.63228734,-78.11118765,2019-09-11,23027,3.0 - 5.0 Mile,1242,4.25
1693 CARTERSVILLE ROAD,Cumberland County,CARTERSVILLE,37.6416271,-78.13849151,2019-09-11,23027,3.0 - 5.0 Mile,1584,4.88
1704 CARTERSVILLE ROAD,Cumberland County,CARTERSVILLE,37.64289106,-78.13722944,2019-09-11,23027,3.0 - 5.0 Mile,1649,4.95
70 MORNINGSIDE ROAD,Cumberland County,CARTERSVILLE,37.63952102,-78.14605804,2019-09-11,23027,3.0 - 5.0 Mile,1554,4.81
50 MORNINGSIDE ROAD,Cumberland County,CARTERSVILLE,37.63861894,-78.14427947,2019-09-11,23027,3.0 - 5.0 Mile,1508,4.73
16 MORNINGSIDE ROAD,Cumberland County,CARTERSVILLE,37.63738316,-78.14063436,2019-09-11,23027,3.0 - 5.0 Mile,1445,4.61
1689 CARTERSVILLE ROAD,Cumberland County,CARTERSVILLE,37.63641009,-78.13946033,2019-09-11,23027,3.0 - 5.0 Mile,1404,4.53
1672 CARTERSVILLE ROAD,Cumberland County,CARTERSVILLE,37.63516723,-78.13777329,2019-09-11,23027,3.0 - 5.0 Mile,1335,4.43
23 MORNINGSIDE ROAD,Cumberland County,CARTERSVILLE,37.63592148,-78.14187592,2019-09-11,23027,3.0 - 5.0 Mile,1392,4.52
31 MORNINGSIDE ROAD,Cumberland County,CARTERSVILLE,37.63583553,-78.1427871,2019-09-11,23027,3.0 - 5.0 Mile,1397,4.53
45 MORNINGSIDE ROAD,Cumberland County,CARTERSVILLE,37.63552926,-78.144164,2019-09-11,23027,3.0 - 5.0 Mile,1393,4.52
1667 CARTERSVILLE ROAD,Cumberland County,CARTERSVILLE,37.63439395,-78.1401715,2019-09-11,23027,3.0 - 5.0 Mile,1313,4.40
69 MORNINGSIDE ROAD,Cumberland County,CARTERSVILLE,37.63664788,-78.14992869,2019-09-11,23027,3.0 - 5.0 Mile,1488,4.68
71 MORNINGSIDE ROAD,Cumberland County,CARTERSVILLE,37.63493292,-78.15066615,2019-09-11,23027,3.0 - 5.0 Mile,1429,4.58
135 MORNINGSIDE ROAD,Cumberland County,CARTERSVILLE,37.64048355,-78.15288522,2019-09-11,23027,3.0 - 5.0 Mile,1673,4.98
79 JENNINGS ROAD,Cumberland County,CARTERSVILLE,37.63900389,-78.12176262,2019-09-11,23027,3.0 - 5.0 Mile,1466,4.65
1542 CARTERSVILLE ROAD,Cumberland County,CARTERSVILLE,37.62922238,-78.14010958,2019-09-11,23027,3.0 - 5.0 Mile,1132,4.05
1552 CARTERSVILLE ROAD,Cumberland County,CARTERSVILLE,37.63010332,-78.1392641,2019-09-11,23027,3.0 - 5.0 Mile,1170,4.10
1533 CARTERSVILLE ROAD,Cumberland County,CARTERSVILLE,37.63010886,-78.14681378,2019-09-11,23027,3.0 - 5.0 Mile,1214,4.20
159 JENKINS RIDGE ROAD,Cumberland County,CARTERSVILLE,37.62990649,-78.15946206,2019-09-11,23027,3.0 - 5.0 Mile,1334,4.43
153 JENKINS RIDGE ROAD,Cumberland County,CARTERSVILLE,37.62949508,-78.15934465,2019-09-11,23027,3.0 - 5.0 Mile,1312,4.40
100 JENNINGS ROAD,Cumberland County,CARTERSVILLE,37.63034994,-78.13052722,2019-09-11,23027,3.0 - 5.0 Mile,1138,4.06
135 JENNINGS ROAD,Cumberland County,CARTERSVILLE,37.63015784,-78.12599337,2019-09-11,23027,3.0 - 5.0 Mile,1125,4.03
139 JENNINGS ROAD,Cumberland County,CARTERSVILLE,37.62991201,-78.12481218,2019-09-11,23027,3.0 - 5.0 Mile,1108,4.02
167 JENNINGS ROAD,Cumberland County,CARTERSVILLE,37.62973541,-78.1231316,2019-09-11,23027,3.0 - 5.0 Mile,1099,4.01
217 JENNINGS ROAD,Cumberland County,CARTERSVILLE,37.63105166,-78.11852638,2019-09-11,23027,3.0 - 5.0 Mile,1171,4.11
205 JENNINGS ROAD,Cumberland County,CARTERSVILLE,37.62976931,-78.11930464,2019-09-11,23027,3.0 - 5.0 Mile,1113,4.02
199 JENNINGS ROAD,Cumberland County,CARTERSVILLE,37.62973794,-78.1197935,2019-09-11,23027,3.0 - 5.0 Mile,1107,4.02
1064 DEEP RUN ROAD,Cumberland County,CARTERSVILLE,37.63074532,-78.11295644,2019-09-11,23027,3.0 - 5.0 Mile,1181,4.13
1159 DEEP RUN ROAD,Cumberland County,CARTERSVILLE,37.63559109,-78.10740205,2019-09-11,23027,3.0 - 5.0 Mile,1390,4.51
16 BOONE TRA*,Cumberland County,CARTERSVILLE,37.63073351,-78.1089072,2019-09-11,23027,3.0 - 5.0 Mile,1199,4.17
1169 DEEP RUN ROAD,Cumberland County,CARTERSVILLE,37.63786029,-78.1071613,2019-09-11,23027,3.0 - 5.0 Mile,1478,4.67
1171 DEEP RUN ROAD,Cumberland County,CARTERSVILLE,37.63885658,-78.10728791,2019-09-11,23027,3.0 - 5.0 Mile,1511,4.73
1161 DEEP RUN ROAD,Cumberland County,CARTERSVILLE,37.63594435,-78.10798338,2019-09-11,23027,3.0 - 5.0 Mile,1402,4.53
1144 DEEP RUN ROAD,Cumberland County,CARTERSVILLE,37.63372203,-78.10736005,2019-09-11,23027,3.0 - 5.0 Mile,1300,4.39
1147 DEEP RUN ROAD,Cumberland County,CARTERSVILLE,37.63428232,-78.10818763,2019-09-11,23027,3.0 - 5.0 Mile,1324,4.41
116 JENKINS RIDGE ROAD,Cumberland County,CARTERSVILLE,37.63062213,-78.15498235,2019-09-11,23027,3.0 - 5.0 Mile,1293,4.38
46 JENNINGS ROAD,Cumberland County,CARTERSVILLE,37.63174721,-78.13512123,2019-09-11,23027,3.0 - 5.0 Mile,1203,4.18
22 IVY LANE,Cumberland County,CARTERSVILLE,37.63520447,-78.14660262,2019-09-11,23027,3.0 - 5.0 Mile,1410,4.53
1665 CARTERSVILLE ROAD,Cumberland County,CARTERSVILLE,37.63316205,-78.14267449,2019-09-11,23027,3.0 - 5.0 Mile,1275,4.34
1703 CARTERSVILLE ROAD,Cumberland County,CARTERSVILLE,37.64287896,-78.13907974,2019-09-11,23027,3.0 - 5.0 Mile,1668,4.97
1586 CARTERSVILLE ROAD,Cumberland County,CARTERSVILLE,37.63080344,-78.1390583,2019-09-11,23027,3.0 - 5.0 Mile,1187,4.15
1164 DEEP RUN ROAD,Cumberland County,CARTERSVILLE,37.63638951,-78.10633602,2019-09-11,23027,3.0 - 5.0 Mile,1430,4.58
195 JENNINGS ROAD,Cumberland County,CARTERSVILLE,37.62992083,-78.12020605,2019-09-11,23027,3.0 - 5.0 Mile,1121,4.03
184 JENNINGS ROAD,Cumberland County,CARTERSVILLE,37.62873574,-78.12101931,2019-09-11,23027,3.0 - 5.0 Mile,1066,3.94
1114 DEEP RUN ROAD,Cumberland County,CARTERSVILLE,37.63184514,-78.10980361,2019-09-11,23027,3.0 - 5.0 Mile,1231,4.23
62 MORNINGSIDE ROAD,Cumberland County,CARTERSVILLE,37.63803312,-78.14593628,2019-09-11,23027,3.0 - 5.0 Mile,1499,4.71
120 JENKINS RIDGE ROAD,Cumberland County,CARTERSVILLE,37.62985694,-78.15646879,2019-09-11,23027,3.0 - 5.0 Mile,1284,4.36
5 BOONE TRA*,Cumberland County,CARTERSVILLE,37.63245447,-78.10883371,2019-09-11,23027,3.0 - 5.0 Mile,1256,4.28
1126 DEEP RUN ROAD,Cumberland County,CARTERSVILLE,37.63268211,-78.10850778,2019-09-11,23027,3.0 - 5.0 Mile,1262,4.30
1165 DEEP RUN ROAD,Cumberland County,CARTERSVILLE,37.6373896,-78.1069145,2019-09-11,23027,3.0 - 5.0 Mile,1463,4.64
8 RHODES LANE,Cumberland County,CARTERSVILLE,37.63026703,-78.11435063,2019-09-11,23027,3.0 - 5.0 Mile,1159,4.08
162 JENKINS RIDGE ROAD,Cumberland County,CARTERSVILLE,37.63347495,-78.16007635,2019-09-11,23027,3.0 - 5.0 Mile,1475,4.67
1676 CARTERSVILLE RD,Cumberland County,CARTERSVILLE,37.63685513,-78.13724572,2019-09-11,23027,3.0 - 5.0 Mile,1413,4.54
55 MORNINGSIDE RD,Cumberland County,CARTERSVILLE,37.63616421,-78.14497286,2019-09-11,23027,3.0 - 5.0 Mile,1426,4.57
1600 CARTERSVILLE ROAD,Cumberland County,CARTERSVILLE,37.63264319,-78.13931012,2019-09-11,23027,3.0 - 5.0 Mile,1249,4.27
68 MORNINGSIDE ROAD,Cumberland County,CARTERSVILLE,37.63906512,-78.14566897,2019-09-11,23027,3.0 - 5.0 Mile,1536,4.78
113 JENNINGS ROAD,Cumberland County,CARTERSVILLE,37.63094303,-78.12847139,2019-09-11,23027,3.0 - 5.0 Mile,1164,4.09
109 JENNINGS ROAD,Cumberland County,CARTERSVILLE,37.63086545,-78.12925041,2019-09-11,23027,3.0 - 5.0 Mile,1161,4.09
6017 CARTERSVILLE RD,Powhatan County,POWHATAN,37.63154762,-78.07915263,2019-06-04,23139,3.0 - 5.0 Mile,1555,4.82
5945 CARTERSVILLE RD,Powhatan County,POWHATAN,37.63084128,-78.07229138,2019-06-04,23139,3.0 - 5.0 Mile,1675,4.98
